organisation_code,name,address1,address2,address3,city,county,postcode,opendate,closedate,telephone,practice_type
S10002,MUIRHEAD MEDICAL CENTRE,LIFF ROAD,MUIRHEAD,,DUNDEE,ANGUS,DD2 5NH,19950501,,01382 580264,4
S10017,THE BLUE PRACTICE,CRIEFF MEDICAL CENTRE,KING STREET,,CRIEFF,PERTHSHIRE,PH7 3SA,19960406,,01764 652283,4
S10036,ABERFELDY AND KINLOCH RANNOCH MEDICAL PRACTICE,TAYBRIDGE ROAD,,,ABERFELDY,PERTHSHIRE,PH15 2BL,20080401,,01887 820366,4
S10060,ABERFELDY HEALTH CENTRE,TAYBRIDGE ROAD,,,ABERFELDY,PERTHSHIRE,PH15 2BH,19750401,20080331,01887 820366,4
S10106,GROVE HEALTH CENTRE,129 DUNDEE ROAD,BROUGHTY FERRY,,DUNDEE,ANGUS,DD5 1DU,19960708,,01382 778881,4
S10125,ALYTH HEALTH CENTRE,NEW ALYTH ROAD,ALYTH,,BLAIRGOWRIE,PERTHSHIRE,PH11 8EQ,19791001,,01828 632317,4
S10182,ARBROATH MEDICAL CENTRE,7 HILL PLACE,,,ARBROATH,ANGUS,DD11 1AD,19771001,,01241 431144,4
S10233,ABBEY HEALTH CENTRE,EAST ABBEY STREET,,,ARBROATH,ANGUS,DD11 1EN,19860801,,01241 872692,4
S10286,"EAST PRACTICE,SPRINGFIELD MEDICAL CENTRE",30 PONDERLAW STREET,,,ARBROATH,ANGUS,DD11 1ES,19750801,,01241 870311,4
S10322,"WEST PRACTICE,SPRINGFIELD MEDICAL CENTRE",30 PONDERLAW STREET,,,ARBROATH,ANGUS,DD11 1ES,19711001,,01241 870307,4
S10361,ST MARGARET'S HEALTH CENTRE,ST MARGARETS DRIVE,,,AUCHTERARDER,PERTHSHIRE,PH3 1JH,19800903,,01764 662614,4
S10407,ARDBLAIR MEDICAL PRACTICE,ANN STREET,,,BLAIRGOWRIE,PERTHSHIRE,PH10 6EF,19740101,,01250 872033,4
S10445,STRATHMORE SURGERY,JESSIE STREET,,,BLAIRGOWRIE,PERTHSHIRE,PH10 6BT,19821001,,01250 872552,4
S10498,BRECHIN MEDICAL PRACTICE,BRECHIN HEALTH CENTRE,INFIRMARY STREET,,BRECHIN,ANGUS,DD9 7AN,19721001,,01356 624411,4
S10553,BRIDGE OF EARN SURGERY,MAIN STREET,BRIDGE OF EARN,,PERTH,PERTHSHIRE,PH2 9PN,19800801,,01738 812000,4
S10604,CARNOUSTIE MEDICAL GROUP,DUNDEE STREET,,,CARNOUSTIE,ANGUS,DD7 7RB,19751201,20060331,01241 859888,4
S10638,CARNOUSTIE MEDICAL GROUP,PARKVIEW PRIMARY CARE CENTRE,BARRY ROAD,,CARNOUSTIE,ANGUS,DD7 7RB,20060401,,01241 859888,4
S10657,CARNOUSTIE MEDICAL GROUP,DUNDEE STREET,,,CARNOUSTIE,ANGUS,DD7 7RB,19770301,20060331,01241 859888,4
S10708,COMRIE MEDICAL CENTRE,STROWAN ROAD,COMRIE,,CRIEFF,PERTHSHIRE,PH6 2EP,19900401,,01764 670217,4
S10751,COUPAR ANGUS MEDICAL CENTRE,CANDLEHOUSE LANE,COUPAR ANGUS,,BLAIRGOWRIE,PERTHSHIRE,PH13 9DD,19900401,,01828 627318,4
S10799,COUPAR ANGUS MEDICAL CENTRE,CANDLEHOUSE LANE,COUPAR ANGUS,,BLAIRGOWRIE,PERTHSHIRE,PH13 9DD,19810426,,01828 627312,4
S10835,THE RED PRACTICE,CRIEFF HEALTH CENTRE,KING STREET,,CRIEFF,PERTHSHIRE,PH7 3SA,19900401,,01764 652456,4
S11005,PARK AVENUE MEDICAL CENTRE,PARK AVENUE,,,DUNDEE,ANGUS,DD4 6PP,19790801,,01382 462222,4
S11058,TAY COURT SURGERY,50 SOUTH TAY STREET,,,DUNDEE,ANGUS,DD1 1PF,19821001,,01382 228228,4
S11096,ANCRUM MEDICAL CENTRE,12 ANCRUM ROAD,,,DUNDEE,ANGUS,DD2 2HZ,19930101,,01382 669500,4
S11128,TAYBANK MEDICAL CENTRE,10 ROBERTSON STREET,,,DUNDEE,ANGUS,DD4 6EL,20140701,,01382 461588,4
S11132,WESTGATE HEALTH CENTRE,CHARLESTON DRIVE,,,DUNDEE,ANGUS,DD2 4AD,19921001,20060430,01382 668189,4
S11166,COLDSIDE MEDICAL PRACTICE,129 STRATHMARTINE ROAD,,,DUNDEE,ANGUS,DD3 8DB,19781001,,01382 880900,4
S11171,WESTGATE MEDICAL PRACTICE,WEST GATE HEALTH CENTRE,CHARLESTON DRIVE,,DUNDEE,ANGUS,DD2 4AD,20060501,,01382 668189,4
S11289,PRINCES STREET SURGERY,155 PRINCES STREET,,,DUNDEE,ANGUS,DD4 6DG,19781001,,01382 461090,4
S11306,BROUGHTY FAMILY HEALTHCARE,103 BROWN STREET,BROUGHTY FERRY,,DUNDEE,ANGUS,DD5 1EP,19960708,,01382 731331,4
S11363,HAWKHILL MEDICAL CENTRE,HAWKHILL,,,DUNDEE,ANGUS,DD1 5LA,19931001,,01382 669589,4
S11382,FAMILY MEDICAL GROUP,GREEN WING,WALLACETOWN HEALTH CENTRE,LYON STREET,DUNDEE,ANGUS,DD4 6RB,19790201,,01382 459519,4
S11414,RYEHILL MEDICAL PRACTICE,ST PETER STREET,,,DUNDEE,ANGUS,DD1 4JH,19931001,,01382 644466,4
S11433,TAYBANK MEDICAL CENTRE,10 ROBERTSON STREET,,,DUNDEE,ANGUS,DD4 6EL,19900401,20140630,01382 461588,4
S11486,ERSKINE PRACTICE,ARTHURSTONE MEDICAL CENTRE,39 ARTHURSTONE TERRACE,,DUNDEE,ANGUS,DD4 6QY,19900401,,01382 458333,4
S11537,TERRA NOVA HOUSE,43 DURA STREET,,,DUNDEE,ANGUS,DD4 6SW,19840501,20080430,01382 451100,4
S11645,MILL PRACTICE,ARTHURSTONE HEALTH CENTRE,39 ARTHURSTONE TERRACE,,DUNDEE,ANGUS,DD4 6QY,19830801,,01382 457629,4
S11650,TERRA NOVA MEDICAL PRACTICE LLP,TERRA NOVA HOUSE,43 DURA STREET,,DUNDEE,ANGUS,DD4 6SW,20080501,,01382 451100,4
S11823,DOWNFIELD SURGERY,325 STRATHMARTINE ROAD,,,DUNDEE,ANGUS,DD3 8NE,19910101,,01382 812111,4
S11861,HILLBANK HEALTH CENTRE,1A CONSTITUTION STREET,,,DUNDEE,ANGUS,DD3 6NF,19911209,,01382 221976,4
S11931,MARYFIELD MEDICAL CENTRE,28 MAINS LOAN,,,DUNDEE,ANGUS,DD4 7AA,19740501,,01382 462292,4
S12046,WESTGATE HEATH CENTRE,CHARLESTON DRIVE,,,DUNDEE,ANGUS,DD2 4AD,19820401,20060430,01382 667408,4
S12210,ANCRUM MEDICAL CENTRE,12 ANCRUM ROAD,,,DUNDEE,ANGUS,DD2 2HZ,19900401,,01382 669316,4
S12281,NETHERGATE MEDICAL CENTRE,2 TAY SQUARE,,,DUNDEE,ANGUS,DD1 1PB,20020401,,01382 221527,4
S12493,TAYBANK MEDICAL CENTRE,10 ROBERTSON STREET,,,DUNDEE,ANGUS,DD4 6EL,19891001,20140630,01382 461588,4
S12559,TERRA NOVA HOUSE,43 DURA STREET,,,DUNDEE,ANGUS,DD4 6SW,19761001,20080430,01382 451100,4
S12633,ARDLER SURGERY,TURNBERRY AVENUE,ARDLER,,DUNDEE,ANGUS,DD2 3TP,19900807,20120124,01382 443522,4
S12831,LOCHEE HEALTH CENTRE,1 MARSHALL STREET,LOCHEE,,DUNDEE,ANGUS,DD2 3BR,19860701,,01382 611283,4
S12883,WHITFIELD CLINIC,123 WHITFIELD DRIVE,,,DUNDEE,ANGUS,DD4 0DP,19850527,20080430,01382 508410,4
S12901,WHITFIELD SURGERY,THE CRESCENT,71 LOTHIAN CRESCENT,,DUNDEE,ANGUS,DD4 0HU,20080501,,01382 508410,0
S12991,STOBSWELL MEDICAL CENTRE,163 ALBERT STREET,,,DUNDEE,ANGUS,DD4 6PX,19900401,,01382 461363,4
S13049,CRAIGVINEAN SURGERY,LITTLE DUNKELD,,,DUNKELD,PERTHSHIRE,PH8 0AD,19810401,,01350 727269,4
S13091,EDZELL HEALTH CENTRE,HIGH STREET,EDZELL,,BRECHIN,ANGUS,DD9 7TA,19900401,,01356 648209,4
S13142,THE CARSE MEDICAL PRACTICE,THE ROWANS,HIGH STREET,ERROL,PERTH,PERTHSHIRE,PH2 7QJ,19911001,,01821 642248,4
S13195,RAVENSWOOD SURGERY,NEW ROAD,,,FORFAR,ANGUS,DD8 2AE,19900401,,01307 463558,4
S13231,ACADEMY MEDICAL CENTRE,ACADEMY STREET,,,FORFAR,ANGUS,DD8 2HA,19810601,,01307 462316,4
S13284,LOUR ROAD GROUP PRACTICE,3 LOUR ROAD,,,FORFAR,ANGUS,DD8 2AS,19841001,,01307 463122,4
S13335,FRIOCKHEIM HEALTH CENTRE,WESTGATE,FRIOCKHEIM,,ARBROATH,ANGUS,DD11 4TX,19830101,,01241 828444,4
S13369,INVERGOWRIE MEDICAL PRACTICE,30 ERROL ROAD,INVERGOWRIE,,DUNDEE,ANGUS,DD2 5AD,20050405,,01382 562271,0
S13439,THE SURGERY,KINLOCH RANNOCH,,,PITLOCHRY,PERTHSHIRE,PH16 5PR,19800406,20080331,01882 632216,4
S13481,ST SERF'S PRACTICE,LOCH LEVEN HEALTH CENTRE,MUIRS,,KINROSS,PERTHSHIRE,KY13 8FP,20010601,,01577 862112,4
S13496,ORWELL PRACTICE,LOCH LEVEN HEALTH CENTRE,MUIRS,,KINROSS,PERTHSHIRE,KY13 8FP,20000228,,01577 862112,4
S13532,KIRRIEMUIR MEDICAL PRACTICE,TANNAGE BRAE,,,KIRRIEMUIR,ANGUS,DD8 4ES,19781001,,01575 573333,4
S13571,MONIFIETH HEALTH CENTRE,VICTORIA STREET,MONIFIETH,,DUNDEE,ANGUS,DD5 4LX,19880401,,01382 534301,4
S13621,TOWNHEAD PRACTICE,LINKS HEALTH CENTRE,FRANK WOOD WAY,,MONTROSE,ANGUS,DD10 8TY,19780401,,01674 676161,4
S13660,CASTLEGAIT SURGERY,LINKS HEALTH CENTRE,FRANK WOOD WAY,,MONTROSE,ANGUS,DD10 8TY,19781201,,01674 672554,4
S13706,ANNAT BANK PRACTICE,LINKS HEALTH CENTRE,FRANK WOOD WAY,,MONTROSE,ANGUS,DD10 8TY,19780101,,01674 673400,4
S13848,KINGS PRACTICE,GLOVER STREET MEDICAL CENTRE,133 GLOVER STREET,,PERTH,PERTHSHIRE,PH2 0JB,19750701,,01738 621844,4
S13891,"GREEN PRACTICE,WHITEFRIARS SURGERY",WHITEFRIARS STREET,,,PERTH,PERTHSHIRE,PH1 1PP,19770701,,01738 627912,4
S13941,VICTORIA PRACTICE,GLOVER STREET MEDICAL CENTRE,133 GLOVER STREET,,PERTH,PERTHSHIRE,PH2 0JB,19820801,,01738 639748,4
S13975,"MAUVE PRACTICE,DRUMHAR HEALTH CENTRE",NORTH METHVEN STREET,,,PERTH,PERTHSHIRE,PH1 5PD,19930823,,01738 622421,4
S14037,THE TAYMOUNT SURGERY,1 TAYMOUNT TERRACE,,,PERTH,PERTHSHIRE,PH1 1NU,19720801,,01738 627117,4
S14249,"RED PRACTICE,WHITEFRIARS SURGERY",WHITEFRIARS STREET,,,PERTH,PERTHSHIRE,PH1 1PP,19871101,,01738 625842,4
S14291,THE MEDICAL CENTRE,CALEDONIAN ROAD,,,PERTH,PERTHSHIRE,PH2 8HH,19870501,,01738 628234,4
S14342,"YELLOW PRACTICE,DRUMHAR HEALTH CENTRE",NORTH METHVEN STREET,,,PERTH,PERTHSHIRE,PH1 5PD,19770401,,01738 621726,4
S14501,ATHOLL MEDICAL CENTRE,FERRY ROAD,,,PITLOCHRY,PERTHSHIRE,PH16 5FG,19781001,,01796 472558,4
S14569,STANLEY MEDICAL CENTRE,43 SHIELHILL PLACE,STANLEY,,PERTH,PERTHSHIRE,PH1 4NN,19810801,,01738 828294,4
S15006,CENTRAL HEALTHCARE,DRUMHAR HEALTH CENTRE,DRUMHAR COURT,NORTH METHVEN STREET,PERTH,PERTHSHIRE,PH1 5PD,20040126,20121104,01738 564261,4
S15858,RM CONDOR,CONDOR,,,ARBROATH,ANGUS,DD11 3SP,20120521,,,0
S15909,"HEALTH,HOMELESS OUTREACH TEAM",WALLACETOWN HEALTH CENTRE,LYON STREET,,DUNDEE,ANGUS,DD4 6RB,20051220,,01382 443526,0
S15913,THE HOMEOPATHIC CLINIC,EAST LODGE,JEDBURGH ROAD,,DUNDEE,ANGUS,DD2 1SP,20050613,,,4
S15928,TAYSIDE OUT OF HOURS (3),ORTHOPAEDIC DEPARTMENT,PERTH ROYAL INFIRMARY,,PERTH,PERTHSHIRE,PH1 1NX,20041006,,01738 473845,2
S15932,WALLACETOWN COMMUNITY NURSING,WALLACETOWN HEALTH CENTRE,LYON STREET,,DUNDEE,ANGUS,DD4 6RB,20040525,,01382 459608,0
S15947,TAYSIDE OUT OF HOURS (1),WALLACETOWN HEALTH CENTRE,LYON STREET,,DUNDEE,ANGUS,DD4 6RB,20041006,,,2
S15951,TAYSIDE OUT OF HOURS (2),ARBROATH INFIRMARY,ROSEMOUNT ROAD,,ARBROATH,ANGUS,DD11 2AT,20041006,,,2
S15966,THE HOWIE WING,HILLBANK HEALTH CENTRE,1A CONSTITUTION STREET,,DUNDEE,ANGUS,DD3 6NF,20040301,20041005,01382 205205,4
S15971,WALLACETOWN HEALTH CENTRE,LYON STREET,,,DUNDEE,ANGUS,DD4 6RB,20040401,20041005,01382 459519,4
S15985,ANGUS COUNTY EMERGENCY SERVICE,ANGUS NHS TRUST,ROSEMOUNT ROAD,,ARBROATH,ANGUS,DD11 2AT,20040107,20041005,01241 434311,4
S16013,ROXBURGH STREET SURGERY,10 ROXBURGH STREET,,,GALASHIELS,SELKIRKSHIRE,TD1 1PF,19790801,,01896 752557,4
S16028,DUNS MEDICAL PRACTICE,THE KNOLL,,,DUNS,BERWICKSHIRE,TD11 3EL,19860801,20070930,01361 883322,4
S16032,JEDBURGH MEDICAL PRACTICE,THE HEALTH CENTRE,QUEEN STREET,,JEDBURGH,ROXBURGHSHIRE,TD8 6EN,19761201,,01835 863361,4
S16047,NEWCASTLETON MEDICAL PRACTICE,MOSS ROAD,,,NEWCASTLETON,ROXBURGHSHIRE,TD9 0RU,19620601,,01387 375100,4
S16051,EILDON SURGERY,AUCTION MARKET,NEWTOWN ST. BOSWELLS,,MELROSE,ROXBURGHSHIRE,TD6 0PP,19870101,,01835 822777,4
S16066,MERSE MEDICAL PRACTICE,SOUTH CROFTS,CHIRNSIDE,,DUNS,BERWICKSHIRE,TD11 3XP,20100401,,01890 818253,4
S16085,SELKIRK MEDICAL PRACTICE,THE HEALTH CENTRE,VIEWFIELD LANE,,SELKIRK,SELKIRKSHIRE,TD7 4LJ,19800701,,01750 21674,4
S16121,ST RONAN'S PRACTICE,ST RONAN'S HEALTH CENTRE,,,INNERLEITHEN,PEEBLESSHIRE,EH44 6PG,19740401,,01896 830203,4
S16136,KELSO MEDICAL GROUP,KELSO HEALTH CENTRE,INCH ROAD,,KELSO,ROXBURGHSHIRE,TD5 7LF,19840801,,01573 224424,4
S16141,O'CONNELL STREET MEDICAL PRACTICE,O'CONNELL STREET MEDICAL CENTRE,OCONNELL STREET,,HAWICK,ROXBURGHSHIRE,TD9 9HU,19800801,,01450 372276,4
S16160,THE NEIDPATH PRACTICE,HAY LODGE HEALTH CENTRE,NEIDPATH ROAD,,PEEBLES,PEEBLESSHIRE,EH45 8JG,19900401,,01721 720380,4
S16174,WEST LINTON MEDICAL PRACTICE,THE HEALTH CENTRE,DEANFOOT ROAD,,WEST LINTON,PEEBLESSHIRE,EH46 7EX,19761101,,01968 660808,4
S16193,THE ELLWYN PRACTICE,THE HEALTH CENTRE,CURRIE ROAD,,GALASHIELS,SELKIRKSHIRE,TD1 2UA,19810801,,01896 661355,4
S16206,COLDSTREAM MEDICAL PRACTICE,THE HEALTH CENTRE,KELSO ROAD,,COLDSTREAM,BERWICKSHIRE,TD12 4LQ,19840801,,01890 882711,4
S16211,THE TWEED PRACTICE,HAYLODGE CLINIC HOUSE,NEIDPATH ROAD,,PEEBLES,PEEBLESSHIRE,EH45 8JG,19740101,,01721 720601,4
S16230,BRAESIDE MEDICAL PRACTICE,THE HEALTH CENTRE,CURRIE ROAD,,GALASHIELS,SELKIRKSHIRE,TD1 2UA,20020401,,01896 661360,4
S16244,GLENFIELD MEDICAL PRACTICE,GALASHIELS HEALTH CENTRE,CURRIE ROAD,,GALASHIELS,SELKIRKSHIRE,TD1 2UA,20020401,,01896 661363,4
S16259,WAVERLEY MEDICAL PRACTICE,THE HEALTH CENTRE,CURRIE ROAD,,GALASHIELS,SELKIRKSHIRE,TD1 2UA,20010401,,01896 661350,4
S16367,BECS (BORDERS EMERGENCY CARE),BORDERS GENERAL HOSPITAL,,,MELROSE,ROXBURGHSHIRE,TD6 9BS,20020401,,,2
S16422,CHIRNSIDE MEDICAL PRACTICE,SOUTH CROFTS,CHIRNSIDE,,DUNS,BERWICKSHIRE,TD11 3XP,19851001,20100331,01890 818253,4
S16475,GREENLAW SURGERY,DUNS ROAD,GREENLAW,,DUNS,BERWICKSHIRE,TD10 6XJ,19900219,,01361 810216,4
S16507,EYEMOUTH MEDICAL PRACTICE,THE HEALTH CENTRE,HOUNDLAW PARK,,EYEMOUTH,BERWICKSHIRE,TD14 5DD,19930701,,01890 750383,4
S16511,LAUDER MEMORIAL MEDICAL CENTRE,2 EDINBURGH ROAD,,,LAUDER,BERWICKSHIRE,TD2 6TW,19970101,20110630,01578 722267,4
S16545,TEVIOT MEDICAL PRACTICE,TEVIOT ROAD,,,HAWICK,ROXBURGHSHIRE,TD9 9DT,19980901,,01450 370999,4
S16550,"STOW,LAUDER HEALTH",STOW HEALTH CENTRE,STATION ROAD,STOW,GALASHIELS,SELKIRKSHIRE,TD1 2SQ,20041001,,01896 661440,4
S16564,EARLSTON MEDICAL PRACTICE,EARLSTON HEALTH CENTRE,KIDGATE,MELROSE ROAD,EARLSTON,BERWICKSHIRE,TD4 6DW,20041001,,01896 848333,4
S16579,DUNS MEDICAL PARTNERSHIP,THE KNOLL,STATION ROAD,,DUNS,BERWICKSHIRE,TD11 3EL,20071001,20100331,01361 885030,4
S16583,DUNS MEDICAL GROUP,THE KNOLL,STATION ROAD,,DUNS,BERWICKSHIRE,TD11 3EL,20071001,,01361 885040,4
S16598,STOMA SERVICE,NHS BORDERS,WEST GROVE,WAVERLEY ROAD,MELROSE,ROXBURGHSHIRE,TD6 9SL,20080401,,,0
S18004,HOMEOPATHIC MEDICAL PRACTICE,GREYFRIARS MEDICAL CENTRE,33-37 CASTLE STREET,,DUMFRIES,DUMFRIESSHIRE,DG1 1DL,20021107,20130630,,4
S18057,LOCHINCH PRACTICE,WAVERLEY MEDICAL CENTRE,DALRYMPLE STREET,,STRANRAER,WIGTOWNSHIRE,DG9 7DW,19861201,,01776 707817,4
S18095,LOCH REE PRACTICE,WAVERLEY MEDICAL CENTRE,DALRYMPLE STREET,,STRANRAER,WIGTOWNSHIRE,DG9 7DW,19911001,,01776 707814,4
S18112,DR I M RITCHIE,THE CLINIC,DRUMMORE,,STRANRAER,WIGTOWNSHIRE,DG9 9QQ,19900401,,01776 840205,4
S18127,SOUTHERN MACHARS GROUP PRACTICE,3 ST JOHN STREET,WHITHORN,,NEWTON STEWART,WIGTOWNSHIRE,DG8 8PS,19641201,20140630,01988 500218,4
S18131,"DR J W M DUNN,PARTNER",HIGH VENNEL,WIGTOWN,,NEWTON STEWART,WIGTOWNSHIRE,DG8 9JQ,19800811,,01988 402210,4
S18151,CAIRNSMORE MEDICAL PRACTICE,HEALTH CENTRE,CREEBRIDGE,,NEWTON STEWART,WIGTOWNSHIRE,DG8 6NR,19770701,,01671 403609,4
S18165,THE MERRICK PRACTICE,THE SURGERY,ST. COUANS CRESCENT,KIRKCOWAN,NEWTON STEWART,WIGTOWNSHIRE,DG8 0HH,19870921,,01671 830206,4
S18170,DR I J N HAY AND PARTNER,THE CLINIC,GARDEN STREET,GATEHOUSE OF FLEET,CASTLE DOUGLAS,KIRKCUDBRIGHTSHIRE,DG7 2JU,19810801,20110531,01557 814437,4
S18184,CASTLE DOUGLAS MEDICAL GROUP,GARDEN HILL PRIMARY CARE CENTRE,2 GARDEN HILL ROAD,,CASTLE DOUGLAS,KIRKCUDBRIGHTSHIRE,DG7 3EE,19970701,,01556 505900,4
S18199,"DR R H MACK,PARTNERS",HEALTH CENTRE,ST. MARYS PLACE,TOWNEND,KIRKCUDBRIGHT,KIRKCUDBRIGHTSHIRE,DG6 4BJ,19870102,,01557 330755,4
S18216,"DR E A CARSON,PARTNERS",GARDEN HILL PRIMARY CARE CENTRE,2 GARDEN HILL ROAD,,CASTLE DOUGLAS,KIRKCUDBRIGHTSHIRE,DG7 3EE,19970701,,01556 502050,4
S18235,GLENKENS MEDICAL PRACTICE,HIGH STREET,NEW GALLOWAY,,CASTLE DOUGLAS,KIRKCUDBRIGHTSHIRE,DG7 3RN,19900401,,01644 420234,4
S18240,"DRS PFLANZ,CHRISTIE,CLARK-MAXWELL,LEYSHON",THE CLINIC,MILL ISLE,CRAIGNAIR STREET,DALBEATTIE,KIRKCUDBRIGHTSHIRE,DG5 4AY,19871002,,01556 610331,4
S18254,SHEBBURN MEDICAL PRACTICE,SHEBBURN SURGERY,MAIN STREET,NEW ABBEY,DUMFRIES,DUMFRIESSHIRE,DG2 8BY,19790801,,01387 850263,4
S18273,"DR P. CLAYTON,PARTNERS",ST. MICHAELS MEDICAL CENTRE,ST. MICHAELS BRIDGE ROAD,,DUMFRIES,DUMFRIESSHIRE,DG1 2PX,19780201,,01387 244950,4
S18288,"DR R Y SABUR,PARTNERS",LOCKTHORN MEDICAL CENTRE,EDINBURGH ROAD,,DUMFRIES,DUMFRIESSHIRE,DG1 1TR,19921231,,01387 259944,4
S18305,CHARLOTTE MEDICAL PRACTICE,LOCHFIELD ROAD PRIMARY CARE CENTRE,12-28 LOCHFIELD ROAD,,DUMFRIES,DUMFRIESSHIRE,DG2 9BH,19761001,,01387 267626,4
S18310,GILLBRAE MEDICAL PRACTICE,GILLBRAE ROAD,,,DUMFRIES,DUMFRIESSHIRE,DG1 4EJ,19801001,,01387 246282,4
S18324,UPPER NITHSDALE GROUP PRACTICE,SANQUHAR HEALTH CENTRE,STATION ROAD,,SANQUHAR,DUMFRIESSHIRE,DG4 6BT,19810112,,01659 50221,4
S18339,THORNHILL MEDICAL PRACTICE,THORNHILL HEALTH CENTRE,,,THORNHILL,DUMFRIESSHIRE,DG3 5AA,19710701,,01848 330208,4
S18343,CAIRN VALLEY MEDICAL PRACTICE,DUNSCORE HEALTH CENTRE,DUNSCORE,,DUMFRIES,DUMFRIESSHIRE,DG2 0UJ,19900401,,01387 820266,4
S18358,LOCKERBIE MEDICAL PRACTICE,LOCKERBIE HEALTH CENTRE,VICTORIA GARDENS,,LOCKERBIE,DUMFRIESSHIRE,DG11 2BJ,19780101,,01576 205502,4
S18377,LOCHMABEN MEDICAL GROUP,42-44 HIGH STREET,LOCHMABEN,,LOCKERBIE,DUMFRIESSHIRE,DG11 1NH,19851002,,01387 810215,4
S18381,CHURCH PLACE SURGERY,6 CHURCH PLACE,,,MOFFAT,DUMFRIESSHIRE,DG10 9ES,19511001,,01683 220197,4
S18396,"DRS SHARKEY,MORISETTY",HIGH STREET,,,MOFFAT,DUMFRIESSHIRE,DG10 9JP,19651101,,01683 220062,4
S18409,"DR W J G KIERAN,PARTNERS",GREENCROFT MEDICAL CENTRE (SOUTH),GREENCROFT WYND,,ANNAN,DUMFRIESSHIRE,DG12 6GS,19790701,,01461 202244,4
S18413,"DR N G KELLY,PARTNERS",GREENCROFT MEDICAL CENTRE (NORTH),GREENCROFT WYND,,ANNAN,DUMFRIESSHIRE,DG12 6GN,19740901,,01461 202745,4
S18428,GRETNA SURGERY,CENTRAL AVENUE,,,GRETNA,DUMFRIESSHIRE,DG16 5NA,19850901,,01461 338317,4
S18432,CANOBIE SURGERY,CANONBIE MEDICAL PRACTICE,BOWHOLM,,CANONBIE,DUMFRIESSHIRE,DG14 0UX,19910114,,013873 71313,4
S18447,LANGHOLM MEDICAL PARTNERSHIP,HEALTH CENTRE,,,LANGHOLM,DUMFRIESSHIRE,DG13 0JY,19900401,,013873 80355,4
S18451,"DR C R PALMER,PARTNER",THE SURGERY,MAIN ROAD,ECCLEFECHAN,LOCKERBIE,DUMFRIESSHIRE,DG11 3BT,19771126,,01576 300208,4
S18560,GREYFRIARS MEDICAL CENTRE,33-37 CASTLE STREET,,,DUMFRIES,DUMFRIESSHIRE,DG1 1DL,20000117,,01387 257752,4
S18574,"DR C M DONNELLY,PARTNER",SANDHEAD SURGERY,PIGGERY ROAD,,STRANRAER,WIGTOWNSHIRE,DG9 9DP,20010201,,01776 830262,4
S18589,"DR N T MISCAMPBELL,PARTNER",FOUR WINDS,GLENLUCE,,NEWTON STEWART,WIGTOWNSHIRE,DG8 0PU,20010201,,01581 300315,4
S18593,LOCHNAW PRACTICE,WAVERLEY MEDICAL CENTRE,DALRYMPLE STREET,,STRANRAER,WIGTOWNSHIRE,DG9 7DW,20020701,,01776 707811,4
S18611,SOUTHERN MACHARS PRACTICE,3 ST JOHN STREET,WHITHORN,,NEWTON STEWART,WIGTOWNSHIRE,DG8 8PS,20140701,,01988 500218,4
S19007,DGMED,"DUMFRIES,GALLOWAY ROYAL INFIRMARY",BANKEND ROAD,,DUMFRIES,DUMFRIESSHIRE,DG1 4AP,19990401,20041107,01387 247554,4
S19011,GENDOC,GALLOWAY COMMUNITY HOSPITAL,DALRYMPLE STREET,,STRANRAER,WIGTOWNSHIRE,DG9 7DQ,19990401,20041107,01387 257554,4
S20004,ANSTRUTHER MEDICAL PRACTICE,SKEITH HEALTH CENTRE,CRAIL ROAD,CELLARDYKE,ANSTRUTHER,FIFE,KY10 3FF,19880917,,01333 310352,4
S20057,AUCHTERMUCHTY PRACTICE,AUCHTERMUCHTY HEALTH CENTRE,12 CARSWELL WYND,AUCHTERMUCHTY,CUPAR,FIFE,KY14 7AW,19820801,,01337 828262,4
S20108,MUIREDGE SURGERY,MERLIN CRESCENT,BUCKHAVEN,,LEVEN,FIFE,KY8 1HJ,19870901,,01592 713299,4
S20151,"DRS BANDULARATNE,FLEMING,REES,WHEAL",BURNTISLAND MEDICAL GROUP,74 SOMERVILLE STREET,,BURNTISLAND,FIFE,KY3 9DF,19800801,,01592 872761,4
S20165,BURNTISLAND HEALTH CENTRE,74 SOMERVILLE STREET,,,BURNTISLAND,FIFE,KY3 9DF,19790701,20070311,01592 873321,4
S20170,DR HITCHCOCK'S PRACTICE,THE HEALTH CENTRE,74 SOMERVILLE STREET,,BURNTISLAND,FIFE,KY3 9DF,20070312,,01592 873321,4
S20216,CARDENDEN HEALTH CENTRE,WALLSGREEN ROAD,CARDENDEN,,LOCHGELLY,FIFE,KY5 0JE,19870101,20060930,01592 722440,4
S20235,CARDENDEN HEALTH CENTRE,WALLSGREEN ROAD,CARDENDEN,,LOCHGELLY,FIFE,KY5 0JE,19900401,20060930,01592 722441,4
S20240,THE HEALTH CENTRE,CARDENDEN HEALTH CENTRE,WALLSGREEN ROAD,CARDENDEN,LOCHGELLY,FIFE,KY5 0JE,20061001,20121231,01592 722441,4
S20254,WALLSGREEN MEDICAL PRACTICE,CARDENDEN HEALTH CENTRE,WALLSGREEN ROAD,CARDENDEN,LOCHGELLY,FIFE,KY5 0JE,20130101,,01592 722441,4
S20305,COWDENBEATH SURGERY,COWDENBEATH MEDICAL PRACTICE,173 STENHOUSE STREET,,COWDENBEATH,FIFE,KY4 9DH,19770801,,01383 518500,4
S20358,CROSSGATES MEDICAL PRACTICE,94 MAIN STREET,CROSSGATES,,COWDENBEATH,FIFE,KY4 8DF,19900401,,01383 511398,4
S20409,"DRS BLYTH,BURNETT,DOW,HARGREAVES,MACDONALD",EDEN VILLA PRACTICE,CUPAR HEALTH CENTRE,BANK STREET,CUPAR,FIFE,KY15 4JU,19731001,,01334 651223,4
S20413,BANK STREET MEDICAL GROUP,THE HEALTH CENTRE,BANK STREET,,CUPAR,FIFE,KY15 4JN,19900401,,01334 651201,4
S20451,NETHERTOWN SURGERY,ELLIOT STREET,,,DUNFERMLINE,FIFE,KY11 4TF,19630801,,01383 623516,4
S20466,NEW PARK MEDICAL PRACTICE,163 ROBERTSON ROAD,,,DUNFERMLINE,FIFE,KY12 0BL,19800801,,01383 629200,4
S20471,HOSPITAL HILL SURGERY,IZATT AVENUE,,,DUNFERMLINE,FIFE,KY11 3BA,19750701,,01383 731721,4
S20485,MILLHILL SURGERY,87 WOODMILL STREET,,,DUNFERMLINE,FIFE,KY11 4JW,19760401,,01383 621222,4
S20490,BELLYEOMAN SURGERY,BELLYEOMAN ROAD,,,DUNFERMLINE,FIFE,KY12 0AE,19830801,,01383 721266,4
S20502,LINBURN ROAD HEALTH CENTRE,124 NITH STREET,,,DUNFERMLINE,FIFE,KY11 4LT,20071112,,01383 733490,0
S20606,THE LOMOND PRACTICE,NAPIER ROAD,,,GLENROTHES,FIFE,KY6 1HL,19760901,,01592 765039,4
S20611,NORTH GLEN MEDICAL PRACTICE,1 HUNTSMAN'S COURT,,,GLENROTHES,FIFE,KY7 6SX,19860801,,01592 620062,4
S20630,THE GLENWOOD PRACTICE,GLENWOOD HEALTH CENTRE,NAPIER ROAD,,GLENROTHES,FIFE,KY6 1HL,19790101,,01592 765001,4
S20659,COS LANE SURGERY,WOODSIDE ROAD,,,GLENROTHES,FIFE,KY7 4AQ,19880401,,01592 752100,4
S20663,ROTHES MEDICAL PRACTICE,PITTEUCHAR HEALTH CENTRE,GLAMIS CENTRE,,GLENROTHES,FIFE,KY7 4RH,20020101,,01592 771177,4
S20729,VALLEYFIELD MEDICAL PRACTICE,THE HEALTH CENTRE,CHAPEL STREET,HIGH VALLEYFIELD,DUNFERMLINE,FIFE,KY12 8SJ,19960801,,01383 880511,4
S20752,INVERKEITHING MEDICAL GROUP,INVERKEITHING MEDICAL CENTRE,5 FRIARY COURT,,INVERKEITHING,FIFE,KY11 1NU,19750801,,01383 413234,4
S20803,KELTY MEDICAL PRACTICE,KELTY HEALTH CENTRE,80 MAIN STREET,,KELTY,FIFE,KY4 0AE,19781001,,01383 831281,4
S20856,KENNOWAY MEDICAL GROUP,JORDAN LANE,KENNOWAY,,LEVEN,FIFE,KY8 5JZ,19900401,,01333 350241,4
S20907,KINGHORN MEDICAL PRACTICE,ROSSLAND PLACE,KINGHORN,,BURNTISLAND,FIFE,KY3 9RT,19850302,,01592 890217,4
S20950,NICOL STREET SURGERY,48 NICOL STREET,,,KIRKCALDY,FIFE,KY1 1PH,19891001,,01592 642969,4
S20964,"DR ANDERSON,PARTNERS",KIRKCALDY HEALTH CENTRE,WHYTEMANS BRAE,,KIRKCALDY,FIFE,KY1 2NA,19780601,,01592 642902,4
S20979,BENNOCHY MEDICAL CENTRE,65 BENNOCHY ROAD,,,KIRKCALDY,FIFE,KY2 5RB,19781001,,01592 263332,4
S20983,ST BRYCEDALE SURGERY,ST BRYCEDALE ROAD,,,KIRKCALDY,FIFE,KY1 1ER,19790401,,01592 640800,4
S20998,PATH HOUSE MEDICAL PRACTICE,7 NETHER STREET,NETHER STREET,,KIRKCALDY,FIFE,KY1 2PG,19790701,,01592 805100,4
S21007,"DRS DIXON,DUGGAN,EGERTON,FLYNN,MCCRICKARD",KIRKCALDY HEALTH CENTRE,WHYTEMANS BRAE,,KIRKCALDY,FIFE,KY1 2NA,19741001,,01592 642178,4
S21011,"DRS MITCHELL,MORRIS,FORDYCE",KIRKCALDY HEALTH CENTRE,WHYTEMANS BRAE,,KIRKCALDY,FIFE,KY1 2NA,19900401,,01592 641203,4
S21026,DR C M MACGLONE,KIRKCALDY HEALTH CENTRE,WHYTEMANS BRAE,,KIRKCALDY,FIFE,KY1 2NA,19900401,,01592 640600,4
S21101,HOWE OF FIFE SURGERY,27 COMMERCIAL ROAD,LADYBANK,,CUPAR,FIFE,KY15 7JS,19900401,,01337 830765,4
S21153,LESLIE MEDICAL PRACTICE,ANDERSON DRIVE,LESLIE,,GLENROTHES,FIFE,KY6 3LQ,19770901,,01592 620222,4
S21204,"PITCAIRN PRACTICE LEUCHARS,BALMULLO",BALMULLO SURGERY,1 PITCAIRN DRIVE,BALMULLO,ST. ANDREWS,FIFE,KY16 0DZ,19891001,,01334 839210,4
S21257,"DR MCLAREN,PARTNERS",LEVEN HEALTH CENTRE,VICTORIA ROAD,,LEVEN,FIFE,KY8 4ET,19740701,,01333 432588,4
S21276,"DRS PAGE,CLARK,MCDONALD",LEVEN HEALTH CENTRE,,,LEVEN,FIFE,KY8 4ET,19940701,,01333 432555,4
S21281,AIRLIE MEDICAL PRACTICE,THE HEALTH CENTRE,VICTORIA ROAD,,LEVEN,FIFE,KY8 4ET,19940701,,01333 432577,4
S21308,DR CHAN,SURGERY,MAIN ROAD,CHARLESTOWN,DUNFERMLINE,FIFE,KY11 3ED,19900401,,01383 872201,4
S21346,"DRS CATTANACH,MARTINS DA SILVA,THOMPSON",THE HEALTH CENTRE,DAVID STREET,,LOCHGELLY,FIFE,KY5 9QZ,20070801,20120220,01592 780277,4
S21365,"DRS KIDD,CATTANACH,MARTINS DA SILVA",THE HEALTH CENTRE,DAVID STREET,,LOCHGELLY,FIFE,KY5 9QZ,20040701,20070731,01592 780277,4
S21370,DR K THOMPSON,LOCHGELLY HEALTH CENTRE,DAVID STREET,,LOCHGELLY,FIFE,KY5 9QZ,19900401,20070731,01592 780358,4
S21384,"DR MCKEAN,PARTNERS",LOCHGELLY HEALTH CENTRE,DAVID STREET,,LOCHGELLY,FIFE,KY5 9QZ,19940501,,01592 782783,4
S21421,"DRS ROBSON,CARLIN,BROWN",BENARTY MEDICAL CENTRE,54-58 LOCHLEVEN ROAD,LOCHORE,LOCHGELLY,FIFE,KY5 8DA,20040401,,01592 860463,4
S21435,LOCHGELLY MEDICAL GROUP,THE HEALTH CENTRE,DAVID STREET,,LOCHGELLY,FIFE,KY5 9QZ,20111101,,01592 780277,4
S21440,DR K THOMPSON,THE HEALTH CENTRE,DAVID STREET,,LOCHGELLY,FIFE,KY5 9QZ,20111101,,01592 782954,4
S21454,MARKINCH MEDICAL PRACTICE,19 HIGH STREET,MARKINCH,,GLENROTHES,FIFE,KY7 6ER,19830801,,01592 610640,4
S21505,METHILHAVEN SURGERY,361 METHILHAVEN ROAD,METHIL,,LEVEN,FIFE,KY8 3HR,19870801,,01333 426913,4
S21510,THE CANNONS PRACTICE,AJAX WAY,METHIL,,LEVEN,FIFE,KY8 3RS,19900401,,01333 426083,4
S21558,NEWBURGH SURGERY,116 HIGH STREET,NEWBURGH,,CUPAR,FIFE,KY14 6DA,19900401,,01337 840462,4
S21609,TAYVIEW MEDICAL PRACTICE,16 VICTORIA STREET,,,NEWPORT-ON-TAY,FIFE,DD6 8DJ,19891001,,01382 543251,4
S21651,INZIEVAR MEDICAL PRACTICE,OAKLEY HEALTH CENTRE,WARDLAW WAY,OAKLEY,DUNFERMLINE,FIFE,KY12 9QH,19860801,,01383 850212,4
S21666,"DRS BOGGON,HALFORD",OAKLEY HEALTH CENTRE,WARDLAW WAY,OAKLEY,DUNFERMLINE,FIFE,KY12 9QH,19900401,,01383 850293,4
S21736,"DR KYLE,PARTNERS",PITTENWEEM SURGERY,2 ROUTINE ROW,PITTENWEEM,ANSTRUTHER,FIFE,KY10 2LG,19920901,,01333 311307,4
S21755,PRIMROSE LANE MEDICAL CENTRE,3-5 JUTLAND STREET,ROSYTH,,DUNFERMLINE,FIFE,KY11 2ZL,19831203,,01383 414874,4
S21760,PARK ROAD PRACTICE,PARK ROAD SURGERY,PARK ROAD,ROSYTH,DUNFERMLINE,FIFE,KY11 2SE,19790801,,01383 418931,4
S21806,STRATHCAIRN MEDICAL PRACTICE,ST ANDREWS COMMUNITY HOSPITAL,LARGO ROAD,,ST. ANDREWS,FIFE,KY16 8AR,19870301,,01334 473441,4
S21811,FEDDINCH MEDICAL PRACTICE,ST ANDREWS COMMUNITY HOSPITAL,LARGO ROAD,,ST. ANDREWS,FIFE,KY16 8AR,19780301,,01334 476840,4
S21825,BLACKFRIARS MEDICAL PRACTICE,ST ANDREWS COMMUNITY HOSPITAL,LARGO ROAD,,ST. ANDREWS,FIFE,KY16 8AR,19801101,,01334 477477,4
S21859,FIFE CONSTABULARY,PHARMACY SERVICES PENTLAND HOUSE,LYNEBANK HOSPITAL,HALBEATH ROAD,DUNFERMLINE,FIFE,KY11 4UW,20020503,,,0
S21948,PCES,GLENROTHES HOSPITAL,1 LODGE RISE,,GLENROTHES,FIFE,KY7 5TG,20021104,,01592 748648,0
S21952,PCES,ST ANDREWS COMMUNITY HOSPITAL,LARGO ROAD,,ST. ANDREWS,FIFE,KY16 8AR,20100408,,01592 740240,0
S21967,PCES,VICTORIA HOSPITAL,HAYFIELD ROAD,,KIRKCALDY,FIFE,KY2 5AH,20100408,,01592 740240,0
S21971,PCES,QUEEN MARGARET HOSPITAL,WHITEFIELD ROAD,,DUNFERMLINE,FIFE,KY12 0SU,20100408,,01592 740240,0
S22000,SMOKING CESSATION CLINIC,WEST FIFE LHCC,HOUSE 4 LYNEBANK HOSPITAL,HALBEATH ROAD,DUNFERMLINE,FIFE,KY11 4UW,20030901,,,0
S22029,MINISTRY OF DEFENCE,1 TUTOR ROAD,LEUCHARS,,ST. ANDREWS,FIFE,KY16 0JW,20120220,,,0
S22033,DIRECT PATIENT CARE SERVICE,VICTORIA HOSPITAL,HAYFIELD ROAD,,KIRKCALDY,FIFE,KY2 5AH,20060306,,01592 643355,0
S22048,FIFE PAIN SERVICE,HOUSE 3,LYNEBANK HOSPITAL,HALBEATH ROAD,DUNFERMLINE,FIFE,KY11 4UW,20100401,,,0
S22052,HMS CALEDONIA ROSYTH,HILTON ROAD,ROSYTH,,DUNFERMLINE,FIFE,KY11 2EX,20120501,,01383 425412,0
S22391,PODIATRY SERVICE,CAMERON HOUSE,CAMERON BRIDGE,,LEVEN,FIFE,KY8 5RG,20140411,,01383 627164,0
S25012,"DR STIRLING,PARTNERS",HALLPARK ROAD,HALLPARK,SAUCHIE,ALLOA,CLACKMANNANSHIRE,FK10 3JQ,19880201,,01259 216476,4
S25027,HEALTH CENTRE PRACTICE 2,HALLPARK ROAD,HALLPARK,SAUCHIE,ALLOA,CLACKMANNANSHIRE,FK10 3JQ,19750301,,01259 724181,4
S25031,"DR BORLAND,PARTNERS CCHC",HALLPARK ROAD,HALLPARK,SAUCHIE,ALLOA,CLACKMANNANSHIRE,FK10 3JQ,19860401,,01259 216701,4
S25046,ALVA MEDICAL PRACTICE,WEST JOHNSTONE STREET,,,ALVA,CLACKMANNANSHIRE,FK12 5BD,19770801,,01259 760331,4
S25051,BALFRON HEALTH CENTRE,41-47 BUCHANAN STREET,BALFRON,,GLASGOW,LANARKSHIRE,G63 0TS,19750801,,01360 440515,4
S25065,EDENKILN SURGERY,12 DUMBROCK ROAD,STRATHBLANE,,GLASGOW,LANARKSHIRE,G63 9EF,19900401,,01360 770340,4
S25070,FORTHVIEW PRACTICE,HEALTH CENTRE,DEAN ROAD,,BO'NESS,WEST LOTHIAN,EH51 0DQ,19791201,,01506 822466,4
S25084,THE RICHMOND PRACTICE,DEAN ROAD,,,BO'NESS,WEST LOTHIAN,EH51 0DQ,19740901,,01506 822665,4
S25099,KINGLASS MEDICAL PRACTICE,KINGLASS CENTRE,GAUZE ROAD,,BO'NESS,WEST LOTHIAN,EH51 9UE,19900401,,01506 822556,4
S25101,BRIDGE OF ALLAN HEALTH CENTRE,FOUNTAIN ROAD,BRIDGE OF ALLAN,,STIRLING,STIRLINGSHIRE,FK9 4EU,19750401,,01786 833210,4
S25116,BRACKLINN PRACTICE,CALLANDER MEDICAL CENTRE,GEISHER ROAD,,CALLANDER,PERTHSHIRE,FK17 8LX,19900401,,01877 331001,4
S25121,LENY PRACTICE,CALLANDER MEDICAL CENTRE,GEISHER ROAD,,CALLANDER,PERTHSHIRE,FK17 8LX,19900401,,01877 331000,4
S25135,"CLACKMANNAN,KINCARDINE MEDICAL PRACTICE",MAIN STREET,,,CLACKMANNAN,CLACKMANNANSHIRE,FK10 4JA,19850501,,01259 723725,4
S25169,FALLIN HEALTH CENTRE,STIRLING ROAD,FALLIN,,STIRLING,STIRLINGSHIRE,FK7 7JD,19820801,,01786 812412,4
S25173,DENNY CROSS MEDICAL CENTRE,1 DUKE STREET,,,DENNY,STIRLINGSHIRE,FK6 6DB,19830406,,01324 822330,4
S25188,CARRONBANK MEDICAL PRACTICE,DENNY HEALTH CENTRE,CARRONBANK HOUSE,CARRONBANK CRESCENT,DENNY,STIRLINGSHIRE,FK6 6GD,19750801,,01324 822382,4
S25192,ANTONINE MEDICAL PRACTICE,LARBERT ROAD,,,BONNYBRIDGE,STIRLINGSHIRE,FK4 1ED,19830401,,01324 812315,4
S25205,BONNYBANK MEDICAL PRACTICE,BONNYBRIDGE HEALTH CENTRE,LARBERT ROAD,,BONNYBRIDGE,STIRLINGSHIRE,FK4 1ED,19790122,,01324 812613,4
S25210,DOLLAR HEALTH CENTRE,PARK PLACE,,,DOLLAR,CLACKMANNANSHIRE,FK14 7AA,19900401,,01259 742120,4
S25224,DOUNE HEALTH CENTRE,CASTLEHILL,,,DOUNE,PERTHSHIRE,FK16 6DR,19871001,,01786 841213,4
S25239,DRYMEN HEALTH CENTRE,2 OLD GARTMORE ROAD,DRYMEN,,GLASGOW,LANARKSHIRE,G63 0DP,19900401,20140731,01360 660203,4
S25243,DUNBLANE MEDICAL PRACTICE,HEALTH CENTRE,WELL PLACE,,DUNBLANE,PERTHSHIRE,FK15 9AL,19760807,,01786 822595,4
S25262,WALLACE MEDICAL CENTRE,254 THORNHILL ROAD,,,FALKIRK,STIRLINGSHIRE,FK2 7AZ,19781001,,01324 622826,4
S25277,ARK MEDICAL PRACTICE,9 BOOTH PLACE,,,FALKIRK,STIRLINGSHIRE,FK1 1BA,19900401,,01324 621113,4
S25281,MEEKS ROAD SURGERY,10 MEEKS ROAD,,,FALKIRK,STIRLINGSHIRE,FK2 7ES,19850801,,01324 619930,4
S25296,WESTBURN MEDICAL PRACTICE,FALKIRK COMMUNITYHOSPITAL,WESTBURN AVENUE,,FALKIRK,STIRLINGSHIRE,FK1 5SU,19860102,,01324 623577,4
S25309,GRAEME MEDICAL CENTRE,1 WESTERN AVENUE,,,FALKIRK,STIRLINGSHIRE,FK2 7HR,19850101,,01324 624437,4
S25313,CAMELON MEDICAL PRACTICE,3 BAIRD STREET,CAMELON,,FALKIRK,STIRLINGSHIRE,FK1 4PP,19820801,,01324 622854,4
S25332,BO'NESS ROAD MEDICAL PRACTICE,33 BO'NESS ROAD,,,GRANGEMOUTH,STIRLINGSHIRE,FK3 8AN,19841001,,01324 482653,4
S25347,KILLEARN HEALTH CENTRE,BALFRON ROAD,KILLEARN,,GLASGOW,LANARKSHIRE,G63 9NA,19790707,,01360 550339,4
S25351,KILLIN MEDICAL PRACTICE,LAGGAN LEIGHEAS,BALLECHROISK,,KILLIN,PERTHSHIRE,FK21 8TQ,19830401,,01567 820213,4
S25366,KIPPEN SURGERY,CASTLEHILL LOAN,KIPPEN,,STIRLING,STIRLINGSHIRE,FK8 3DZ,19560701,,01786 870369,4
S25390,VIEWPOINT MEDICAL PRACTICE,STENHOUSEMUIR HEALTH CENTRE,PARK DRIVE,STENHOUSEMUIR,LARBERT,STIRLINGSHIRE,FK5 3BB,19850801,,01324 552200,4
S25402,PARKVIEW PRACTICE,STENHOUSEMUIR HEALTH CENTRE,PARK DRIVE,STENHOUSEMUIR,LARBERT,STIRLINGSHIRE,FK5 3BB,19880801,,01324 554411,4
S25436,DR STEPHEN BROWN,MEADOWBANK HEALTH CENTRE,SALMON INN ROAD,POLMONT,FALKIRK,STIRLINGSHIRE,FK2 0XF,19900401,,01324 722454,4
S25441,POLMONT PARK MEDICAL PRACTICE,MEADOWBANK HEALTH CENTRE,SALMON INN ROAD,POLMONT,FALKIRK,STIRLINGSHIRE,FK2 0XF,19700801,,01324 715753,4
S25455,BRAESVIEW MEDICAL GROUP,MEADOWBANK HEALTH CENTRE,SALMON INN ROAD,POLMONT,FALKIRK,STIRLINGSHIRE,FK2 0XF,19740601,,01324 715540,4
S25460,"DR C WHITELAW,PARTNERS",MEADOWBANK HEALTH CENTRE,SALMON INN ROAD,POLMONT,FALKIRK,STIRLINGSHIRE,FK2 0XF,19810201,,01324 715446,4
S25474,SLAMANNAN MEDICAL PRACTICE,BANK STREET,SLAMANNAN,,FALKIRK,STIRLINGSHIRE,FK1 3EZ,19900401,,01324 851288,0
S25506,PARK TERRACE MEDICAL PRACTICE,7A PARK TERRACE,,,STIRLING,STIRLINGSHIRE,FK8 2JT,19750701,,01786 445 88,4
S25525,ORCHARD HOUSE HEALTH CENTRE,UNION STREET,,,STIRLING,STIRLINGSHIRE,FK8 1PH,19831031,,01786 450394,4
S25544,TILLICOULTRY MEDICAL PRACTICE,PARK STREET,,,TILLICOULTRY,CLACKMANNANSHIRE,FK13 6AG,19831008,,01259 750531,4
S25559,AIRTHREY PARK MEDICAL CENTRE,HERMITAGE ROAD,UNIVERSITY OF STIRLING,,STIRLING,STIRLINGSHIRE,FK9 4NJ,19870401,,01786 463831,4
S25563,GROUP MEDICAL PRACTICE,THE HEALTH CENTRE,KERSIEBANK AVENUE,,GRANGEMOUTH,STIRLINGSHIRE,FK3 9EL,19920201,20140331,08445 769111,4
S25578,GRANGE MEDICAL GROUP,THE HEALTH CENTRE,KERSIEBANK AVENUE,,GRANGEMOUTH,STIRLINGSHIRE,FK3 9EL,19920201,20140331,01324 665533,4
S25582,PARK AVENUE MEDICAL CENTRE,9 PARK AVENUE,,,STIRLING,STIRLINGSHIRE,FK8 2QR,19930401,,01786 473529,4
S25597,STENHOUSE PRACTICE,STENHOUSEMUIR HEALTH CENTRE,PARK DRIVE,STENHOUSEMUIR,LARBERT,STIRLINGSHIRE,FK5 3BB,19951001,,01324 570570,4
S25600,BANNOCKBURN HEALTH CENTRE,FIRS ENTRY,BANNOCKBURN,,STIRLING,STIRLINGSHIRE,FK7 0HW,19960401,,01786 813435,4
S25614,STRATHCARRON HOSPICE,RANDOLPH HILL,,,DENNY,STIRLINGSHIRE,FK6 5HJ,19960401,,01324 826222,0
S25629,ABERFOYLE MEDICAL CENTRE,MAIN STREET,ABERFOYLE,,STIRLING,STIRLINGSHIRE,FK8 3UQ,19960701,,01877 382421,4
S25633,BUCHLYVIE SURGERY,STATION ROAD,BUCHLYVIE,,STIRLING,STIRLINGSHIRE,FK8 3NB,19960701,,01877 382421,4
S25648,TRYST MEDICAL CENTRE,431 KING STREET,STENHOUSEMUIR,,LARBERT,STIRLINGSHIRE,FK5 4HT,19970701,,01324 551555,4
S25652,CARRON MEDICAL CENTRE,RONADES ROAD,BAINSFORD,,FALKIRK,STIRLINGSHIRE,FK2 7TA,19970701,,01324 619940,4
S25671,OCHILVIEW PRACTICE,STENHOUSEMUIR HEALTH CENTRE,PARK DRIVE,STENHOUSEMUIR,LARBERT,STIRLINGSHIRE,FK5 3BB,19990701,,01324 554136,4
S25686,ALLAN PARK MEDICAL PRACTICE,19 ALLAN PARK,,,STIRLING,STIRLINGSHIRE,FK8 2QD,20010101,,01786 451375,4
S25691,THE WALLACE MEDICAL PRACTICE,WALLACE HOUSE,MAXWELL PLACE,,STIRLING,STIRLINGSHIRE,FK8 1JU,20010101,,01786 448900,4
S25737,VIEWFIELD MEDICAL PRACTICE,3 VIEWFIELD PLACE,,,STIRLING,STIRLINGSHIRE,FK8 1NJ,20021115,,01786 472028,4
S25741,ST NINIANS MEDICAL PRACTICE,MAYFIELD STREET,ST NINIANS,,STIRLING,STIRLINGSHIRE,FK7 0BS,20021115,,01786 468282,4
S25794,GP OUT OF HOURS SERVICE,LIVILANDS GATE,STIRLING COMMUNITY HOSPITAL,,STIRLING,STIRLINGSHIRE,FK8 2AU,20040928,,0845 4242424,2
S25807,NHS FORTH VALLEY OOH SERVICE,HEALTH CENTRE,HALLPARK ROAD,SAUCHIE,ALLOA,CLACKMANNANSHIRE,FK10 3JQ,20040928,,0845 4242424,2
S25811,GP OUT OF HOURS SERVICE,MENTAL HEALTH UNIT,FORTH VALLEY ROYAL HOSPITAL,STIRLING ROAD,LARBERT,STIRLINGSHIRE,FK5 4WR,20040928,,0845 4242424,2
S25826,DIRECT PATIENT CARE SERVICE,"ACCIDENT,EMERGENCY DEPT",FORTH VALLEY ROYAL HOSPITAL,STIRLING ROAD,LARBERT,STIRLINGSHIRE,FK5 4WR,20041201,,01324 624000,0
S25864,KERSIEBANK MEDICAL PRACTICE,HEALTH CLINIC,21A KERSIEBANK AVENUE,,GRANGEMOUTH,STIRLINGSHIRE,FK3 9EL,20140401,,01324 665533,4
S25879,DRYMEN HEALTH CENTRE,2 OLD GARTMORE RD,DRYMEN,,GLASGOW,LANARKSHIRE,G63 0DP,20140801,,01360 660203,0
S30006,BELMONT MEDICAL GROUP,DENBURN HEALTH CENTRE,ROSEMOUNT VIADUCT,,ABERDEEN,ABERDEENSHIRE,AB25 1QB,19900101,20101206,0845 337 620,4
S30011,NORTHBURN MEDICAL PRACTICE,DENBURN HEALTH CENTRE,ROSEMOUNT VIADUCT,,ABERDEEN,ABERDEENSHIRE,AB25 1QB,19900401,20100331,01224 643333,4
S30030,GARTHDEE MEDICAL GROUP,HEALTH CENTRE,GARTHDEE ROAD,,ABERDEEN,ABERDEENSHIRE,AB10 7QQ,20040823,,01224 208312,4
S30044,VIADUCT MEDICAL PRACTICE,DENBURN HEALTH CENTRE,ROSEMOUNT VIADUCT,,ABERDEEN,ABERDEENSHIRE,AB25 1QB,19800401,20100331,01224 644744,4
S30059,HOLBURN MEDICAL GROUP,7 ALBYN PLACE,,,ABERDEEN,ABERDEENSHIRE,AB10 1YE,19940501,,01224 400800,4
S30078,DENBURN MEDICAL PRACTICE,DENBURN HEALTH CENTRE,ROSEMOUNT VIADUCT,,ABERDEEN,ABERDEENSHIRE,AB25 1QB,20100401,,01224 643333,4
S30082,WHINHILL MEDICAL PRACTICE,20 WHINHILL ROAD,,,ABERDEEN,ABERDEENSHIRE,AB11 7XH,20101207,,0845 337 620,0
S30100,FERRYHILL MEDICAL PRACTICE,193 BON ACCORD STREET,,,ABERDEEN,ABERDEENSHIRE,AB11 6UA,19900401,20101206,01224 587484,4
S30167,DIABETIC NURSE SERVICE,NHS GRAMPIAN NURSING DIRECTORATE,SUMMERFIELD HOUSE,2 EDAY ROAD,ABERDEEN,ABERDEENSHIRE,AB15 6RE,20091125,,01224 558427,0
S30171,NHS GRAMPIAN HEART FAILURE NURSING SERVICE,NURSING DIRECTORATE,SUMMERFIELD HOUSE,2 EDAY ROAD,ABERDEEN,ABERDEENSHIRE,AB15 6RE,20130801,,01330 827230,0
S30203,ELMBANK GROUP PRACTICE,FORESTERHILL HEALTH CENTRE,WESTBURN ROAD,,ABERDEEN,ABERDEENSHIRE,AB25 2AY,19830801,,0845 337 071,4
S30218,HAMILTON MEDICAL GROUP,4 QUEENS ROAD,,,ABERDEEN,ABERDEENSHIRE,AB15 4ZT,19790401,,01224 562888,4
S30241,BRIMMOND MEDICAL GROUP,106 INVERURIE ROAD,BUCKSBURN,,ABERDEEN,ABERDEENSHIRE,AB21 9AT,19980101,,01224 713869,4
S30256,BUCKSBURN MEDICAL PRACTICE,BUCKSBURN CLINIC,KEPPLEHILLS ROAD,BUCKSBURN,ABERDEEN,ABERDEENSHIRE,AB21 9DG,19980101,,01224 713927,4
S30261,WESTBURN MEDICAL GROUP,FORESTERHILL HEALTH CENTRE,WESTBURN ROAD,,ABERDEEN,ABERDEENSHIRE,AB25 2AY,19990401,,01224 559595,4
S30275,TORRY MEDICAL PRACTICE,TORRY NEIGHBOURHOOD CENTRE,OSCAR ROAD,,ABERDEEN,ABERDEENSHIRE,AB11 8ER,19990401,,01224 894600,4
S30307,GREAT WESTERN MEDICAL PRACTICE,SEAFIELD ROAD,,,ABERDEEN,ABERDEENSHIRE,AB15 7YT,19791001,,0845 337 054,4
S30401,KINCORTH MEDICAL PRACTIICE,KINCORTH COMMUNITY HEALTH CENTRE,PROVOST WATT DRIVE,,ABERDEEN,ABERDEENSHIRE,AB12 5NA,19780801,,0845 337 117,4
S30504,OLDMACHAR MEDICAL PRACTICE,526 KING STREET,,,ABERDEEN,ABERDEENSHIRE,AB24 5RS,19750701,,0845 3370510,4
S30561,MARYWELL HEALTHCARE CENTRE,90 COLLEGE STREET,,,ABERDEEN,ABERDEENSHIRE,AB11 6FD,20011101,,01224 594108,0
S30627,LINKS MEDICAL PRACTICE,PARK ROAD,,,ABERDEEN,ABERDEENSHIRE,AB24 5AU,19981101,,0845 337 634,4
S30701,CALSAYSEAT MEDICAL GROUP,44 POWIS PLACE,,,ABERDEEN,ABERDEENSHIRE,AB25 3TX,19750801,,0845 3376370,4
S30769,NORTHFIELD/MASTRICK MEDICAL PRACTICE,NORTHFIELD/MASTRICK CLINIC,QUARRY ROAD,NORTHFIELD,ABERDEEN,ABERDEENSHIRE,AB16 5UW,19980401,,01224 662911,0
S30805,ROSEMOUNT MEDICAL GROUP,ROSEMOUNT MEDICAL PRACTICE,1 VIEW TERRACE,,ABERDEEN,ABERDEENSHIRE,AB25 2RS,19840730,,0845 337 052,4
S30909,ALBYN MEDICAL PRACTICE,THE ALBYN MEDICAL PRACTICE,30 ALBYN PLACE,,ABERDEEN,ABERDEENSHIRE,AB10 1NW,19740801,,01224 586829,4
S30913,OLD ABERDEEN MEDICAL PRACTICE,12 SUNNYBANK ROAD,,,ABERDEEN,ABERDEENSHIRE,AB24 3NG,20040101,,01224 486702,0
S30951,RUBISLAW PLACE MEDICAL GROUP,RUBISLAW MEDICAL GROUP,7 RUBISLAW PLACE,,ABERDEEN,ABERDEENSHIRE,AB10 1QB,19760801,,01224 641968,4
S30971,CARDEN MEDICAL CENTRE,CARDEN HOUSE,CARDEN PLACE,,ABERDEEN,ABERDEENSHIRE,AB10 1UT,19920401,,0845 3376330,4
S31009,VICTORIA STREET MEDICAL GROUP,7 VICTORIA STREET,,,ABERDEEN,ABERDEENSHIRE,AB10 1QW,19871001,,01224 641930,4
S31141,WOODSIDE MEDICAL GROUP,WOODSIDE FOUNTAIN HEALTH CENTRE,GREAT NORTHERN ROAD,,ABERDEEN,ABERDEENSHIRE,AB24 2AS,19991001,,01224 492828,4
S31206,SCOTSTOWN MEDICAL GROUP,CAIRNFOLD ROAD,BRIDGE OF DON,,ABERDEEN,ABERDEENSHIRE,AB22 8LD,19760801,,01224 702149,4
S31211,GILBERT ROAD MEDICAL GROUP,39 GILBERT ROAD,BUCKSBURN,,ABERDEEN,ABERDEENSHIRE,AB21 9AN,19750101,,01224 712138,4
S31230,CULTS MEDICAL GROUP,SOUTH AVENUE,CULTS,,ABERDEEN,ABERDEENSHIRE,AB15 9LQ,19790801,,0845 337 114,4
S31244,PETERCULTER MEDICAL PRACTICE,PETERCULTER HEALTH CENTRE,CORONATION ROAD,,PETERCULTER,ABERDEENSHIRE,AB14 0RP,19720801,,01224 733535,4
S31259,DANESTONE MEDICAL PRACTICE,FAIRVIEW STREET,DANESTONE,,ABERDEEN,ABERDEENSHIRE,AB22 8ZP,19900401,,01224 822866,4
S31333,CAMPHILL MEDICAL PRACTICE,MURTLE ESTATE,BIELDSIDE,,ABERDEEN,ABERDEENSHIRE,AB15 9EP,19900401,,01224 868935,0
S31391,THE HEALTH CENTRE - HMP,PO BOX 18698,,,PETERHEAD,ABERDEENSHIRE,AB42 9AR,20120101,,01224 556522,4
S31403,ABERCHIRDER MEDICAL PRACTICE,PARKVIEW,ABERCHIRDER,,HUNTLY,ABERDEENSHIRE,AB54 7SW,19830801,,01466 780213,4
S31418,DEVERON MEDICAL PRACTICE,DEVERON MEDICAL GROUP,THE HEALTH CENTRE,FIFE STREET,BANFF,BANFFSHIRE,AB45 1JD,19850601,,01261 812027,4
S31437,MACDUFF MEDICAL PRACTICE,MACDUFF HEALTH CLINIC,100 DUFF STREET,,MACDUFF,BANFFSHIRE,AB44 1PR,19890107,,01261 833777,4
S31456,PORTSOY MEDICAL PRACTICE,PORTSOY SURGERY,16 SEAFIELD TERRACE,PORTSOY,BANFF,BANFFSHIRE,AB45 2GB,19900401,,01261 842336,0
S31461,BANFF AND GAMRIE MEDICAL PRACTICE,HEALTH CENTRE,FIFE STREET,,BANFF,BANFFSHIRE,AB45 1JD,19990101,,01261 812221,0
S31511,FINLAYSON STREET PRACTICE,FINLAYSON STREET SURGERY,33 FINLAYSON STREET,,FRASERBURGH,ABERDEENSHIRE,AB43 9JW,19810801,,01346 518088,4
S31531,CENTRAL BUCHAN MEDICAL PRACTICE,CENTRAL BUCHAN MEDICAL GROUP,11-13 WATER STREET,STRICHEN,FRASERBURGH,ABERDEENSHIRE,AB43 6ST,19791210,,01771 653205,4
S31545,SALTOUN SURGERY,LOCHPOTS ROAD,,,FRASERBURGH,ABERDEENSHIRE,AB43 9NH,19970601,,01346 514154,4
S31601,CRIMOND MEDICAL CENTRE,CRIMOND,,,FRASERBURGH,ABERDEENSHIRE,AB43 8QJ,19790201,,01346 532215,4
S31615,CRUDEN MEDICAL GROUP,MAIN STREET,HATTON,,PETERHEAD,ABERDEENSHIRE,AB42 0QQ,19760801,,01779 841208,4
S31620,MINTLAW GROUP PRACTICE,NEWLANDS ROAD,MINTLAW,,PETERHEAD,ABERDEENSHIRE,AB42 5GP,19781201,,01771 624070,4
S31634,PETERHEAD HEALTH CENTRE,LINKS TERRACE,,,PETERHEAD,ABERDEENSHIRE,AB42 2XA,19840801,,01779 474841,4
S31704,CUMINESTOWN MEDICAL PRACTICE,CUMINESTOWN HEALTH CENTRE,AUCHRY ROAD,CUMINESTOWN,TURRIFF,ABERDEENSHIRE,AB53 5WJ,19770201,,01888 544232,0
S31719,FYVIE OLDMELDRUM MEDICAL GROUP,OLDMELDRUM HEALTH CENTRE,ACADEMY WAY,OLDMELDRUM,INVERURIE,ABERDEENSHIRE,AB51 0JZ,19820801,,01651 872239,4
S31723,TURRIFF MEDICAL PRACTICE,TURRIFF HEALTH CENTRE,BALMELLIE ROAD,,TURRIFF,ABERDEENSHIRE,AB53 4DQ,19840402,,0845 3376320,4
S31808,ALFORD MEDICAL PRACTICE,GORDON ROAD,,,ALFORD,ABERDEENSHIRE,AB33 8FL,19840701,,019755 62253,4
S31812,STRATHDON MEDICAL CENTRE,NEWE,,,STRATHDON,ABERDEENSHIRE,AB36 8XB,19850809,,019756 51209,4
S31901,ELLON GROUP PRACTICE,ELLON HEALTH CENTRE,SCHOOLHILL ROAD,,ELLON,ABERDEENSHIRE,AB41 9JH,19701001,,0845 337 115,4
S31916,HADDO MEDICAL GROUP,PITMEDDEN SURGERY,TARVES ROAD,PITMEDDEN,ELLON,ABERDEENSHIRE,AB41 7NX,19560401,,01651 843468,4
S32001,INSCH MEDICAL PRACTICE,INSCH HEALTH CENTRE,RANNES STREET,,INSCH,ABERDEENSHIRE,AB52 6JJ,19850715,,0845 337 631,4
S32021,INVERURIE MEDICAL GROUP,INVERURIE HEALTH CENTRE,CONSTITUTION STREET,,INVERURIE,ABERDEENSHIRE,AB51 4SU,19740401,,0845 337 991,4
S32035,KEMNAY MEDICAL GROUP,KEMNAY MEDICAL CENTRE,HIGH STREET,KEMNAY,INVERURIE,ABERDEENSHIRE,AB51 5NB,19770801,,01467 642289,4
S32092,BYDAND MEDICAL GROUP,HUNTLY HEALTH CENTRE,BLEACHFIELD STREET,,HUNTLY,ABERDEENSHIRE,AB54 8EX,20010401,,01466 792116,4
S32110,RHYNIE SURGERY,MANSE ROAD,RHYNIE,,HUNTLY,ABERDEENSHIRE,AB54 4WA,19781008,,01464 861271,0
S32209,SKENE MEDICAL GROUP,SKENE HEALTHCARE CENTRE,DISCOVERY DRIVE,ARNHALL BUSINESS PARK,WESTHILL,ABERDEENSHIRE,AB32 6FG,19780801,,01224 849400,4
S32290,ABOYNE HEALTH CENTRE INCL. TARLAND,BELLWOOD ROAD,,,ABOYNE,ABERDEENSHIRE,AB34 5HQ,20140502,,01339 886345,4
S32302,ABOYNE HEALTH CENTRE,BELLWOOD ROAD,,,ABOYNE,ABERDEENSHIRE,AB34 5HQ,19821001,20140501,013398 86345,4
S32317,BALLATER CLINIC,13 PROVOST CRAIG ROAD,,,BALLATER,ABERDEENSHIRE,AB35 5NN,19870803,,013397 55686,4
S32321,BRAEMAR HEALTH CLINIC,ST ANDREWS TERRACE,BRAEMAR,,BALLATER,ABERDEENSHIRE,AB35 5WR,19900401,,013397 41202,4
S32336,TARLAND SURGERY,THE MARKET STANCE,TARLAND,,ABOYNE,ABERDEENSHIRE,AB34 4UB,19850514,20140501,013398 81281,4
S32341,TORPHINS MEDICAL PRACTICE,ST MARNANS ROAD,TORPHINS,,BANCHORY,KINCARDINESHIRE,AB31 4JQ,19900401,,013398 82221,4
S32406,BANCHORY GROUP PRACTICE,BELLFIELD,,,BANCHORY,KINCARDINESHIRE,AB31 5XS,19720801,,01330 822121,4
S32411,PORTLETHEN MEDICAL CENTRE,PORTLETHEN,,,ABERDEEN,ABERDEENSHIRE,AB12 4QP,19740801,,01224 780223,4
S32425,STONEHAVEN MEDICAL GROUP,STONEHAVEN MEDICAL CENTRE,ROBERT STREET,,STONEHAVEN,KINCARDINESHIRE,AB39 2EL,19720501,,0845 3371160,4
S32500,AUCHENBLAE MEDICAL CENTRE,MACKENZIE AVENUE,AUCHENBLAE,,LAURENCEKIRK,KINCARDINESHIRE,AB30 1XU,19670801,,015613 20202,4
S32514,INVERBERVIE MEDICAL GROUP,INVERBERVIE MEDICAL CENTRE,CHURCH STREET,INVERBERVIE,MONTROSE,ANGUS,DD10 0RU,19900401,,01561 361260,4
S32529,LAURENCEKIRK MEDICAL GROUP,LAURENCEKIRK HEALTHCARE CENTRE,BLACKIEMUIR AVENUE,,LAURENCEKIRK,KINCARDINESHIRE,AB30 1EX,19890601,,01561 377258,4
S32586,ARDACH HEALTH CENTRE,HIGHFIELD ROAD,,,BUCKIE,BANFFSHIRE,AB56 1JE,19960101,,01542 831555,4
S32591,SEAFIELD MEDICAL CENTRE,SEAFIELD HOSPITAL,BARHILL ROAD,,BUCKIE,BANFFSHIRE,AB56 1FP,19960101,20110331,01542 835 57,4
S32618,CULLEN MEDICAL CENTRE,1 REIDHAVEN STREET,CULLEN,,BUCKIE,BANFFSHIRE,AB56 4SZ,19900401,20110331,01542 840272,4
S32622,"SEAFIELD,CULLEN MEDICAL GROUP",BARHILL ROAD,,,BUCKIE,BANFFSHIRE,AB56 1FP,20110401,,01542 835577,4
S32707,LINKWOOD MEDICAL,THE GLASSGREEN CENTRE,2 THORNHILL DRIVE,,ELGIN,MORAYSHIRE,IV30 6GQ,19780201,,0845 337 635,4
S32711,ELGIN COMMUNITY SURGERY,HIGHFIELD HOUSE,NORTHFIELD TERRACE,,ELGIN,MORAYSHIRE,IV30 1NE,19900401,,01343 542234,4
S32726,THE MARYHILL PRACTICE,MARYHILL PRACTICE,HIGH STREET,MARYHILL,ELGIN,MORAYSHIRE,IV30 1AT,20000401,20140612,0845 337 061,4
S32750,FOCHABERS MEDICAL PRACTICE,12 HIGH STREET,,,FOCHABERS,MORAYSHIRE,IV32 7EP,19900401,,01343 820247,4
S32764,MORAY COAST MEDICAL PRACTICE,MORAY COAST HEALTH CENTRE,MUIRTON ROAD,,LOSSIEMOUTH,MORAYSHIRE,IV31 6HJ,19791001,,0845 337 119,4
S32779,THE MARYHILL PRACTICE (INCL. ROTHES),ELGIN HEALTH CENTRE,HIGH STREET,,ELGIN,MORAYSHIRE,IV30 1AT,20140601,,0845 337 061,4
S32801,VARIS MEDICAL PRACTICE,CASTLEHILL,,,FORRES,MORAYSHIRE,IV36 1QF,19801001,,0845 3371120,4
S32815,FORRES HEALTH CENTRE,CASTLEHILL,,,FORRES,MORAYSHIRE,IV36 1QF,19750101,,0845 3371120,4
S32904,KEITH MEDICAL GROUP,TURNER STREET,,,KEITH,BANFFSHIRE,AB55 5DJ,19760801,,01542 882244,4
S33004,ABERLOUR HEALTH CENTRE,QUEENS ROAD,,,ABERLOUR,BANFFSHIRE,AB38 9PR,19851002,,01340 871210,4
S33019,GLENLIVET MEDICAL PRACTICE,GLENLIVET COMMUNITY SURGERY,GLENLIVET,DRUMIN,BALLINDALLOCH,BANFFSHIRE,AB37 9AN,19840606,,01807 590273,4
S33023,DUFFTOWN MEDICAL GROUP,DUFFTOWN HEALTH CENTRE,MOUNT STREET,DUFFTOWN,KEITH,BANFFSHIRE,AB55 4FJ,19820701,20110930,01340 820888,4
S33038,ROTHES MEDICAL CENTRE,ROTHES PHARMACY,HIGH STREET,ROTHES,ABERLOUR,BANFFSHIRE,AB38 7AU,19870503,20140612,01340 831435,4
S33042,TOMINTOUL MEDICAL CENTRE,RATTRAYS LANE,TOMINTOUL,,BALLINDALLOCH,BANFFSHIRE,AB37 9HF,19850401,20110930,01807 580219,4
S33057,RINNES MEDICAL GROUP,MOUNT STREET,DUFFTOWN,,KEITH,BANFFSHIRE,AB55 4FJ,20111001,,01340 820888,4
S34971,OPHTHALMIC PRESCRIBING,PRIMARY CARE CONTRACTS TEAM,WOODEND HOSPITAL,,ABERDEEN,ABERDEENSHIRE,AB15 6LS,20140301,,01224 556502,0
S34986,STATION HEALTH CENTRE RAF LOSSIEMOUTH,LOSSIEMOUTH,,,LOSSIEMOUTH,MORAYSHIRE,IV31 6SD,20120401,,01343 817474,0
S34991,KINLOSS MEDICAL CENTRE (ARMY),KINLOSS BARRACKS,KINLOSS,,FORRES,MORAYSHIRE,IV36 3UH,20120401,,01309 617541,0
S38008,SCAPA MEDICAL GROUP,NEW SCAPA ROAD,,,KIRKWALL,ORKNEY,KW15 1BZ,19741201,20060212,01856 888245,4
S38012,SKERRYVORE PRACTICE,NEW SCAPA ROAD,,,KIRKWALL,ORKNEY,KW15 1BX,19830801,,01856 888240,4
S38027,STROMNESS SURGERY,JOHN STREET,,,STROMNESS,ORKNEY,KW16 3AD,19900401,,01856 850205,4
S38031,DOUNBY SURGERY,VETQUOY ROAD,DOUNBY,,ORKNEY,ORKNEY,KW17 2HH,19790101,20120715,01856 771209,4
S38046,GREYSTONES,EVIE,,,ORKNEY,ORKNEY,KW17 2PQ,19830601,20120715,01856 751283,4
S38051,DAISY VILLA,ST. MARGARETS HOPE,,,ORKNEY,ORKNEY,KW17 2SN,19730101,,01856 831206,4
S38065,HEATHERLEA,EDAY,,,ORKNEY,ORKNEY,KW17 2AB,19890901,20121017,01857 622243,4
S38070,LINKLET HOUSE,NORTH RONALDSAY,,,ORKNEY,ORKNEY,KW17 2BG,19770101,20111124,01857 633226,4
S38084,ISLANDS VIEW SURGERY,ROUSAY,,,ORKNEY,ORKNEY,KW17 2PU,19880922,,01856 821265,0
S38099,GERAMOUNT,STRONSAY,,,ORKNEY,ORKNEY,KW17 2AE,19900405,20121017,01857 616321,4
S38101,FLEBISTER HOUSE,SANDAY,,,ORKNEY,ORKNEY,KW17 2BW,19860109,,01857 600221,0
S38116,SHAPINSAY PRACTICE,SHAPINSAY HEALTH CENTRE,BALFOUR,,ORKNEY,ORKNEY,KW17 2DY,19900401,20111124,01856 711284,4
S38121,"HOY,WALLS HEALTH CENTRE",LONGHOPE,,,STROMNESS,ORKNEY,KW16 3PA,19730701,,01856 701209,0
S38135,SPRINGBANK,FLOTTA,,,STROMNESS,ORKNEY,KW16 3NP,19861001,20050331,,4
S38140,TRENABIE HOUSE,WESTRAY,,,ORKNEY,ORKNEY,KW17 2DL,19900321,,01857 677209,0
S38154,HEILENDI FAMILY MEDICAL PRACTICE,SCAPA CRESCENT,,,KIRKWALL,ORKNEY,KW15 1RL,20060213,20111124,01856 872388,4
S38169,SCAPA PRACTICE,HEALTH CENTRE,,,KIRKWALL,ORKNEY,KW15 1BX,20060213,20080831,01856 888245,4
S38205,HEILENDI PRACTICE,SCAPA CRESCENT,,,KIRKWALL,ORKNEY,KW15 1RL,20111125,,01856 872388,4
S38210,DOUNBY SURGERY,VETQUOY ROAD,DOUNBY,,ORKNEY,ORKNEY,KW17 2HH,20120716,,01856 771209,4
S38224,GERAMOUNT,STRONSAY,,,ORKNEY,ORKNEY,KW17 2AE,20121018,,01857 616321,0
S39015,YELL HEALTH CENTRE,REAFIRTH,,,MID YELL,SHETLAND,ZE2 9BX,19900401,,01957 702127,4
S39020,WHALSAY HEALTH CENTRE,SYMBISTER,,,WHALSAY,SHETLAND,ZE2 9AE,19710401,,01806 566219,0
S39034,HILLSWICK HEALTH CENTRE,WEST AYRE,,,HILLSWICK,SHETLAND,ZE2 9RW,19901008,,01806 503277,4
S39049,BRAE MEDICAL PRACTICE,BRAE,,,SHETLAND,SHETLAND,ZE2 9QJ,19601201,,01806 522543,4
S39053,WALLS HEALTH CENTRE,WALLS,,,SHETLAND,SHETLAND,ZE2 9PS,19901015,,01595 809352,4
S39068,BIXTER HEALTH CENTRE,BIXTER,,,SHETLAND,SHETLAND,ZE2 9NA,19840104,,01595 810202,4
S39072,LEVENWICK MEDICAL PRACTICE,GORD,,,LEVENWICK,SHETLAND,ZE2 9HX,19780207,,01950 461222,4
S39087,SCALLOWAY HEALTH CENTRE LLP,SCALLOWAY,,,SHETLAND,SHETLAND,ZE1 0UH,19790701,,01595 880219,4
S39091,LERWICK HEALTH CENTRE,SOUTH ROAD,,,LERWICK,SHETLAND,ZE1 0RZ,19900401,,01595 693201,0
S39123,SHETLAND OOH SERVICE,GILBERT BAIN HOSPITAL,,,LERWICK,SHETLAND,ZE1 0TB,20040921,,,2
S39161,HILLSGARTH SURGERY,BALTASOUND,,,UNST,SHETLAND,ZE2 9DY,19960715,,01957 711318,4
S40008,FULTON STREET MEDICAL CENTRE,FULTON STREET SURGERY,94 FULTON STREET,,GLASGOW,LANARKSHIRE,G13 1JE,19880301,,0141 959 339,4
S40012,BUCKINGHAM TERRACE MEDICAL PRACTICE,31 BUCKINGHAM TERRACE,,,GLASGOW,LANARKSHIRE,G12 8ED,19701001,,0141 211 621,4
S40027,THE TERRACE MEDICAL PRACTICE,160 DRYMEN ROAD,BEARSDEN,,GLASGOW,LANARKSHIRE,G61 3RD,19890801,,0141 942 664,4
S40031,"DRS EARDLEY,REID,MACLAREN",3 RADNOR STREET,,,GLASGOW,LANARKSHIRE,G3 7UA,19900401,,0141 334 611,4
S40046,"DR BELL,PARTNERS",CLYDEBANK HEALTH CENTRE,KILBOWIE ROAD,,CLYDEBANK,DUNBARTONSHIRE,G81 2TQ,19790801,,0141 531 647,4
S40051,ANNIESLAND MEDICAL PRACTICE,46 MUNRO PLACE,,,GLASGOW,LANARKSHIRE,G13 2UP,19740601,,0141 954 886,4
S40065,OLD KILPATRICK MEDICAL PRACTICE,ERSKINE VIEW,OLD KILPATRICK,,GLASGOW,LANARKSHIRE,G60 5JG,19740101,,01389 872575,4
S40070,ABINGDON MEDICAL PRACTICE,5 STEWARTVILLE STREET,,,GLASGOW,LANARKSHIRE,G11 5PE,19900401,,0141 339 090,4
S40084,"DRS MACLEAN,MCCROSSAN",20 PENNAN PLACE,,,GLASGOW,LANARKSHIRE,G14 0EA,19860902,,0141 959 170,4
S40099,"DRS DOVERTY,CHALMERS,STEPHENS,FLEMING",CLYDEBANK HEALTH CENTRE,KILBOWIE ROAD,,CLYDEBANK,DUNBARTONSHIRE,G81 2TQ,19811001,20110331,0141 531 649,4
S40101,KESSINGTON MEDICAL CENTRE,85 MILNGAVIE ROAD,BEARSDEN,,GLASGOW,LANARKSHIRE,G61 2DN,19840801,,0141 532 800,4
S40116,KINGSWAY MEDICAL PRACTICE,12 KINGSWAY COURT,,,GLASGOW,LANARKSHIRE,G14 9SS,19840501,,0141 959 600,4
S40121,THE BROOMHILL PRACTICE,41 BROOMHILL DRIVE,,,GLASGOW,LANARKSHIRE,G11 7AD,19750101,,0141 339 362,4
S40135,DR BRIAN D CLEGG,CLYDEBANK HEALTH CENTRE,KILBOWIE ROAD,,CLYDEBANK,DUNBARTONSHIRE,G81 2TQ,19800401,20110331,0141 531 646,4
S40140,NORTHCOTE SURGERY,2 VICTORIA CIRCUS,,,GLASGOW,LANARKSHIRE,G12 9LD,19730401,,0141 339 321,4
S40154,"DRS CRIGHTON,CHAPMAN,ALI",10 QUEEN'S CRESCENT,,,GLASGOW,LANARKSHIRE,G4 9BL,19660201,,0141 332 352,4
S40173,"DR LOVETT,PARTNERS",ASHFIELD MEDICAL PRACTICE,1 ASHFIELD ROAD,MILNGAVIE,GLASGOW,LANARKSHIRE,G62 6BT,19771001,,0141 956 133,4
S40188,DR I. CULLEN,130 HYNDLAND ROAD,,,GLASGOW,LANARKSHIRE,G12 9PN,19900401,,0141 339 129,4
S40192,GARDNER STREET SURGERY,THE SURGERY,16 GARDNER STREET,,GLASGOW,LANARKSHIRE,G11 5NG,19900401,,0141 334 221,4
S40210,SHAFTESBURY MEDICAL PRACTICE,1265 - 1275 DUMBARTON ROAD,,,GLASGOW,LANARKSHIRE,G14 9UU,19900401,,0141 959 550,4
S40224,THE GREEN MEDICAL PRACTICE,CLYDEBANK HEALTH CENTRE,KILBOWIE ROAD,,CLYDEBANK,DUNBARTONSHIRE,G81 2TQ,19731201,,0141 531 642,4
S40239,"DRS WALKER,BLAIR,SECRETT,COOMBS",DENBRIDGE SURGERY,96 DRYMEN ROAD,BEARSDEN,GLASGOW,LANARKSHIRE,G61 2SY,19730601,,0141 942 949,4
S40262,"DRS J. C. MILLER,E. I. MITCHELL,R. CUNNINGHAM",CLYDEBANK HEALTH CENTRE,KILBOWIE ROAD,,CLYDEBANK,DUNBARTONSHIRE,G81 2TQ,19770301,,0141 531 641,4
S40277,"DRS MCALPINE,WALKER",14 APSLEY STREET,,,GLASGOW,LANARKSHIRE,G11 7SY,19840201,,0141 339 296,4
S40281,DR HAGGERTY,250 DRUMCHAPEL ROAD,,,GLASGOW,LANARKSHIRE,G15 6EG,19710801,,0141 944 353,4
S40296,PEEL STREET MEDICAL CENTRE,11 PEEL STREET,,,GLASGOW,LANARKSHIRE,G11 5LL,19790501,,0141 334 933,4
S40313,THE AVENUES MEDICAL PRACTICE,1448 DUMBARTON ROAD,,,GLASGOW,LANARKSHIRE,G14 9DW,19830411,,0141 959 202,4
S40328,"DR J ROBERTS,DR H MELROSE",3 RADNOR STREET,,,GLASGOW,LANARKSHIRE,G3 7UA,19821201,,0141 334 611,4
S40332,KNIGHTSWOOD MEDICAL PRACTICE,1980 GREAT WESTERN ROAD,,,GLASGOW,LANARKSHIRE,G13 2SW,19900401,,0141 959 119,4
S40351,"DR A P JACKSON,DR M A ROSS,DR C MCLENNAN",91 HYNDLAND ROAD,HYNDLAND,,GLASGOW,LANARKSHIRE,G12 9JE,19831201,,0141 339 786,4
S40385,KERSLAND HOUSE SURGERY,37 STATION ROAD,MILNGAVIE,,GLASGOW,LANARKSHIRE,G62 8BT,19731001,,0141 956 100,4
S40390,"DR DICKSON,GEMIE",YOKERMILL MEDICAL PRACTICE,6 YOKER MILL ROAD,,GLASGOW,LANARKSHIRE,G13 4PU,19880530,,0141 959 211,4
S40402,"DRS STEWART,BOYLE,PILSWORTH",DENBRIDGE SURGERY,96 DRYMEN ROAD,BEARSDEN,GLASGOW,LANARKSHIRE,G61 2SY,19850902,,0141 942 949,4
S40417,WHITEINCH MEDICAL PRACTICE,1215 - 1232 DUMBARTON ROAD,,,GLASGOW,LANARKSHIRE,G14 9UT,19880401,,0141 211 904,4
S40421,"DRS LOGAN,MACDONALD",DRUMCHAPEL HEALTH CENTRE,80-90 KINFAUNS DRIVE,,GLASGOW,LANARKSHIRE,G15 7TS,19851001,,0141 211 609,4
S40436,"DR NUGENT,PARTNERS",DRUMCHAPEL HEALTH CENTRE,80-90 KINFAUNS DRIVE,,GLASGOW,LANARKSHIRE,G15 7TS,19821001,,0141 211 610,4
S40441,ST GEORGES MEDICAL CENTRE,137 ST GEORGES ROAD,,,GLASGOW,LANARKSHIRE,G3 6JB,19900401,,0141 333 479,4
S40455,"DRS CRAWFORD,LAWSON,MACNEILL",SANDYFORD SURGERY,1119 ARGYLE STREET,,GLASGOW,LANARKSHIRE,G3 8ND,19860301,,0141 248 369,4
S40460,DR KHAN,BANK STREET SURGERY,26 BANK STREET,,GLASGOW,LANARKSHIRE,G12 8ND,19770101,,0141 339 551,4
S40493,THE CAIRNTOUL PRACTICE,9 CAIRNTOUL DRIVE,,,GLASGOW,LANARKSHIRE,G14 0XT,19900401,,0141 959 551,4
S40506,DR KENNEDY,ASHTON HOUSE MEDICAL PRACTICE,3 ASHTON ROAD,,GLASGOW,LANARKSHIRE,G12 8SP,19830301,20120531,0141 339 726,4
S40525,KELSO STREET SURGERY,6 KELSO STREET,YOKER,,GLASGOW,LANARKSHIRE,G14 0JZ,19900401,,0141 211 699,4
S40544,DRUMCHAPEL MEDICAL PRACTICE,DRUMCHAPEL HEALTH CENTRE,80-90 KINFAUNS DRIVE,,GLASGOW,LANARKSHIRE,G15 7TS,19910701,,0141 211 608,4
S40559,DR GRIEVE,DRUMCHAPEL HEALTH CENTRE,80-90 KINFAUNS DRIVE,,GLASGOW,LANARKSHIRE,G15 7TS,19910701,,0141 211 611,4
S40563,SCOTSTOUN MEDICAL PRACTICE,1483 DUMBARTON ROAD,,,GLASGOW,LANARKSHIRE,G14 9XL,19930601,,0141 211 904,4
S40578,VICTORIA PARK MEDICAL PRACTICE,1398 DUMBARTON ROAD,,,GLASGOW,LANARKSHIRE,G14 9DS,19930601,,08444 773318,4
S40582,THE ORANGE WING MEDICAL PRACTICE,CLYDEBANK HEALTH CENTRE,KILBOWIE ROAD,,CLYDEBANK,DUNBARTONSHIRE,G81 2TQ,19930701,,0141 531 644,4
S40600,DR MOHAMMED SHAMSUL HAQUE,CLYDEBANK HEALTH CENTRE,KILBOWIE ROAD,,CLYDEBANK,DUNBARTONSHIRE,G81 2TQ,19950101,20120331,0141 531 646,4
S40629,"DRS LAURIE,LEGGATE,BRANCHFIELD",1264 DUMBARTON ROAD,,,GLASGOW,LANARKSHIRE,G14 9PS,20020701,,0141 959 631,4
S40633,NURSING HOMES MEDICAL PRACTICE,CLUTHA HOUSE,120 CORNWALL STREET SOUTH,,GLASGOW,LANARKSHIRE,G41 1AF,20021001,,0141 427 829,0
S40648,DR MCGONAGLE,DRUMCHAPEL HEALTH CENTRE,80-90 KINFAUNS DRIVE,,GLASGOW,LANARKSHIRE,G15 7TS,20030901,20130731,0141 232 917,4
S40652,"DRS DUFFY,MORGAN",DRUMCHAPEL HEALTH CENTRE,80-90 KINFAUNS DRIVE,,GLASGOW,LANARKSHIRE,G15 7TS,20030901,20130731,0141 211 612,4
S40667,CHALLENGING BEHAVIOUR PRACTICE,120/130 WILLIAM STREET,,,GLASGOW,LANARKSHIRE,G3 8UR,20040401,,,4
S40671,"DRS SINGH,RAI",CLYDEBANK HEALTH CENTRE,KILBOWIE ROAD,,CLYDEBANK,DUNBARTONSHIRE,G81 2TQ,20041001,20120331,0141 531 646,4
S40691,"DR CHALMERS,PARTNERS",CLYDEBANK HEALTH CENTRE,KILBOWIE ROAD,,CLYDEBANK,DUNBARTONSHIRE,G81 2TQ,20110401,,0141 531 649,4
S40703,"DR D SINGH,PARTNERS",CLYDEBANK HEALTH CENTRE,KILBOWIE ROAD,,CLYDEBANK,DUNBARTONSHIRE,G81 2TQ,20120401,,0141 531 646,4
S40718,ASHTON MEDICAL PRACTICE,ASHTON HOUSE,3 ASHTON ROAD,,GLASGOW,LANARKSHIRE,G12 8SP,20120601,,0141 339 726,4
S40722,"DRS DUFFY,MORGAN,MCGONAGLE",DRUMCHAPEL HEALTH CENTRE,80-90 KINFAUNS DRIVE,,GLASGOW,LANARKSHIRE,G15 7TS,20130801,,0141 2116120,4
S43011,"DR GARVIE,PARTNERS",MARYHILL HEALTH CENTRE,41 SHAWPARK STREET,,GLASGOW,LANARKSHIRE,G20 9DR,19770701,,0141 531 884,4
S43030,REGENT GARDENS MEDICAL CENTRE,18 UNION STREET,KIRKINTILLOCH,,GLASGOW,LANARKSHIRE,G66 1DH,19840601,,0141 776 123,4
S43044,THE TURRET MEDICAL CENTRE,CATHERINE STREET,KIRKINTILLOCH,,GLASGOW,LANARKSHIRE,G66 1JB,19790301,,0141 211 826,4
S43059,SPRINGFIELD MEDICAL PRACTICE,9 SPRINGFIELD ROAD,BISHOPBRIGGS,,GLASGOW,LANARKSHIRE,G64 1PJ,19850701,,0141 772 474,4
S43063,"DRS A. POLDING,G. M. HENDERSON",SPRINGBURN HEALTH CENTRE,200 SPRINGBURN WAY,,GLASGOW,LANARKSHIRE,G21 1TR,19900401,,0141 531 961,4
S43082,"DR BURTON,DR KRISHNAN",WOODSIDE HEALTH CENTRE,BARR STREET,,GLASGOW,LANARKSHIRE,G20 7LR,19710301,,0141 531 953,4
S43097,"DRS O'DRISCOLL,WATSON,MCBURNIE",SPRINGBURN HEALTH CENTRE,200 SPRINGBURN WAY,,GLASGOW,LANARKSHIRE,G21 1TR,19680501,,0141 531 966,4
S43100,"DR DIANE KELLY,PARTNERS",SOUTHBANK SURGERY,17-19 SOUTHBANK ROAD,KIRKINTILLOCH,GLASGOW,LANARKSHIRE,G66 1NH,19751001,,0141 776 218,4
S43114,PEELVIEW MEDICAL CENTRE,PEEL VIEW MEDICAL CENTRE,45-53 UNION STREET,KIRKINTILLOCH,GLASGOW,LANARKSHIRE,G66 1DN,19780801,,0141 776 344,4
S43129,"DRS BALLANTYNE,BLAIR",SPRINGBURN HEALTH CENTRE,200 SPRINGBURN WAY,,GLASGOW,LANARKSHIRE,G21 1TR,19900401,,0141 531 967,4
S43133,"DRS CRON,HOWAT,MCKINLAY,LEGGE,HUNTER",BARONY MEDICAL CENTRE,30 AUCHINLOCH STREET,,GLASGOW,LANARKSHIRE,G21 4AH,19750101,,0141 557 616,4
S43167,"DRS WEST,KELLY,FITZSIMONS,GOURLAY",WOODSIDE HEALTH CENTRE,BARR STREET,,GLASGOW,LANARKSHIRE,G20 7LR,19710801,,0141 531 952,4
S43171,KENMURE MEDICAL PRACTICE,7 SPRINGFIELD ROAD,BISHOPBRIGGS,,GLASGOW,LANARKSHIRE,G64 1PJ,19840801,,0141 772 630,4
S43186,"DR LOVE,PARTNERS",WOODSIDE HEALTH CENTRE,BARR STREET,,GLASGOW,LANARKSHIRE,G20 7LR,19850907,,0141 531 956,4
S43191,"DRS GAW,ESLER",WOODSIDE HEALTH CENTRE,BARR STREET,,GLASGOW,LANARKSHIRE,G20 7LR,19830801,,0141 531 950,4
S43203,KELVIN MEDICAL CENTRE,96 NAPIERSHALL STREET,,,GLASGOW,LANARKSHIRE,G20 6HS,19880701,,0141 211 959,4
S43218,"DRS GLEKIN,SUTHERLAND,MABON",WOODSIDE HEALTH CENTRE,BARR STREET,,GLASGOW,LANARKSHIRE,G20 7LR,19750201,,0141 531 955,4
S43222,AUCHINAIRN MEDICAL PRACTICE,127/129 AUCHINAIRN ROAD,BISHOPBRIGGS,,GLASGOW,LANARKSHIRE,G64 1NF,19890403,,0141 772 180,4
S43237,KEPPOCH MEDICAL PRACTICE,"POSSILPARK HEALTH,CARE CENTRE",99 SARACEN STREET,,GLASGOW,LANARKSHIRE,G22 5AP,19830101,,0141 800 084,4
S43241,"DR MACKENZIE,PARTNERS",MARYHILL HEALTH CENTRE,41 SHAWPARK STREET,,GLASGOW,LANARKSHIRE,G20 9DR,19810701,20140630,0141 531 880,4
S43256,"DRS REID,CRAWFORD,HEE","POSSILPARK HEALTH,CARE CENTRE",99 SARACEN STREET,,GLASGOW,LANARKSHIRE,G22 5AP,19900401,,0141 800 080,4
S43261,LENNOXTOWN MEDICAL PRACTICE,HEALTH CLINIC,MAIN STREET,LENNOXTOWN,GLASGOW,LANARKSHIRE,G66 7DD,19850701,,01360 310357,4
S43275,"DRS LAFFERTY,MEEK",WALLACEWELL MEDICAL CENTRE,264 WALLACEWELL ROAD,,GLASGOW,LANARKSHIRE,G21 3RW,19750401,,0141 558 617,4
S43294,"DRS CRAIG,DOUGLAS,CHERRY,MCKEAN",191 DENMARK STREET,,,GLASGOW,LANARKSHIRE,G22 5SS,19900401,,0141 336 803,4
S43307,"DR PAMELA GEDDES,DR GORDON CAMPBELL",MILTON MEDICAL CENTRE,109 EGILSAY STREET,MILTON,GLASGOW,LANARKSHIRE,G22 7JL,19840406,,0141 772 118,4
S43311,THE MARYHILL RED PRACTICE,MARYHILL HEALTH CENTRE,41 SHAWPARK STREET,,GLASGOW,LANARKSHIRE,G20 9DR,19830815,,0141 531 883,4
S43326,FERNBANK MEDICAL CENTRE,194 FERNBANK STREET,,,GLASGOW,LANARKSHIRE,G22 6BD,19900401,,0141 589 800,4
S43345,"DRS M BUCHANAN,D MURPHY,S NESS",PARK SURGERY,10 SARAMAGO STREET,KIRKINTILLOCH,GLASGOW,LANARKSHIRE,G66 3BF,19900401,,0141 776 246,4
S43383,POSTGRAD. DEPT OF GENERAL PRAC,3RD FLOOR,2 CENTRAL QUAY,89 HYDEPARK STREET,GLASGOW,LANARKSHIRE,G3 8BW,19750401,20080731,0141 223 145,4
S43415,"DRS DAVDA,MCGROARTY",YORK PLACE SURGERY,10 UNION STREET,KIRKINTILLOCH,GLASGOW,LANARKSHIRE,G66 1DG,19900301,,0141 776 127,4
S43453,"DR WEBSTER,PARTNERS",WOODSIDE HEALTH CENTRE,BARR STREET,,GLASGOW,LANARKSHIRE,G20 7LR,19940701,,0141 531 957,4
S43468,DR ALASTAIR J MUIR,WOODSIDE HEALTH CENTRE,BARR STREET,,GLASGOW,LANARKSHIRE,G20 7LR,19940701,,0141 531 951,4
S43487,DR R.T.A. BOYLE,SPRINGBURN HEALTH CENTRE,200 SPRINGBURN WAY,,GLASGOW,LANARKSHIRE,G21 1TR,19950301,,0141 531 960,4
S43504,"DRS HARRIS,MILBURN,BROWN,CANDY,GOURLAY",SPRINGBURN HEALTH CENTRE,200 SPRINGBURN WAY,,GLASGOW,LANARKSHIRE,G21 1TR,20010101,,0141 531 963,4
S43523,"DRS BYFORD,SPENCE,HAGGERTY,MEREDITH,TAYLOR",MARYHILL HEALTH CENTRE,41 SHAWPARK STREET,,GLASGOW,LANARKSHIRE,G20 9DR,20010521,20140630,0141 531 881,4
S43538,DR S J LANGRIDGE,"POSSILPARK HEALTH,CARE CENTRE",99 SARACEN STREET,,GLASGOW,LANARKSHIRE,G22 5AP,20020701,,0141 800 086,4
S43542,DR LUIS ALGUERO,"POSSILPARK HEALTH,CARE CENTRE",99 SARACEN STREET,,GLASGOW,LANARKSHIRE,G22 5AP,20020701,,0141 800 082,4
S43557,DR PAUL LYONS,BRACKENBRAE SURGERY,91 KIRKINTILLOCH ROAD,BISHOPBRIGGS,GLASGOW,LANARKSHIRE,G64 2AA,20021001,,0141 772 224,4
S43576,BARCLAY MEDICAL PRACTICE,MARYHILL HEALTH CENTRE,41 SHAWPARK STREET,,GLASGOW,LANARKSHIRE,G20 9DR,20140701,,0141 531 881,4
S46019,TOWNHEAD MEDICAL PRACTICE,TOWNHEAD HEALTH CENTRE,16 ALEXANDRA PARADE,,GLASGOW,LANARKSHIRE,G31 2ES,19840403,,0141 531 894,4
S46023,"DR A.ALI,DR A.M.MACKENZIE",BRIDGETON HEALTH CENTRE,201 ABERCROMBY STREET,,GLASGOW,LANARKSHIRE,G40 2DA,19800901,,0141 531 662,4
S46042,HB PRACTICE,BRIDGETON HEALTH CENTRE,201 ABERCROMBY STREET,,GLASGOW,LANARKSHIRE,G40 2DA,19690401,,0141 531 665,0
S46057,"DRS RYAN,MCALAVEY,ORR",GLENMILL MEDICAL CENTRE,1191 ROYSTON ROAD,,GLASGOW,LANARKSHIRE,G33 1EY,19830801,,0141 770 405,4
S46061,PARADE GROUP PRACTICE,TOWNHEAD HEALTH CENTRE,16 ALEXANDRA PARADE,,GLASGOW,LANARKSHIRE,G31 2ES,19781001,,0141 531 897,4
S46081,THE CAIRNS PRACTICE,SHETTLESTON HEALTH CENTRE,420 OLD SHETTLESTON ROAD,,GLASGOW,LANARKSHIRE,G32 7JZ,19830801,,0141 531 622,4
S46095,"DRS MCKENZIE,BURNS",PARKHEAD HEALTH CENTRE,101 SALAMANCA STREET,,GLASGOW,LANARKSHIRE,G31 5BA,19800901,,0141 531 907,4
S46108,"DR J.FIFE,PARTNER",214 MEADOWPARK STREET,,,GLASGOW,LANARKSHIRE,G31 2TE,19840401,,0141 554 046,4
S46112,"DRS LAM,MACBETH,WILSON",GILBERTFIELD MEDICAL CENTRE,67 GILBERTFIELD STREET,,GLASGOW,LANARKSHIRE,G33 3TU,19740901,,0141 774 598,4
S46127,ANNFIELD MEDICAL CENTRE,16 ANNFIELD PLACE,,,GLASGOW,LANARKSHIRE,G31 2XE,19900401,,0141 554 298,4
S46131,CRAIL MEDICAL PRACTICE,245 TOLLCROSS ROAD,,,GLASGOW,LANARKSHIRE,G31 4UW,19871001,,0141 554 319,4
S46146,"THE FIRM OF GILHOOLY,BUBEGWA",CARNTYNE MEDICAL CENTRE,275 CARNTYNE ROAD,,GLASGOW,LANARKSHIRE,G32 6JP,19890501,,0141 531 906,4
S46151,"DRS RASHID,KHAN",12/14 TULLIS STREET,,,GLASGOW,LANARKSHIRE,G40 1HN,19750801,,0141 531 659,4
S46165,DR S ROSS,SHETTLESTON HEALTH CENTRE,420 OLD SHETTLESTON ROAD,,GLASGOW,LANARKSHIRE,G32 7JZ,19791201,,0141 531 625,4
S46184,MAIN STREET MEDICAL CENTRE,40 MAIN STREET,,,GLASGOW,LANARKSHIRE,G40 1HA,19900401,,0141 953 560,4
S46199,"DR DUNN,LYNAS",BRIDGETON HEALTH CENTRE,201 ABERCROMBY STREET,,GLASGOW,LANARKSHIRE,G40 2DA,19900401,20120930,0141 531 664,4
S46201,"DR O'NEIL,PARTNERS",LIGHTBURN MEDICAL CENTRE,930 CARNTYNE ROAD,,GLASGOW,LANARKSHIRE,G32 6NB,19880101,,0141 778 044,4
S46216,MCGLONE PRACTICE,BAILLIESTON HEALTH CENTRE,20 MUIRSIDE ROAD,BAILLIESTON,GLASGOW,LANARKSHIRE,G69 7AD,19670401,,0141 531 805,4
S46221,"DRS ANDERSEN,DAWSON,MUTCH,SMITH",EASTERHOUSE HEALTH CENTRE,9 AUCHINLEA ROAD,,GLASGOW,LANARKSHIRE,G34 9HQ,19900401,,0141 531 818,4
S55183,ARMADALE MEDICAL PRACTICE,ARMADALE,,,THURSO,CAITHNESS,KW14 7SA,19900401,,01641 541212,4
S46235,"DRS LAFFERTY,MACPHEE,DAMES",PARKHEAD HEALTH CENTRE,101 SALAMANCA STREET,,GLASGOW,LANARKSHIRE,G31 5BA,19861101,,0141 531 905,4
S46240,DR D.S.DHAMI,EASTERHOUSE HEALTH CENTRE,9 AUCHINLEA ROAD,,GLASGOW,LANARKSHIRE,G34 9HQ,19900401,,0141 531 816,4
S46269,JAMIESON MEDICAL PRACTICE,2 CLIFFVALE ROAD,CHRYSTON,,GLASGOW,LANARKSHIRE,G69 9DW,19821001,,0141 779 222,4
S46273,MOODIESBURN MEDICAL CENTRE,69 GLENMANOR AVENUE,MOODIESBURN,,GLASGOW,LANARKSHIRE,G69 0LB,19770101,,01236 872276,4
S46292,"DRS MACKENZIE,MCCALLUM,GARDINER",LIGHTBURN MEDICAL CENTRE,930 CARNTYNE ROAD,,GLASGOW,LANARKSHIRE,G32 6NB,19730101,,0141 764 166,4
S46305,THE MUIRSIDE MEDICAL PRACTICE,BAILLIESTON HEALTH CENTRE,20 MUIRSIDE ROAD,BAILLIESTON,GLASGOW,LANARKSHIRE,G69 7AD,19750101,,0141 531 804,4
S46339,WESTMUIR MEDICAL CENTRE,THE WESTMUIR MEDICAL PRACTICE,109 CRAIL STREET,,GLASGOW,LANARKSHIRE,G31 5RA,19890101,,0141 554 425,4
S46343,TOLLCROSS MEDICAL CENTRE,1101-1105 TOLLCROSS ROAD,,,GLASGOW,LANARKSHIRE,G32 8UH,19880401,,0141 778 271,4
S46377,DR G B STRAIN,804 CUMBERNAULD ROAD,,,GLASGOW,LANARKSHIRE,G33 2EH,19900107,,0141 770 523,4
S46381,"DRS DAY,CHURCHES",BRIDGETON HEALTH CENTRE,201 ABERCROMBY STREET,,GLASGOW,LANARKSHIRE,G40 2DA,19870103,,0141 531 661,4
S46396,"DR M P HAMAYUN,DR M R MASOOD",BRIDGETON HEALTH CENTRE,201 ABERCROMBY STREET,,GLASGOW,LANARKSHIRE,G40 2DA,19790701,,0141 531 666,4
S46428,"DRS CONNAUGHTON,SUDOMIR",BRIDGETON HEALTH CENTRE,201 ABERCROMBY STREET,,GLASGOW,LANARKSHIRE,G40 2DA,19900401,,0141 550 382,4
S46447,DR M SALEEM,BRIDGETON HEALTH CENTRE,201 ABERCROMBY STREET,,GLASGOW,LANARKSHIRE,G40 2DA,19830201,,0141 531 667,4
S46451,NEWHILLS MEDICAL PRACTICE,EASTERHOUSE HEALTH CENTRE,9 AUCHINLEA ROAD,,GLASGOW,LANARKSHIRE,G34 9HQ,19860801,,0141 531 817,4
S46471,"DR WILSON,DR MCGINLEY,DR SHEPPARD",EASTERHOUSE HEALTH CENTRE,9 AUCHINLEA ROAD,,GLASGOW,LANARKSHIRE,G34 9HQ,19900401,,0141 531 815,4
S46521,"DR ALAN WINTER,DR NELSON K H CHEUNG,AL-AGILLY",463 EDINBURGH ROAD,,,GLASGOW,LANARKSHIRE,G33 3AL,19930301,,0141 770 404,4
S46536,NALAGATLA MEDICAL PRACTICE,146 CUMBERNAULD ROAD,STEPPS,,GLASGOW,LANARKSHIRE,G33 6HA,19940101,,0141 779 233,4
S46541,STEPPS SURGERY,131 CUMBERNAULD ROAD,STEPPS,,GLASGOW,LANARKSHIRE,G33 6EY,19940101,,0141 779 444,4
S46555,"DRS MACPHERSON,MUKHERJEE,TOOKE,MCLEL",BRIDGETON HEALTH CENTRE,201 ABERCROMBY STREET,,GLASGOW,LANARKSHIRE,G40 2DA,19940401,,01415 316630,4
S46560,THE WHITEVALE MEDICAL GROUP,30 WHITEVALE STREET,,,GLASGOW,LANARKSHIRE,G31 1QS,19950401,,0141 554 453,4
S46574,DALMARNOCK FAMILY MEDICAL PRACTICE,BRIDGETON HEALTH CENTRE,201 ABERCROMBY STREET,,GLASGOW,LANARKSHIRE,G40 2DA,19950401,,0141 531 660,4
S46589,"HOMELESS HEALTH,RESOURCE SERVICES",55 HUNTER STREET,,,GLASGOW,LANARKSHIRE,G4 0UP,20021001,,0141 553 280,0
S46593,METHADONE TREATMENT CLINIC,SHETTLESTON HEALTH CENTRE,420 OLD SHETTLESTON ROAD,,GLASGOW,LANARKSHIRE,G32 7JZ,20030601,,0141 531 622,0
S46606,"DRS DUNN,LYNAS",BRIDGETON HEALTH CENTRE,201 ABERCROMBY STREET,,GLASGOW,LANARKSHIRE,G40 2DA,20121001,,0141 531 664,4
S49002,THE STONELAW PRACTICE,RUTHERGLEN HEALTH CENTRE,130 STONELAW ROAD,RUTHERGLEN,GLASGOW,LANARKSHIRE,G73 2PQ,19820401,,0141 531 603,4
S49021,"DRS BIRKMYRE,JOHNSTON,ABERNETHY",RUTHERGLEN HEALTH CENTRE,130 STONELAW ROAD,RUTHERGLEN,GLASGOW,LANARKSHIRE,G73 2PQ,19831001,,0141 531 602,4
S49041,PRACTICE B,GOVANHILL HEALTH CENTRE,233 CALDER STREET,,GLASGOW,LANARKSHIRE,G42 7DR,19780701,,0141 531 837,4
S49055,"DRS BARRETT,TIERNEY",RUTHERGLEN HEALTH CENTRE,130 STONELAW ROAD,RUTHERGLEN,GLASGOW,LANARKSHIRE,G73 2PQ,19890201,,0141 613 475,4
S49060,DR C M MCCANN,ARDOCH MEDICAL CENTRE,6 ARDOCH GROVE,CAMBUSLANG,GLASGOW,LANARKSHIRE,G72 8HA,19900401,,0141 641 382,4
S49074,"DRS MILLS,MARSHALL PRACTICE",GORBALS HEALTH CENTRE,45 PINE PLACE,,GLASGOW,LANARKSHIRE,G5 0BQ,19870801,,0141 531 825,4
S49089,KER PRACTICE,30 CROFTFOOT ROAD,,,GLASGOW,LANARKSHIRE,G44 5JT,19841001,20090419,0141 531 860,4
S49093,"DR AKHTAR,DR KOUSAR",660 EGLINTON STREET,,,GLASGOW,LANARKSHIRE,G5 9RP,19790501,,0141 429 142,4
S49106,"DRS WILLOX,MCEVINNEY,WRIGHT,MCLAUGHLIN",44 CROFTFOOT ROAD,,,GLASGOW,LANARKSHIRE,G44 5JT,19850801,,0141 634 633,4
S49111,OVERTOUN MEDICAL PRACTICE,RUTHERGLEN HEALTH CENTRE,130 STONELAW ROAD,RUTHERGLEN,GLASGOW,LANARKSHIRE,G73 2PQ,19860103,,0141 531 601,4
S49130,"DRS MCGIVERN,MURTHY,BAIRD",148 BATTLEFIELD ROAD,,,GLASGOW,LANARKSHIRE,G42 9JT,19761001,,0141 632 631,4
S49144,"DR W MCKEAN,PARTNERS",162 NITHSDALE ROAD,,,GLASGOW,LANARKSHIRE,G41 5RU,19790101,,0141 424 183,4
S49159,"DRS BOARDMAN,KING,EARL,BOYD",75 BUSBY ROAD,CLARKSTON,,GLASGOW,LANARKSHIRE,G76 7BW,19760401,,0141 644 266,4
S49178,"DR K.S. CHIAH,PARTNERS",GOVANHILL HEALTH CENTRE,233 CALDER STREET,,GLASGOW,LANARKSHIRE,G42 7DR,19860401,,0141 531 838,4
S49197,SHEDDENS MEDICAL PRACTICE,5A EAGLESHAM ROAD,CLARKSTON,,GLASGOW,LANARKSHIRE,G76 7BU,19840901,,0141 644 235,4
S49200,"DRS LEONARD,GEDDES &TURNER",123 KILMARNOCK ROAD,,,GLASGOW,LANARKSHIRE,G41 3YT,19870103,,0141 649 623,4
S49214,"DRS MORRICE,MASSON,GEDDES",75 BUSBY ROAD,,,GLASGOW,LANARKSHIRE,G76 7BW,19770401,,0141 6442666,4
S49248,MERRYLEE MEDICAL CENTRE,142 CLARKSTON ROAD,,,GLASGOW,LANARKSHIRE,G44 3DH,19800801,,0141 633 234,4
S49252,"DRS SMITH,NOTMAN,MCINTYRE,WHITELAW,HOWIE",18 NORTH AVENUE,CAMBUSLANG,,GLASGOW,LANARKSHIRE,G72 8AT,19810801,,0141 641 303,4
S49267,BUTTERBIGGINS MEDICAL CENTRE,134 BUTTERBIGGINS ROAD,,,GLASGOW,LANARKSHIRE,G42 7AF,19870601,,0141 423 139,4
S49271,"DRS LINDSAY,LESLIE,MCNICOL,BOYD",SHAWLANDS SURGERY,1413 POLLOKSHAWS ROAD,,GLASGOW,LANARKSHIRE,G41 3RG,19810801,,0141 632 914,4
S49286,QUEENS PARK MEDICAL PRACTICE,181 QUEEN'S DRIVE,,,GLASGOW,LANARKSHIRE,G42 8QD,19870801,,0141 423 347,4
S49318,THE MACLEOD PRACTICE,9 BAKER STREET,,,GLASGOW,LANARKSHIRE,G41 3YE,19750101,,0141 632 496,4
S49337,MEARNS MEDICAL CENTRE,30 MAPLE AVENUE,NEWTON MEARNS,,GLASGOW,LANARKSHIRE,G77 5BQ,19740701,,0141 639 275,4
S49341,"DR K.M. OHRI,DR A K GAJREE",6 ARDOCH GROVE,CAMBUSLANG,,GLASGOW,LANARKSHIRE,G72 8HA,19781201,20120930,0141 641 372,4
S49375,DR LINDA J WRIGHT,TORYGLEN MEDICAL CENTRE,20 GLENMORE AVENUE,,GLASGOW,LANARKSHIRE,G42 0EH,19900401,,0141 647 302,4
S49380,DR J M BELL,274 KINGSPARK AVENUE,,,GLASGOW,LANARKSHIRE,G44 4JE,19781001,20110331,0141 632 182,4
S49407,DR LANNIGAN,GORBALS HEALTH CENTRE,45 PINE PLACE,,GLASGOW,LANARKSHIRE,G5 0BQ,19781001,20090419,0141 531 827,4
S49411,DR M.M. SHARIF,KINGSPARK SURGERY,274 KINGS PARK AVENUE,,GLASGOW,LANARKSHIRE,G44 4JE,19900401,,0141 414 690,4
S49431,DR R AFUAKWAH,81 MILL STREET,RUTHERGLEN,,GLASGOW,LANARKSHIRE,G73 2LD,19900401,,0141 647 629,4
S49445,"DRS FRAME,COOPER,HAMILTON",261 FENWICK ROAD,GIFFNOCK,,GLASGOW,LANARKSHIRE,G46 6JX,19900401,,0844 477 189,4
S49464,BROOMBURN MEDICAL CENTRE,257 MEARNS ROAD,NEWTON MEARNS,,GLASGOW,LANARKSHIRE,G77 5LU,19900401,,0141 639 364,4
S49498,DR P L MCNAUGHT,274 KINGSPARK AVENUE,,,GLASGOW,LANARKSHIRE,G44 4JE,19801013,20110331,0141 632 182,4
S49520,DR OLIVER FRENSCHOCK,27 MAIN STREET,CAMBUSLANG,,GLASGOW,LANARKSHIRE,G72 7EX,19900401,,0141 584 250,4
S49553,"DRS FITCHETT,BARR,COLLING",GRANTELY MEDICAL PRACTICE,1 GRANTLEY STREET,,GLASGOW,LANARKSHIRE,G41 3PT,19830701,,0141 632 469,4
S49568,GREENLAW MEDICAL PRACTICE,UNIT 3,3 GREENLAW PLACE,NEWTON MEARNS,GLASGOW,LANARKSHIRE,G77 6GR,19880411,,0141 639 883,4
S49604,"DRS GORDON,BEST,MCINTYRE",GORBALS HEALTH CENTRE,45 PINE PLACE,,GLASGOW,LANARKSHIRE,G5 0BQ,19910401,,0141 531 829,4
S49619,ELMWOOD MEDICAL PRACTICE,3 ELMWOOD AVENUE,NEWTON MEARNS,,GLASGOW,LANARKSHIRE,G77 6EH,19911001,,0141 639 247,4
S49623,CAROLSIDE MEDICAL CENTRE,1/2 CAROLSIDE GARDENS,CLARKSTON,,GLASGOW,LANARKSHIRE,G76 7BX,19911001,,0141 644 351,4
S49638,THE MACLEAN MEDICAL PRACTICE,30 GILMOUR STREET,EAGLESHAM,,GLASGOW,LANARKSHIRE,G76 0AT,19930101,,01355 302221,4
S49642,THE CRAIGALLIAN AVENUE PRACTICE,11 CRAIGALLIAN AVENUE,CAMBUSLANG,,GLASGOW,LANARKSHIRE,G72 8RW,19931001,,0141 641 312,4
S49657,"DR. A.K. GAJREE,DR OHRI",ARDOCH MEDICAL CENTRE,6 ARDOCH GROVE,CAMBUSLANG,GLASGOW,LANARKSHIRE,G72 8HA,19931001,20120930,0141 641 125,4
S49661,MAXWELL ROAD SURGERY,17 - 23 MAXWELL ROAD,,,GLASGOW,LANARKSHIRE,G41 1QP,19950708,,0141 423 333,4
S49676,REGENCY MEDICAL PRACTICE,29 KEIR STREET,POLLOCKSHIELDS,,GLASGOW,LANARKSHIRE,G41 2NP,19950708,,0141 429 126,4
S49681,"DR JOHN CRORIE,PARTNERS",MOUNT FLORIDA MEDICAL CENTRE,183 PROSPECTHILL ROAD,,GLASGOW,LANARKSHIRE,G42 9LQ,19960214,,0141 632 400,4
S55201,DORNOCH MEDICAL PRACTICE,SHORE ROAD,,,DORNOCH,SUTHERLAND,IV25 3LS,19900401,,01862 810213,4
S49695,"DR DOUGLAS J BRUCE,DR STEPHEN J FRIEL",RUTHERGLEN HEALTH CENTRE,130 STONELAW ROAD,RUTHERGLEN,GLASGOW,LANARKSHIRE,G73 2PQ,19980601,,0141 531 412,4
S49708,THE CAMPBELL PRACTICE,RUTHERGLEN HEALTH CENTRE,130 STONELAW ROAD,RUTHERGLEN,GLASGOW,LANARKSHIRE,G73 2PQ,19980601,,0141 531 414,4
S49712,DR I A HUSSAIN,PARK SURGERY,7 BAKER STREET,,GLASGOW,LANARKSHIRE,G41 3YA,20000401,,0141 632 020,4
S49727,HOMELESS FAMILIES TEAM,55 HUNTER STREET,,,GLASGOW,LANARKSHIRE,G4 0UP,20001204,20120131,0141 553 280,4
S49731,"DR IAIN C KERR,DR MICHAEL J IRVINE",WILLIAMWOOD MEDICAL CENTRE,85 SERES ROAD,CLARKSTON,GLASGOW,LANARKSHIRE,G76 7NW,20010701,20110810,0141 620 044,4
S49746,WILLIAMWOOD MEDICAL CENTRE,85 SERES ROAD,CLARKSTON,,GLASGOW,LANARKSHIRE,G76 7NW,20010701,20110810,0141 620 033,4
S49751,CASTLEMILK GROUP PRACTICE,CASTLEMILK HEALTH CENTRE,71 DOUGRIE DRIVE,,GLASGOW,LANARKSHIRE,G45 9AW,20050401,,0141 531 858,4
S49765,THE KER PRACTICE,30 CROFTFOOT ROAD,,,GLASGOW,LANARKSHIRE,G44 5JT,20090420,,0141 531 860,4
S49770,KINGSPARK SURGERY,274 KINGS PARK AVENUE,,,GLASGOW,LANARKSHIRE,G44 4JE,20110401,,0141 632 182,4
S49784,WILLIAMWOOD PRACTICE,85 SERES ROAD,CLARKSTON,,GLASGOW,LANARKSHIRE,G76 7NW,20110811,,0141 620 033,4
S49799,DR. A.K. GAJREE,ARDOCH MEDICAL CENTRE,6 ARDOCH GROVE,CAMBUSLANG,GLASGOW,LANARKSHIRE,G72 8HA,20121001,,0141 641 125,4
S52005,MIDLOCK MEDICAL CENTRE,7 MIDLOCK STREET,,,GLASGOW,LANARKSHIRE,G51 1SL,19770401,,0141 427 427,4
S52010,"DRS MACCUISH,KAKAR",59 FARNE DRIVE,,,GLASGOW,LANARKSHIRE,G44 5DQ,19810101,,0141 637 982,4
S52024,THURSTON ROAD SURGERY,140 THURSTON ROAD,,,GLASGOW,LANARKSHIRE,G52 2AZ,19850401,,0141 883 883,4
S52039,"DRS FELLOWS,O'NEILL,FRASER",GOVANHILL HEALTH CENTRE,233 CALDER STREET,,GLASGOW,LANARKSHIRE,G42 7DR,19880405,,0141 531 836,4
S52043,BRAIDCRAFT MEDICAL CENTRE,200 BRAIDCRAFT ROAD,,,GLASGOW,LANARKSHIRE,G53 5QD,19790801,,0141 882 339,4
S52058,THE CRESCENT MEDICAL PRACTICE,12 WALMER CRESCENT,,,GLASGOW,LANARKSHIRE,G51 1AT,19760801,,0141 427 019,4
S52062,BLACKWOOD PARTNERSHIP,GOVAN HEALTH CENTRE,5 DRUMOYNE ROAD,,GLASGOW,LANARKSHIRE,G51 4BJ,19790801,,0141 531 847,4
S52096,"DRS CAMERON,HERRON,MARSHALL,DUTHIE",GOVAN HEALTH CENTRE,5 DRUMOYNE ROAD,,GLASGOW,LANARKSHIRE,G51 4BJ,19861001,,0141 531 846,4
S52109,"DRS CHITA,HAYES",IBROXHOLM MEDICAL CENTRE,532 PAISLEY ROAD WEST,,GLASGOW,LANARKSHIRE,G51 1RN,19900401,,0141 427 250,4
S52128,"DR DOAK,PARTNERS",ARRAN GP SURGERY,40 ADMIRAL STREET,,GLASGOW,LANARKSHIRE,G41 1HU,19791001,,0141 429 262,4
S52147,DR RAHEELA BHATTI,74 KYLEAKIN ROAD,ARDEN,THORNLIEBANK,GLASGOW,LANARKSHIRE,G46 8DH,19900401,,0141 638 146,4
S52151,WAVERLEY PARK MEDICAL PRACTICE,19 DINMONT ROAD,,,GLASGOW,LANARKSHIRE,G41 3UJ,19740701,,0141 632 888,4
S52171,DR K.M.W. SIDDIQUI,POLLOK HEALTH CENTRE,21 COWGLEN ROAD,,GLASGOW,LANARKSHIRE,G53 6EQ,19891001,20100131,0141 531 688,4
S52185,"DRS HILARY MCNAUGHTAN,PATRICK J O'NEILL",CARDONALD MEDICAL CENTRE,1831 PAISLEY ROAD WEST,,GLASGOW,LANARKSHIRE,G52 3SS,19760401,,0141 211 666,4
S52190,"DR N.K. PATEL,DR P. GHAUS",POLLOK HEALTH CENTRE,21 COWGLEN ROAD,,GLASGOW,LANARKSHIRE,G53 6EQ,19780501,20100131,0141 531 687,4
S52202,"DRS WOLFE,SHIELDS,DALE,BLACKWOOD",RUTLAND SURGERY,24 GOVAN ROAD,,GLASGOW,LANARKSHIRE,G51 1HS,19900401,,0141 418 108,4
S52217,DR MCKEEVE,KINNING PARK MEDICAL CENTRE(AILSA),42 ADMIRAL STREET,,GLASGOW,LANARKSHIRE,G41 1HU,19860801,,0141 429 091,4
S52221,"DRS QUIGLEY,CANNING,DORWARD,WEDLOCK",THORNLIEBANK HEALTH CENTRE,20 KENNISHEAD ROAD,THORNLIEBANK,GLASGOW,LANARKSHIRE,G46 8NY,19861001,,0141 531 699,4
S52241,"DR MAIR,DR PETTIGREW,DR MARTIN",1600-1604 PAISLEY ROAD WEST,IBROX,,GLASGOW,LANARKSHIRE,G52 3QN,19900401,,0141 882 456,4
S52255,"DRS MCCOLL,MCLAUGHLIN",THORNLIEBANK HEALTH CENTRE,20 KENNISHEAD ROAD,THORNLIEBANK,GLASGOW,LANARKSHIRE,G46 8NY,19870401,,0141 531 690,4
S52260,DR MUHAMMAD FAZLUL ALAM,MULL GP SURGERY,36 ADMIRAL STREET,,GLASGOW,LANARKSHIRE,G41 1HU,19840101,,0141 429 094,4
S52293,"DRS TREADGOLD,DUFFY,MORLEY",POLLOK HEALTH CENTRE,21 COWGLEN ROAD,,GLASGOW,LANARKSHIRE,G53 6EQ,19901101,,0141 531 686,4
S52311,"DR L VENTRY,DATTA",CARDONALD MEDICAL CENTRE,1831 PAISLEY ROAD WEST,,GLASGOW,LANARKSHIRE,G52 3SS,19920501,20140331,0141 211 666,4
S52330,YELLOW PRACTICE,GOVAN HEALTH CENTRE,5 DRUMOYNE ROAD,,GLASGOW,LANARKSHIRE,G51 4BJ,19980401,,0141 531 849,4
S52344,CROOKSTON MEDICAL PRACTICE,230 DALMELLINGTON ROAD,CROOKSTON,,GLASGOW,LANARKSHIRE,G53 7FY,19980601,,0141 883 888,4
S52359,"DR K G HARDIE,PARTNERS",GOVAN HEALTH CENTRE,5 DRUMOYNE ROAD,,GLASGOW,LANARKSHIRE,G51 4BJ,19980601,,0141 531 844,4
S52363,"DRS SEMPLE,FINNEY",CARDONALD MEDICAL CENTRE,1831 PAISLEY ROAD WEST,,GLASGOW,LANARKSHIRE,G52 3SS,20000401,20140331,0141 892 254,4
S52378,DR IAN STRUTHERS,CARDONALD MEDICAL CENTRE,1831 PAISLEY ROAD WEST,,GLASGOW,LANARKSHIRE,G52 3SS,20000401,20120531,0141 892 255,4
S52382,POLLOKSHAWS MEDICAL PRACTICE,26 WELLGREEN,,,GLASGOW,LANARKSHIRE,G43 1RR,20030401,,0141 620 430,4
S52397,WELLGREEN GROUP PRACTICE,POLLOKSHAWS MEDICAL CENTRE,26 WELL GREEN,,GLASGOW,LANARKSHIRE,G43 1RR,20030401,,0141 620 431,4
S52400,DR GHAUS MEDICAL PRACTICE,POLLOK HEALTH CENTRE,21 COWGLEN ROAD,,GLASGOW,LANARKSHIRE,G53 6EQ,20100201,,0141 531 687,4
S52414,"DRS SEMPLE,FINNEY AND DATTA",CARDONALD MEDICAL CENTRE,1831 PAISLEY ROAD WEST,,GLASGOW,LANARKSHIRE,G52 3SS,20140401,,0141 826 254,4
S54980,MEDIC-CALL,1407 POLLOCKSHAWS ROAD,,,GLASGOW,LANARKSHIRE,G41 3RG,20020501,,0141 636 005,0
S54994,G.E.M.S.,SIEMENS BUSINESS CENTRE,BOYDSTONE ROAD,COWGLEN,GLASGOW,LANARKSHIRE,G58 1SB,19900401,,0141 616 620,0
S55003,"THURSO,HALKIRK MEDICAL PRACTICE",69 PRINCES STREET,,,THURSO,CAITHNESS,KW14 7DH,19901009,,01847 895986,4
S55037,RIVERBANK SURGERY,JANET STREET,,,THURSO,CAITHNESS,KW14 7AR,19980501,,01847 892009,4
S55041,NAIRN HEALTHCARE GROUP,"NAIRN TOWN,COUNTY HOSPITAL",CAWDOR ROAD,,NAIRN,MORAYSHIRE,IV12 5EE,20120401,,01667 452096,4
S55075,DUNBEATH SURGERY,ACHORN ROAD,,,DUNBEATH,CAITHNESS,KW6 6EZ,19690701,,01593 731205,4
S55080,"CANISBAY,CASTLETOWN JOINT MEDICAL PRACTICE",MURRAYFIELD,CASTLETOWN,,THURSO,CAITHNESS,KW14 8TY,20040901,,01847 821205,4
S55094,LYBSTER MEDICAL CENTRE,ALTHORPE STREET,,,LYBSTER,CAITHNESS,KW3 6BQ,19831001,,01593 721216,0
S55131,RIVERVIEW MEDICAL PRACTICE,WICK MEDICAL CENTRE,MARTHA TERRACE,,WICK,CAITHNESS,KW1 5EL,19751201,,01955 602355,4
S55145,THE PEARSON PRACTICE,WICK MEDICAL CENTRE,MARTHA TERRACE,,WICK,CAITHNESS,KW1 5EL,19900401,,01955 605885,4
S55215,DURNESS MEDICAL PRACTICE,THE SURGERY,DURINE,DURNESS,LAIRG,SUTHERLAND,IV27 4PN,19900401,,01971 511273,4
S55220,GOLSPIE MEDICAL PRACTICE,GOLSPIE HEALTH CENTRE,FOUNTAIN ROAD,,GOLSPIE,SUTHERLAND,KW10 6TH,19900401,,01408 633221,4
S55249,LAIRG HEALTH CENTRE,MAIN STREET,,,LAIRG,SUTHERLAND,IV27 4DD,19830701,,01549 402007,4
S55253,ASSYNT MEDICAL PRACTICE,6 MAIN STREET,LOCHINVER,,LAIRG,SUTHERLAND,IV27 4JZ,19630801,,01571 844226,4
S55268,SCOURIE AND KINLOCHBERVIE MED. PRACTICE,HEALTH CENTRE,KINLOCHBERVIE,,LAIRG,SUTHERLAND,IV27 4RP,19900301,,01971 502002,0
S55272,TONGUE MEDICAL PRACTICE,TONGUE HEALTH CENTRE,ST. ANDREWS GLEBE,TONGUE,LAIRG,SUTHERLAND,IV27 4XB,19900401,,01847 611213,4
S55287,HELMSDALE/BRORA MED PRACTICE,BRORA HEALTH CENTRE,STATION SQUARE,,BRORA,SUTHERLAND,KW9 6QJ,20010901,,01431 821225,4
S55291,CREICH SURGERY,CHERRY GROVE,BONAR BRIDGE,,ARDGAY,SUTHERLAND,IV24 3EP,20021201,,01863 766379,4
S55338,ALNESS/INVERGORDON MED PRCTE,ROBERTSON HEALTH CENTRE,DALMORE ROAD,,ALNESS,ROSS-SHIRE,IV17 0UN,19740501,,01349 882229,4
S55342,APPLECROSS,THE SURGERY,CAMUSTERRACH,APPLECROSS,STRATHCARRON,ROSS-SHIRE,IV54 8LU,19931213,,01520 744252,4
S55357,AULTBEA/GAIRLOCH MED PRACTICE,BIRCHBURN SURGERY,BIRCHBURN,AULTBEA,ACHNASHEEN,ROSS-SHIRE,IV22 2HU,19900401,,01445 731221,4
S55361,CROMARTY MEDICAL PRACTICE,ALLAN SQUARE,,,CROMARTY,ROSS-SHIRE,IV11 8YF,19900401,,01381 600224,4
S55376,DINGWALL MEDICAL GROUP,DINGWALL HEALTH CENTRE,FERRY ROAD,,DINGWALL,ROSS-SHIRE,IV15 9QS,19770101,,01349 863034,4
S55381,FORTROSE MEDICAL PRACTICE,STATION ROAD,,,FORTROSE,ROSS-SHIRE,IV10 8SY,19730201,,0844 477 249,4
S55395,LOCHCARRON MEDICAL PARTNERSHIP,THE FERGUSON MEDICAL CENTRE,LOCHCARRON,,STRATHCARRON,ROSS-SHIRE,IV54 8YD,19850801,,01520 722215,4
S55408,MUNLOCHY MEDICAL PRACTICE,THE SURGERY,BRAE TERRACE,,MUNLOCHY,ROSS-SHIRE,IV8 8NG,19821001,,01463 811200,4
S55412,STRATHPEFFER MEDICAL PRACTICE,SCHOOL ROAD,,,STRATHPEFFER,ROSS-SHIRE,IV14 9AG,19800811,,01997 421455,4
S55427,"TAIN,DISTRICT MED PRACTICE",THE HEALTH CENTRE,SCOTSBURN ROAD,,TAIN,ROSS-SHIRE,IV19 1PR,19810801,,01862 892203,4
S55431,"TAIN,FEARN AREA MED PRACTICE",TAIN HEALTH CENTRE,SCOTSBURN ROAD,,TAIN,ROSS-SHIRE,IV19 1PR,19790820,,01862 892759,4
S55446,TORRIDON MEDICAL PRACTICE,FASSAIG,TORRIDON,,ACHNASHEEN,ROSS-SHIRE,IV22 2EZ,19861201,,01445 791223,0
S55451,ULLAPOOL HEALTH CENTRE,NORTH ROAD,,,ULLAPOOL,ROSS-SHIRE,IV26 2XL,19770901,,01854 612015,4
S55516,BROADFORD MEDICAL CENTRE,HIGH ROAD,,,BROADFORD,ISLE OF SKYE,IV49 9AA,19700801,,01471 822460,0
S55521,CARBOST MEDICAL PRACTICE,THE SURGERY,,,CARBOST,ISLE OF SKYE,IV47 8ST,19861001,,01478 640202,0
S55535,DUNVEGAN MEDICAL PRACTICE,DUNVEGAN HEALTH CENTRE,,,DUNVEGAN,ISLE OF SKYE,IV55 8GU,19900401,,01470 521203,4
S55540,SLEAT MEDICAL PRACTICE,FERRINDONALD,,,TEANGUE,ISLE OF SKYE,IV44 8RF,19770901,,01471 844283,0
S55554,GLENELG HEALTH CENTRE,ALLT RUADH,GLENELG,,KYLE,ROSS-SHIRE,IV40 8JD,19870401,,01599 522272,0
S55569,KYLE MEDICAL PRACTICE,LOCHALSH HEALTHCARE CENTRE,STATION ROAD,,KYLE,ROSS-SHIRE,IV40 8AE,19810901,,01599 534257,4
S55573,PORTREE MEDICAL PRACTICE,PORTREE MEDICAL CENTRE,,,PORTREE,ISLE OF SKYE,IV51 9BZ,19840813,,01478 612013,4
S55588,ARISAIG MEDICAL PRACTICE,RHU ROAD,,,ARISAIG,INVERNESS-SHIRE,PH39 4NU,19890301,20080131,01687 450258,4
S55592,BALLACHULISH MEDICAL PRACTICE,EAST LAROCH,LOAN FERN,,BALLACHULISH,ARGYLL,PH49 4JB,19771101,20061130,01855 811226,4
S55605,CRAIG NEVIS SURGERY - FORT WILLIAM,CRAIG NEVIS SURGERY,FORT WILLIAM HEALTH CENTRE,CAMAGHAEL,FORT WILLIAM,INVERNESS-SHIRE,PH33 7AQ,19800812,,01397 702947,4
S55610,GLEN MOR MEDICAL PRACTICE - FORT WILLIAM,GLEN MOR MEDICAL PRACTICE,FORT WILLIAM HEALTH CENTRE,CAMAGHAEL,FORT WILLIAM,INVERNESS-SHIRE,PH33 7AQ,19750801,,01397 703773,4
S55624,TWEEDDALE MEDICAL PRACTICE - FORT WILLIAM,TWEEDDALE MEDICAL PRACTICE,FORT WILLIAM HEALTH CENTRE,CAMAGHAEL,FORT WILLIAM,INVERNESS-SHIRE,PH33 7AQ,19800801,,01397 703136,4
S55639,KINLOCHLEVEN MEDICAL PRACTICE,KEARAN ROAD,,,KINLOCHLEVEN,ARGYLL,PH50 4QU,19781211,,01855 831225,4
S55643,LOCHALINE MEDICAL PRACTICE,MORVERN MEDICAL CENTRE,LOCHALINE,MORVERN,OBAN,ARGYLL,PA80 5XT,19900401,,01967 421252,4
S80541,KIRKHALL SURGERY,4 ALEXANDRA AVENUE,,,PRESTWICK,AYRSHIRE,KA9 1AW,19810901,,01292 476626,4
S55658,MALLAIG MEDICAL PRACTICE,MALLAIG HEALTH CENTRE,VICTORIA ROAD,,MALLAIG,INVERNESS-SHIRE,PH41 4RN,19900401,20080131,01687 462202,4
S55662,ACHARACLE MEDICAL PRACTICE,THE PINES MEDICAL CENTRE,,,ACHARACLE,ARGYLL,PH36 4JU,19771001,,01967 431231,4
S55677,SMALL ISLES MEDICAL PRACTICE - ISLE OF EIGG,SMALL ISLES MEDICAL PRACTICE,,,GRIANAN,ISLE OF EIGG,PH42 4RL,19511001,,01687 482427,4
S55681,ARDERSIER MEDICAL PRACTICE,142 MANSE ROAD,ARDERSIER,,INVERNESS,INVERNESS-SHIRE,IV2 7SR,19900401,20120331,01667 462240,4
S55696,THE AIRD MEDICAL PRACTICE - BEAULY,THE AIRD MEDICAL PRACTICE,FERRY ROAD,,BEAULY,INVERNESS-SHIRE,IV4 7EA,19840415,,01463 782214,4
S55709,CROYARD ROAD - BEAULY,THE SURGERY,CROYARD ROAD,,BEAULY,INVERNESS-SHIRE,IV4 7DT,19831001,,01463 782794,4
S55728,DRUMNADROCHIT MEDICAL PRACTICE,BALMACAAN ROAD,DRUMNADROCHIT,,INVERNESS,INVERNESS-SHIRE,IV63 6UR,19900401,,01456 450577,0
S55732,CILL CHUIMEIN MEDICAL CENTRE - FORT AUGUSTUS,CILL CHUIMEIN MEDICAL CENTRE,,,FORT AUGUSTUS,INVERNESS-SHIRE,PH32 4BH,19850801,,01320 366216,4
S55747,LOCH NESS EAST AND STRATHNAIRN - FOYERS,FOYERS MEDICAL PRACTICE,FOYERS,,INVERNESS,INVERNESS-SHIRE,IV2 6YB,19601001,,01456 486224,4
S55751,CULLODEN SURGERY,KEPPOCH ROAD,CULLODEN,,INVERNESS,INVERNESS-SHIRE,IV2 7LL,19920701,,01463 793400,4
S55766,CULLODEN MEDICAL PRACTICE,KEPPOCH ROAD,CULLODEN,,INVERNESS,INVERNESS-SHIRE,IV2 7LL,19920701,,01463 793777,4
S55802,ARDLARICH,15 CULDUTHEL ROAD,,,INVERNESS,INVERNESS-SHIRE,IV2 4AG,19700301,20050630,01463 712233,4
S55817,KINGSMILLS MEDICAL PRACTICE,18 SOUTHSIDE ROAD,,,INVERNESS,INVERNESS-SHIRE,IV2 3BG,19740801,,01463 235245,4
S55821,ARDLARICH,15 CULDUTHEL ROAD,,,INVERNESS,INVERNESS-SHIRE,IV2 4AG,19860815,20050630,01463 712233,4
S55836,FAIRFIELD MEDICAL PRACTICE,22A ABBAN STREET,,,INVERNESS,INVERNESS-SHIRE,IV3 8HH,19790401,,01463 713939,4
S55841,RIVERSIDE MEDICAL PRACTICE,RIVERSIDE MEDICAL CENTRE,BALLIFEARY LANE,NESS WALK,INVERNESS,INVERNESS-SHIRE,IV3 5PW,19880801,,01463 715999,4
S55855,ARDLARICH,15 CULDUTHEL ROAD,,,INVERNESS,INVERNESS-SHIRE,IV2 4AG,19840801,20070128,01463 712233,4
S55860,KINMYLIES MEDICAL PRACTICE,ASSYNT ROAD,,,INVERNESS,INVERNESS-SHIRE,IV3 8PB,19820226,,01463 239865,4
S55874,43 SOUTHSIDE ROAD,SOUTHSIDE ROAD SURGERY,43 SOUTHSIDE ROAD,,INVERNESS,INVERNESS-SHIRE,IV2 4XA,19800201,,01463 710222,4
S55889,BURNFIELD MEDICAL PRACTICE,HARRIS ROAD,,,INVERNESS,INVERNESS-SHIRE,IV2 3PF,19900401,,01463 220077,4
S55893,CROWN MEDICAL PRACTICE,12 CROWN AVENUE,,,INVERNESS,INVERNESS-SHIRE,IV2 3NF,19881220,,0844 576 997,4
S55906,LODGEHILL CLINIC,"NAIRN TOWN,COUNTY HOSPITAL",CAWDOR ROAD,,NAIRN,MORAYSHIRE,IV12 5EE,19741201,20120331,01667 452096,4
S55911,AVIEMORE MEDICAL PRACTICE,AVIEMORE HEALTH CENTRE,,,AVIEMORE,INVERNESS-SHIRE,PH22 1SY,19760401,,01479 810258,4
S55925,GRANTOWN ON SPEY HEALTH CENTRE,CASTLE ROAD EAST,,,GRANTOWN-ON-SPEY,MORAYSHIRE,PH26 3HR,19840706,,01479 872484,4
S55930,KINGUSSIE MEDICAL PRACTICE,OLD DISTILLERY SURGERY,GYNACK ROAD,ARDVONIE PARK,KINGUSSIE,INVERNESS-SHIRE,PH21 1ET,19900401,,01540 661 23,4
S55944,GERGASK SURGERY,LAGGAN,,,NEWTONMORE,INVERNESS-SHIRE,PH20 1AH,19900401,,01528 544225,4
S55997,HIGHLAND HOSPICE,NESS HOUSE,1 BISHOPS ROAD,,INVERNESS,INVERNESS-SHIRE,IV3 5SB,19990401,,,0
S56006,CAIRN MEDICAL PRACTICE,15 CULDUTHEL ROAD,,,INVERNESS,INVERNESS-SHIRE,IV2 4AG,20050701,,01463 712233,4
S56011,DUNEDIN MEDICAL PRACTICE,TEMPLE CRESCENT,,,INVERNESS,INVERNESS-SHIRE,IV2 4TP,20070129,,01463 712157,4
S56025,BALLACHULISH MEDICAL PRACTICE,EAST LAROCH,LOAN FERN,,BALLACHULISH,ARGYLL,PH49 4JB,20061201,,01855 811226,0
S56030,MALLAIG AND ARISAIG MEDICAL PRACTICE,MALLAIG HEALTH CENTRE,VICTORIA ROAD,,MALLAIG,INVERNESS-SHIRE,PH41 4RN,20080201,,01687 462202,4
S56504,MOD FORT GEORGE,FORT GEORGE MEDICAL CENTRE,FORT GEORGE,,INVERNESS,INVERNESS-SHIRE,IV2 7TE,20120521,,01349 869222,0
S58001,GP FOR GP'S,HIGHLANDER WAY,"INVERNESS BUSINESS,RETAIL PARK",,INVERNESS,INVERNESS-SHIRE,IV2 7GE,20030701,,,0
S59911,SOUTH EAST HIGHLAND CHP OOH,ALDER HOUSE,"CRADLEHALL BUSINESS PARK,WESTHILL",CAULFIELD ROAD NORTH,INVERNESS,INVERNESS-SHIRE,IV2 5GU,20041201,,,2
S59950,NORTH HIGHLAND CHP OOH,CAITHNESS GENERAL HOSPITAL,CLIFF ROAD,,WICK,CAITHNESS,KW1 5NS,20041201,,,2
S59998,MID HIGHLAND CHP OOH,LARACHAN HOUSE,9 DOCHCARTY ROAD,,DINGWALL,ROSS-SHIRE,IV15 9UG,20030801,,,2
S60001,ST ANDREW'S HOSPICE,HENDERSON STREET,,,AIRDRIE,LANARKSHIRE,ML6 6AF,19990401,,01236 766951,0
S60021,COMMUNITY PHARMACY VARENICLINE CLINIC,PHARMACY DEPARTMENT,"KIRKLANDS HOSPITAL,FALLSIDE ROAD",BOTHWELL,GLASGOW,LANARKSHIRE,G71 8BB,20110914,,01698 858315,0
S60035,LANARKSHIRE OPTOMETRIC PRESCRIBING,"PHARMACY DEPT,KIRKLANDS HOSPITAL",FALLSIDE ROAD,BOTHWELL,GLASGOW,LANARKSHIRE,G71 8BB,20131017,,01698 858149,0
S60040,IP PHARMACIST CONTRACEPTION CLINIC,NHS LANARKSHIRE SEXUAL HEALTH SRV,"KIRKLANDS HOSPITAL,FALLSIDE ROAD",BOTHWELL,GLASGOW,LANARKSHIRE,G71 8BB,20131209,,01698 858128,0
S60302,LANARKSHIRE FORENSIC MEDICAL SERVICE,"NHS LANARKSHIRE,KIRKLANDS",FALLSIDE ROAD,BOTHWELL,GLASGOW,LANARKSHIRE,G71 8BB,20140401,,01555 777480,0
S61038,CLARKSTON MEDICAL CENTRE,114 FORREST STREET,,,AIRDRIE,LANARKSHIRE,ML6 7AG,19880101,,01236 747611,4
S61057,DR BMK ZAMAN,AIRDRIE COMMUNITY HEALTH CENTRE,88 GRAHAM STREET,,AIRDRIE,LANARKSHIRE,ML6 6DB,19890821,,01236 748900,4
S61061,ADAM AVENUE PRACTICE,"DR R CLEMENTS,PARTNERS",AIRDRIE COMMUNITY HEALTH CENTRE,88 GRAHAM STREET,AIRDRIE,LANARKSHIRE,ML6 6DB,19821001,,01236 763581,4
S61112,SOUTH NIMMO MEDICAL PRACTICE,C/O MAIN CLINIC,ADAM AVENUE,,AIRDRIE,LANARKSHIRE,ML6 6DN,19940620,20070930,01236 764722,4
S61127,"DR INSAUSTI,PARTNER",AIRDRIE COMMUNITY HEALTH CENTRE,88 GRAHAM STREET,,AIRDRIE,LANARKSHIRE,ML6 6DB,19980501,20120801,01236 768181,4
S61131,"DR JRM LOUGH,PARTNERS",AIRDRIE COMMUNITY HEALTH CENTRE,88 GRAHAM STREET,,AIRDRIE,LANARKSHIRE,ML6 6DB,19980501,,01236 748488,4
S61151,BANKHOUSE MEDICAL PRACTICE,AIRDRIE COMMUNITY HEALTH CENTRE,88 GRAHAM STREET,,AIRDRIE,LANARKSHIRE,ML6 6DB,19990220,,01236 766983,4
S61170,DR D WALKER,AIRDRIE COMMUNITY HEALTH CENTRE,88 GRAHAM STREET,,AIRDRIE,LANARKSHIRE,ML6 6DB,19990401,,01236 766446,4
S61184,WELLWYND PRACTICE,AIRDRIE COMMUNITY HEALTH CENTRE,88 GRAHAM STREET,,AIRDRIE,LANARKSHIRE,ML6 6DB,20071001,,01236 769333,4
S61216,CENTENARY SURGERY,9 CENTENARY GARDENS,,,COATBRIDGE,LANARKSHIRE,ML5 4BY,19880418,,01236 423355,4
S61240,"DRS FIFE,DOCHERTY,MCCRUM",COATBRIDGE HEALTH CENTRE,1 CENTRE PARK COURT,,COATBRIDGE,LANARKSHIRE,ML5 3AP,19721101,,01236 433300,4
S61254,"DR PD FLANIGAN,PARTNERS",7 CHURCH STREET,,,COATBRIDGE,LANARKSHIRE,ML5 3EB,19780401,20060531,01236 422678,4
S61288,BLAIRGROVE SURGERY,COATBRIDGE HEALTH CENTRE,1 CENTRE PARK COURT,,COATBRIDGE,LANARKSHIRE,ML5 3AP,19930111,,01236 421434,4
S61305,"DR PN NAHAR,PARTNERS",KILDRUM HEALTH CENTRE,AFTON ROAD,CUMBERNAULD,GLASGOW,LANARKSHIRE,G67 2EU,19801001,,01236 721354,4
S61324,"DR U HANDA,PARTNERS",CONDORRAT HEALTH CENTRE,"16 AIRDRIE ROAD,CONDORRAT",CUMBERNAULD,GLASGOW,LANARKSHIRE,G67 4DN,19771109,,01236 733221,4
S61339,CALEDONIA MEDICAL PRACTICE,NORTH CARBRAIN ROAD,TOWN CENTRE,CUMBERNAULD,GLASGOW,LANARKSHIRE,G67 1BJ,19780301,,01236 731738,4
S61343,"DR CARROLL,PARTNERS",CENTRAL HEALTH CENTRE,NORTH CARBRAIN ROAD,CUMBERNAULD,GLASGOW,LANARKSHIRE,G67 1BJ,19810801,,01236 737214,4
S61358,KENILWORTH MEDICAL CENTRE,KENILWORTH COURT,GREENFAULDS,CUMBERNAULD,GLASGOW,LANARKSHIRE,G67 1BP,19730701,,01236 727816,4
S61377,"DR JS TWADDLE,PARTNERS",ABRONHILL HEALTH CENTRE,"PINE ROAD,ABRONHILL",CUMBERNAULD,GLASGOW,LANARKSHIRE,G67 3BE,19920501,,01236 723223,4
S61381,DR DJ CLIFFORD,ABRONHILL HEALTH CENTRE,"PINE ROAD,ABRONHILL",CUMBERNAULD,GLASGOW,LANARKSHIRE,G67 3BE,19930501,,01236 727654,4
S61409,DR SS BAWA,8 CENTRE STREET,GLENBOIG,,COATBRIDGE,LANARKSHIRE,ML5 2RY,19850801,,01236 872617,4
S61428,DR CTW LEES,AIRDRIE COMMUNITY HEALTH CENTRE,88 GRAHAM STREET,,AIRDRIE,LANARKSHIRE,ML6 6DB,19990701,20120801,01236 759263,4
S61432,"DR J ATKINSON,PARTNERS",AIRDRIE HEALTH CENTRE,MONKSCOURT AVENUE,,AIRDRIE,LANARKSHIRE,ML6 0JS,20000105,20070930,01236 769333,4
S61447,WAVERLEY MEDICAL PRACTICE,COATBRIDGE HEALTH CENTRE,1 CENTRE PARK COURT,,COATBRIDGE,LANARKSHIRE,ML5 3AP,20010401,,01236 422311,4
S61451,COATBANK MEDICAL PRACTICE,COATBRIDGE HEALTH CENTRE,1 CENTRE PARK COURT,,COATBRIDGE,LANARKSHIRE,ML5 3AP,20020801,,01236 422950,4
S61466,ATRIUM MEDICAL PRACTICE,BUCHANAN CENTRE,126 MAIN STREET,,COATBRIDGE,LANARKSHIRE,ML5 3BJ,20020801,,01236 421211,4
S61471,"DR AA GLEN,PARTNER",THE MILLSTREAM PRACTICE,AIRDRIE COMMUNITY HEALTH CENTRE,88 GRAHAM STREET,AIRDRIE,LANARKSHIRE,ML6 0DB,20050201,20130215,01236 768900,4
S61485,CHURCH STREET PRACTICE,BUCHANAN CENTRE,126-130 MAIN STREET,,COATBRIDGE,LANARKSHIRE,ML5 3BJ,20060601,,01236 422678,4
S61490,TOWN HOUSE PRACTICE,AIRDRIE COMMUNITY HEALTH CENTRE,3RD FLOOR 88 GRAHAM STREET,,AIRDRIE,LANARKSHIRE,ML6 6DB,20120802,,01236 768 18,4
S61502,KILSYTH MEDICAL PARTNERSHIP,KILSYTH HEALTH CENTRE,BURNGREEN PARK,KILSYTH,GLASGOW,LANARKSHIRE,G65 0HU,19810201,,08444 772552,4
S61606,"DR S JARDINE,DR S KUMAR",MILLSTREAM PRACTICE,AIRDRIE COMMUNITY HEALTH CENTRE,"88 GRAHAM STREET,AIRDRIE",AIRDRIE,LANARKSHIRE,ML6 6DB,20130216,,01236 768900,4
S61611,"DR DARROCH,PARTNERS",AIRDRIE COMMUNITY HEALTH CENTRE,88 GRAHAM STREET,,AIRDRIE,LANARKSHIRE,ML6 6DB,20140501,,01236 768900,4
S62011,MOSSEND SURGERY,494 MAIN STREET,,,BELLSHILL,LANARKSHIRE,ML4 1DQ,19741001,,01698 748421,4
S62031,BRUCE MEDICAL CENTRE,2 POLLOCK STREET,MOSSEND,,BELLSHILL,LANARKSHIRE,ML4 1QD,19820901,,01698 747666,4
S62045,DR CM MCKIBBIN,FULLWOOD CLINIC,120 STEVENSTON STREET,,MOTHERWELL,LANARKSHIRE,ML1 4LT,20040301,,01698 834488,4
S62050,JOHN STREET SURGERY,BELLSHILL COMMUNITY HEALTH CLINIC,GREENMOSS PLACE,,BELLSHILL,LANARKSHIRE,ML4 1PS,20040301,,01698 747195,4
S62115,DR KVK MENON,6 NEWARTHILL ROAD,NEWARTHILL,,MOTHERWELL,LANARKSHIRE,ML1 4DY,19771101,,01698 732501,4
S62120,DRS RAO/RAMAN,43-45 MAIN STREET,HOLYTOWN,,MOTHERWELL,LANARKSHIRE,ML1 4TH,19880606,,01698 732463,4
S62219,HIGH MILL MEDICAL PRACTICE,CARLUKE COMMUNITY HEALTH CENTRE,40 CHAPEL STREET,,CARLUKE,LANARKSHIRE,ML8 4BA,19750701,,01555 771012,4
S62223,ST LUKE'S MEDICAL PRACTICE,CARLUKE COMMUNITY HEALTH CENTRE,40 CHAPEL STREET,,CARLUKE,LANARKSHIRE,ML8 4BA,19840801,,01555 752150,4
S62238,THE LANARK DOCTORS,WOODSTOCK MEDICAL CENTRE,WOODSTOCK ROAD,,LANARK,LANARKSHIRE,ML11 7DH,19810101,,01555 665522,4
S62312,BIGGAR HEALTH CENTRE,SOUTH CROFT ROAD,,,BIGGAR,LANARKSHIRE,ML12 6BE,19781001,,01899 220383,4
S62331,CARSTAIRS SURGERY,SCHOOL HOUSE,CARSTAIRS,,LANARK,LANARKSHIRE,ML11 8QD,19730801,20140121,01555 870512,4
S62346,KINGSHILL MEDICAL PRACTICE,40 MANSE ROAD,FORTH,,LANARK,LANARKSHIRE,ML11 8AJ,19811101,,01555 811200,4
S62351,"DR L CHRISTIE,DR D HALL",CARNWATH HEALTH CENTRE,7 BIGGAR ROAD,CARNWATH,LANARK,LANARKSHIRE,ML11 8HJ,19901001,20140121,01555 840214,4
S62510,DOUGLASDALE MEDICAL PRACTICE,69 AYR ROAD,DOUGLAS,,LANARK,LANARKSHIRE,ML11 0PX,19711001,,01555 851226,4
S62596,"DR GD BROUGH,PARTNERS",30 LAUCHOPE STREET,CHAPELHALL,,AIRDRIE,LANARKSHIRE,ML6 8SR,19980801,,01236 762144,4
S62609,ORCHARD MEDICAL CENTRE,41 LADYWELL ROAD,,,MOTHERWELL,LANARKSHIRE,ML1 3JX,20010601,,01698 242700,4
S62613,DR M IDREES,45 THORNTON ROAD,KIRKMUIRHILL,,LANARK,LANARKSHIRE,ML11 9QE,19810126,,01555 894073,4
S62628,BLACKWOOD MEDICAL PRACTICE,125 CARLISLE ROAD,BLACKWOOD,KIRKMUIRHILL,LANARK,LANARKSHIRE,ML11 9SB,19860804,,01555 893961,4
S62632,THE GLEBE MEDICAL PRACTICE,ABBEYGREEN,LESMAHAGOW,,LANARK,LANARKSHIRE,ML11 0EG,19860402,,01555 892328,4
S62666,"DR KEH MCKAY,PARTNERS",WISHAW HEALTH CENTRE,KENILWORTH AVENUE,,WISHAW,LANARKSHIRE,ML2 7BQ,19960501,,01698 361716,4
S62671,"DR CLARK,PARTNERS",WISHAW HEALTH CENTRE,KENILWORTH AVENUE,,WISHAW,LANARKSHIRE,ML2 7BQ,19960501,,01698 372201,4
S62685,"DR TILLEY,PARTNERS",MOTHERWELL HEALTH CENTRE,138-144 WINDMILL STREET,,MOTHERWELL,LANARKSHIRE,ML1 1TB,19960401,,01698 266688,4
S62690,"DR L BELL,PARTNERS",MOTHERWELL HEALTH CENTRE,138-144 WINDMILL STREET,,MOTHERWELL,LANARKSHIRE,ML1 1TB,19960401,,01698 266525,4
S62702,"DRS KEENAN,FISHER",MOTHERWELL HEALTH CENTRE,138-144 WINDMILL STREET,,MOTHERWELL,LANARKSHIRE,ML1 1TB,19940411,,01698 264164,4
S62717,"DR A M DUDDY,PARTNERS",GLENCAIRN MEDICAL PRACTICE,MODYRVALE MEDICAL CENTRE,TOLL STREET,MOTHERWELL,LANARKSHIRE,ML1 2PJ,19820701,,01698 265566,4
S62736,"DR BLAKE,PARTNERS",MOTHERWELL HEALTH CENTRE,138-144 WINDMILL STREET,,MOTHERWELL,LANARKSHIRE,ML1 1TB,19790201,,01698 263288,4
S62789,THE FIRS MEDICAL PRACTICE,MOTHERWELL HEALTH CENTRE,138-144 WINDMILL STREET,,MOTHERWELL,LANARKSHIRE,ML1 1TB,19920801,,01698 275567,4
S62793,"DR MCPHAIL,PARTNER",MOTHERWELL HEALTH CENTRE,138-144 WINDMILL STREET,,MOTHERWELL,LANARKSHIRE,ML1 1TB,19940411,,01698 265193,4
S62806,"DR NPM DEAR,PARTNERS",NEWMAINS HEALTH CENTRE,17 MANSE ROAD,NEWMAINS,WISHAW,LANARKSHIRE,ML2 9AX,19930109,,01698 384482,4
S62811,"DR AAW MAJUMDAR,PARTNERS",NEWMAINS HEALTH CENTRE,17 MANSE ROAD,NEWMAINS,WISHAW,LANARKSHIRE,ML2 9AX,19900401,,01698 381074,4
S62830,MANSE ROAD MEDICAL CENTRE,18 MANSE ROAD,NEWMAINS,,WISHAW,LANARKSHIRE,ML2 9AX,19800514,,01698 383296,4
S62844,FORESTBANK MEDICAL PARTNERSHIP,HARTHILL HEALTH CENTRE,24/26 VICTORIA STREET,HARTHILL,SHOTTS,LANARKSHIRE,ML7 5QE,19900401,,01501 751795,4
S62897,DR MI GEORGE,SHOTTS HEALTH CENTRE,36 STATION ROAD,,SHOTTS,LANARKSHIRE,ML7 4DS,19940101,,01501 821544,4
S62914,"DR CM MAULE,PARTNERS",WISHAW HEALTH CENTRE,KENILWORTH AVENUE,,WISHAW,LANARKSHIRE,ML2 7BQ,19881001,,01698 357766,4
S62929,DR A CONNELLY,WISHAW HEALTH CENTRE,KENILWORTH AVENUE,,WISHAW,LANARKSHIRE,ML2 7BQ,19841201,20120331,01698 356420,4
S62933,"DR A BELL,PARTNERS",WISHAW HEALTH CENTRE,KENILWORTH AVENUE,,WISHAW,LANARKSHIRE,ML2 7BQ,19740801,,01698 373341,4
S62967,"DR MURPHY,PARTNERS",WISHAW HEALTH CENTRE,KENILWORTH AVENUE,,WISHAW,LANARKSHIRE,ML2 7BQ,19810101,,01698 372888,4
S62986,"DR CP MACFARLANE,PARTNERS",SHOTTS HEALTH CENTRE,36 STATION ROAD,,SHOTTS,LANARKSHIRE,ML7 4DS,19940401,,01501 822099,4
S62991,ROSEHALL SURGERY,269 STATION ROAD,DYKEHEAD,,SHOTTS,LANARKSHIRE,ML7 4AR,20000101,,01501 824990,4
S63033,CALDERSIDE MEDICAL PRACTICE,BLANTYRE HEALTH CENTRE,64 VICTORIA STREET,BLANTYRE,GLASGOW,LANARKSHIRE,G72 0BS,19750101,,01698 828868,4
S63052,"DR MV CHURCH,PARTNERS",BLANTYRE HEALTH CENTRE,VICTORIA STREET,BLANTYRE,GLASGOW,LANARKSHIRE,G72 0BS,19931001,,01698 826331,4
S63118,BOTHWELL MEDICAL CENTRE,3 UDDINGSTON ROAD,BOTHWELL,,GLASGOW,LANARKSHIRE,G71 8ET,19800101,,01698 852299,4
S63231,MAVOR MEDICAL PRACTICE,HUNTER HEALTH CENTRE,ANDREW STREET,EAST KILBRIDE,GLASGOW,LANARKSHIRE,G74 1AD,19880201,,01355 573790,4
S63245,"DR CJ MACKINTOSH,PARTNERS",HUNTER HEALTH CENTRE,ANDREW STREET,EAST KILBRIDE,GLASGOW,LANARKSHIRE,G74 1AD,19870301,,01355 575630,4
S63250,BLUE SUITE MEDICAL PRACTICE,HUNTER HEALTH CENTRE,ANDREW STREET,EAST KILBRIDE,GLASGOW,LANARKSHIRE,G74 1AD,19750801,,01355 271080,4
S63264,HUNTERGREEN MEDICAL PRACTICE,HUNTER HEALTH CENTRE,ANDREW STREET,EAST KILBRIDE,GLASGOW,LANARKSHIRE,G74 1AD,19700801,,01355 578030,4
S63279,"DR I A HATHORN,PARTNERS",GREENHILLS HEALTH CENTRE,20 GREENHILLS SQUARE,EAST KILBRIDE,GLASGOW,LANARKSHIRE,G75 8TT,19870801,,01355 236331,4
S63283,DRS SIMMONS/COOPER,HUNTER HEALTH CENTRE,ANDREW STREET,EAST KILBRIDE,GLASGOW,LANARKSHIRE,G74 1AD,19750601,,01355 906644,4
S63298,CALDERGLEN MEDICAL PRACTICE,HUNTER HEALTH CENTRE,ANDREW STREET,EAST KILBRIDE,GLASGOW,LANARKSHIRE,G74 1AD,19830801,,01355 572770,4
S63301,"DR T M BONNES,PARTNERS",THE MURRAY SURGERY,50 THE MURRAY ROAD,EAST KILBRIDE,GLASGOW,LANARKSHIRE,G75 0RT,19821201,,01355 225374,4
S63315,STRATHMORE SURGERY,ALISON LEA MEDICAL CENTRE,"POLLOCK LANE,CALDERWOOD",EAST KILBRIDE,GLASGOW,LANARKSHIRE,G74 3HW,19931201,,01355 578065,4
S63320,DR H MCNEIL,ALISON LEA MEDICAL CENTRE,"POLLOCK LANE,CALDERWOOD",EAST KILBRIDE,GLASGOW,LANARKSHIRE,G74 3HW,19931201,,01355 261666,4
S63334,AUCHINRAITH MEDICAL PRACTICE,BLANTYRE HEALTH CENTRE,64 VICTORIA STREET,BLANTYRE,GLASGOW,LANARKSHIRE,G72 0BS,19990801,,01698 823260,4
S63419,BURNBANK MEDICAL CENTRE,18 BURNBANK CENTRE,,,HAMILTON,LANARKSHIRE,ML3 0NQ,19861027,,01698 286555,4
S63423,"DR M M HERBERT,PARTNERS",PORTLAND PARK MEDICAL CENTRE,51 PORTLAND PARK,,HAMILTON,LANARKSHIRE,ML3 7JY,19800401,,01698 284353,4
S63438,WELLHALL MEDICAL CENTRE,4 HILLHOUSE ROAD,,,HAMILTON,LANARKSHIRE,ML3 9TZ,19751201,,01698 285818,4
S63442,OAK LODGE,32 MILLER STREET,,,HAMILTON,LANARKSHIRE,ML3 7EN,19790401,,01698 282350,4
S63457,"DR WM YOUNG,PARTNERS",1 DOUGLAS STREET,,,HAMILTON,LANARKSHIRE,ML3 0DR,19840801,,01698 286262,4
S63461,"DR K G IRVINE,PARTNERS",53 BURNBANK ROAD,,,HAMILTON,LANARKSHIRE,ML3 9AQ,19720401,,01698 281407,4
S63476,"DR SL RUSSELL,PARTNERS",CADZOW HEALTH CENTRE,187 LOW WATERS ROAD,,HAMILTON,LANARKSHIRE,ML3 7QQ,19810119,,01698 327028,4
S63481,"DR JM SIMPSON,PARTNERS",LOW WATERS MEDICAL CENTRE,11 MILL ROAD,,HAMILTON,LANARKSHIRE,ML3 8AA,19711101,,01698 283626,4
S63495,HAMILTON HOMELESS PROJECT,BLANTYRE HEALTH CENTRE,64 VICTORIA STREET,BLANTYRE,GLASGOW,LANARKSHIRE,G72 0BS,20020510,,01698 723253,0
S63508,"DR MEGGS,PARTNERS",ALISON LEA MEDICAL CENTRE,CALDERWOOD,EAST KILBRIDE,GLASGOW,LANARKSHIRE,G74 3HW,20030406,,01355 578009,4
S63512,DR N BALKRISHNA,4-6 GALLOWHILL,,,LARKHALL,LANARKSHIRE,ML9 1EX,19900401,,01698 884082,4
S63527,THE SURGERY,75 UNION STREET,,,LARKHALL,LANARKSHIRE,ML9 1DZ,19710701,,01698 882105,4
S63531,DR PT DEEHAN,ALISON LEA MEDICAL CENTRE,CALDERWOOD,EAST KILBRIDE,GLASGOW,LANARKSHIRE,G74 3HW,20030406,,01355 227220,4
S63546,MACINNES MEDICAL CENTRE,60/64 HIGH STREET,NEWARTHILL,,MOTHERWELL,LANARKSHIRE,ML1 5JU,20050411,,01698 860246,4
S63616,THE AVON MEDICAL CENTRE,1 ACADEMY STREET,,,LARKHALL,LANARKSHIRE,ML9 2BJ,19810801,,0844 4770931,4
S63724,STRATHAVEN MEDICAL PRACTICE,STRATHAVEN HEALTH CENTRE,THE WARD,,STRATHAVEN,LANARKSHIRE,ML10 6AS,19910429,,01357 522993,4
S63739,AVONDALE MEDICAL PRACTICE,STRATHAVEN MEDICAL CENTRE,THE WARD,,STRATHAVEN,LANARKSHIRE,ML10 6AS,19910429,,01357 529595,4
S63813,LINCLUDEN SURGERY,53 BELLSHILL ROAD,UDDINGSTON,,GLASGOW,LANARKSHIRE,G71 7PA,19820901,,01698 813873,4
S63828,OLD MILL SURGERY,VIEWPARK HEALTH CENTRE,119 BURNHEAD STREET,"VIEWPARK,UDDINGSTON",GLASGOW,LANARKSHIRE,G71 5SU,19800201,,01698 815111,4
S63832,VIEWPARK HEALTH CENTRE,119 BURNHEAD STREET,VIEWPARK,UDDINGSTON,GLASGOW,LANARKSHIRE,G71 5RR,19880402,,01698 813753,4
S63902,CALDER VALLEY SURGERY,WISHAW HEALTH CENTRE,KENILWORTH AVENUE,,WISHAW,LANARKSHIRE,ML2 7BQ,20120401,,01698 356420,4
S63917,MEDWYN MEDICAL PRACTICE,THE HEALTH CENTRE,7 BIGGAR ROAD,CARNWATH,LANARK,LANARKSHIRE,ML11 8HJ,20140122,,01555 840214,4
S64002,LANARK PRIMARY CARE OOH CENTRE,LANARK HEALTH CENTRE,WOODSTOCK MEDICAL CAMPUS,WOODSTOCK ROAD,LANARK,LANARKSHIRE,ML11 7DH,20041001,,01555 667188,2
S64017,CUMBERNAULD PRIMARY CARE OOH CENTRE,CENTRAL HEALTH CENTRE,NORTH CARBRAIN ROAD,CUMBERNAULD,GLASGOW,LANARKSHIRE,G67 1BJ,20041001,,01236 458 97,2
S64021,WISHAW PRIMARY CARE OOH CENTRE,WISHAW GENERAL HOSPITAL,50 NETHERTON STREET,,WISHAW,LANARKSHIRE,ML2 0DP,20041001,,01698 366428,2
S64036,HAIRMYRES PRIMARY CARE OOH CENTRE,HAIRMYRES HOSPITAL,EAGLESHAM ROAD,EAST KILBRIDE,GLASGOW,LANARKSHIRE,G75 8RG,20041001,,01355 584 74,2
S64041,MONKLANDS PRIMARY CARE OOH CENTRE,MONKLANDS HOSPITAL,MONKSCOURT AVENUE,,AIRDRIE,LANARKSHIRE,ML6 0JS,20041001,,01236 713352,2
S65804,PHARMORE PLUS,40-42 GRAHAM STREET,,,AIRDRIE,LANARKSHIRE,ML6 6BU,20081009,,01236 762094,2
S65908,DTTO CLINIC,REGENT HOUSE,9 HIGH PATRICK STREET,,HAMILTON,LANARKSHIRE,ML3 7ES,20061106,,01698 452 80,0
S65912,SAME DAY CLINIC,MOTHERWELL HEALTH CENTRE,138-144 WINDMILL STREET,,MOTHERWELL,LANARKSHIRE,ML1 1TB,20040401,,01698 242610,0
S65931,LANARKSHIRE CENTRAL CLINIC,BLANTYRE HEALTH CENTRE,VICTORIA STREET,BLANTYRE,GLASGOW,LANARKSHIRE,G72 0BS,20001101,,,0
S70003,FERRY ROAD SURGERY,651 FERRY ROAD,,,EDINBURGH,MIDLOTHIAN,EH4 2TX,19780717,20070701,0131 332 613,4
S70018,DR DONALD JM ALLAN,31 EYRE CRESCENT,,,EDINBURGH,MIDLOTHIAN,EH3 5EU,19740801,20070831,0131 556 884,4
S70022,BANGHOLM MEDICAL CENTRE (WHITE PRACTICE),BANGHOLM LOAN,,,EDINBURGH,MIDLOTHIAN,EH5 3AH,19850325,,0131 552 636,4
S70037,"DRS AYLES,RIGG,MCCULLOCH",HERMITAGE MEDICAL PRACTICES,5-6 HERMITAGE TERRACE,,EDINBURGH,MIDLOTHIAN,EH10 4RP,19870601,,0131 447 627,4
S70041,SMOKING CESSATION CLINIC,LEITH COMMUNITY TREATMENT CENTRE,12 JUNCTION PLACE,,EDINBURGH,MIDLOTHIAN,EH6 5JA,20041004,,,0
S70061,REDFORD BARRACKS MEDICAL CENTRE,EDINBURGH MEDICAL CENTRE,COLINTON ROAD,,EDINBURGH,MIDLOTHIAN,EH13 0PP,20110520,,0131 310 547,0
S70075,BRAIDS MEDICAL PRACTICE,6 CAMUS AVENUE,,,EDINBURGH,MIDLOTHIAN,EH10 6QT,19820803,,0131 445 599,4
S70094,THE GREEN PRACTICE,STOCKBRIDGE HEALTH CENTRE,1 INDIA PLACE,,EDINBURGH,MIDLOTHIAN,EH3 6EH,19800401,,0131 260 922,4
S70107,LEVEN MEDICAL PRACTICE,TOLLCROSS HEALTH CENTRE,PONTON STREET,,EDINBURGH,MIDLOTHIAN,EH3 9QQ,19820901,,0131 536 970,4
S70111,"PARKGROVE,EAST CRAIGS MEDICAL CENTRE",10 BUGHTLIN MARKET,EAST CRAIGS,,EDINBURGH,MIDLOTHIAN,EH12 8XP,19850301,,0131 339 667,4
S70126,SOUTHFIELD MEDICAL PRACTICE,132 MOUNTCASTLE DRIVE SOUTH,,,EDINBURGH,MIDLOTHIAN,EH15 3LL,19900401,,0131 549 734,4
S70131,COLINTON SURGERY,296B COLINTON ROAD,,,EDINBURGH,MIDLOTHIAN,EH13 0LB,19760901,,0131 441 455,4
S70164,FERNIEHILL SURGERY,8 FERNIEHILL ROAD,,,EDINBURGH,MIDLOTHIAN,EH17 7AB,19750801,,0131 664 216,4
S70179,LEITH WALK SURGERY,60 LEITH WALK,,,EDINBURGH,MIDLOTHIAN,EH6 5HB,19861201,,0131 554 647,4
S70198,NIDDRIE MEDICAL PRACTICE,CRAIGMILLAR MEDICAL CENTRE,106 NIDDRIE MAINS ROAD,,EDINBURGH,MIDLOTHIAN,EH16 4DT,20140101,,0131 536 959,4
S70215,CRAIGMILLAR MEDICAL GROUP,CRAIGMILLAR MEDICAL CENTRE,106 NIDDRIE MAINS ROAD,,EDINBURGH,MIDLOTHIAN,EH16 4DT,19820802,,0131 536 950,4
S70220,LADYWELL MEDICAL CENTRE (WEST),LADYWELL ROAD,,,EDINBURGH,MIDLOTHIAN,EH12 7TB,19760401,,0131 334 360,4
S70234,THE LONG HOUSE SURGERY,THE LONG HOUSE,73 EAST TRINITY ROAD,,EDINBURGH,MIDLOTHIAN,EH5 3EL,19760801,,0131 552 491,4
S70253,WHINPARK MEDICAL PRACTICE,WHIN PARK MEDICAL CENTRE,6 SAUGHTON ROAD,,EDINBURGH,MIDLOTHIAN,EH11 3RA,19801001,,0131 455 799,4
S70268,BRUNTON PLACE SURGERY,9 BRUNTON PLACE,,,EDINBURGH,MIDLOTHIAN,EH7 5EG,19821101,,0131 557 554,4
S70272,"DR ANNE G STEVENSON,PARTNERS",BANGHOLM MEDICAL CENTRE,BANGHOLM LOAN,,EDINBURGH,MIDLOTHIAN,EH5 3AH,19850401,,0131 552 767,4
S70287,HERMITAGE MEDICAL PRACTICE,5-6 HERMITAGE TERRACE,,,EDINBURGH,MIDLOTHIAN,EH10 4RP,19751201,20060406,0131 447 627,4
S70291,INCHPARK SURGERY,10 MARMION CRESCENT,,,EDINBURGH,MIDLOTHIAN,EH16 5QU,19760801,,0131 666 212,4
S70319,WEST END MEDICAL PRACTICE,36 MANOR PLACE,,,EDINBURGH,MIDLOTHIAN,EH3 7EB,19761001,,0131 225 522,4
S70323,BRUNTSFIELD MEDICAL PRACTICE,11 FORBES ROAD,,,EDINBURGH,MIDLOTHIAN,EH10 4EY,19760101,,0131 228 608,4
S70338,LUCS RHSC,9 SCIENNES ROAD,,,EDINBURGH,MIDLOTHIAN,EH9 1LF,20101006,,0131 537 915,2
S70342,DR PETER JP HOLLAND,31 EYRE CRESCENT,,,EDINBURGH,MIDLOTHIAN,EH3 5EU,19790701,20090331,0131 556 884,4
S70357,INVERLEITH MEDICAL PRACTICE,43 INVERLEITH ROW,,,EDINBURGH,MIDLOTHIAN,EH3 5PY,19900401,,0131 552 336,4
S70361,LADYWELL MEDICAL CENTRE (EAST),26 FEATHERHALL AVENUE,,,EDINBURGH,MIDLOTHIAN,EH12 7UN,19770101,,0131 334 500,4
S70376,LIBERTON MEDICAL GROUP,65 LIBERTON GARDENS,,,EDINBURGH,MIDLOTHIAN,EH16 6JT,19840409,,0131 664 305,4
S70381,MACKENZIE MEDICAL CENTRE,20 WEST RICHMOND STREET,,,EDINBURGH,MIDLOTHIAN,EH8 9DX,19750801,,0131 667 295,4
S70408,"DR WILSON,PARTNERS",STOCKBRIDGE HEALTH CENTRE,1 INDIA PLACE,,EDINBURGH,MIDLOTHIAN,EH3 6EH,19791001,,0131 225 919,4
S70412,GRANGE MEDICAL GROUP,1 BEAUFORT ROAD,,,EDINBURGH,MIDLOTHIAN,EH9 1AG,19800201,,0131 447 164,4
S70427,MILTON SURGERY,132 MOUNTCASTLE DRIVE SOUTH,,,EDINBURGH,MIDLOTHIAN,EH15 3LL,19721101,,0131 549 730,4
S70451,MEADOWS MEDICAL PRACTICE,9 BROUGHAM PLACE,,,EDINBURGH,MIDLOTHIAN,EH3 9HW,19830801,,0131 229 770,4
S70470,DALKEITH ROAD MEDICAL PRACTICE,145 DALKEITH ROAD,,,EDINBURGH,MIDLOTHIAN,EH16 5HQ,19860602,,0131 667 128,4
S70499,"DR GRAY,PARTNERS",BELLEVUE MEDICAL CENTRE,26 HUNTINGDON PLACE,,EDINBURGH,MIDLOTHIAN,EH7 4AT,19900401,,0131 556 819,4
S70501,MURRAYFIELD MEDICAL PRACTICE,13B RIVERSDALE CRESCENT,,,EDINBURGH,MIDLOTHIAN,EH12 5QX,19800901,,0131 337 615,4
S70516,GRACEMOUNT MEDICAL PRACTICE,24 GRACEMOUNT DRIVE,,,EDINBURGH,MIDLOTHIAN,EH16 6RN,19890201,,0131 664 237,4
S70521,"DR MARTIN TOLLEY,PARTNERS",BELLEVUE MEDICAL CENTRE,26 HUNTINGDON PLACE,,EDINBURGH,MIDLOTHIAN,EH7 4AT,19890301,,0131 556 264,4
S70535,BLACKHALL MEDICAL CENTRE,51 HILLHOUSE ROAD,,,EDINBURGH,MIDLOTHIAN,EH4 3TH,19840401,,0131 332 769,4
S70569,RESTALRIG PARK MEDICAL CENTRE,40 ALEMOOR CRESCENT,,,EDINBURGH,MIDLOTHIAN,EH7 6UJ,19820801,,0131 454 211,0
S70573,CREWE MEDICAL CENTRE,135 BOSWALL PARKWAY,,,EDINBURGH,MIDLOTHIAN,EH5 2LY,19810901,,0131 552 554,4
S70588,THE SOUTHERN MEDICAL GROUP,322 GILMERTON ROAD,,,EDINBURGH,MIDLOTHIAN,EH17 7PR,19850801,,0131 664 214,4
S70592,UNIVERSITY HEALTH SERVICE,6 BRISTO SQUARE,,,EDINBURGH,MIDLOTHIAN,EH8 9AL,19871001,,0131 650 277,4
S70605,DURHAM ROAD MEDICAL GROUP,25 DURHAM ROAD,,,EDINBURGH,MIDLOTHIAN,EH15 1NY,19691001,,0131 669 115,4
S70610,CRAIGLOCKHART MEDICAL GROUP,CRAIGLOCKHART SURGERY,161 COLINTON ROAD,,EDINBURGH,MIDLOTHIAN,EH14 1BE,19780801,,0131 455 849,4
S70639,"DR L TAYLOR,PARTNERS",CONAN DOYLE MEDICAL CENTRE,4 NETHER LIBERTON LANE,,EDINBURGH,MIDLOTHIAN,EH16 5TY,19840101,,0131 666 516,4
S70643,"DRS DONALDSON,MORRIS,LARKIN",HERMITAGE MEDICAL PRACTICE,5-6 HERMITAGE TERRACE,,EDINBURGH,MIDLOTHIAN,EH10 4RP,19880101,,0131 447 627,4
S70658,THE BARONSCOURT MEDICAL PARTNERSHIP,89 NORTHFIELD BROADWAY,,,EDINBURGH,MIDLOTHIAN,EH8 7RX,19821001,,0131 657 544,4
S70662,MUIRHOUSE MEDICAL GROUP,MUIRHOUSE MEDICAL CENTRE,1 MUIRHOUSE AVENUE,,EDINBURGH,MIDLOTHIAN,EH4 4PL,19800901,,0131 537 434,4
S70677,"DR J W PATERSON,PARTNERS",LINKS MEDICAL CENTRE,4 HERMITAGE PLACE,,EDINBURGH,MIDLOTHIAN,EH6 8BW,19790901,,0131 554 103,4
S70696,ROSE GARDEN MEDICAL CENTRE,4 MILL LANE,,,EDINBURGH,MIDLOTHIAN,EH6 6TL,19900401,20140331,0131 5541274,4
S70709,DAVIDSON'S MAINS MEDICAL CENTRE,5 QUALITY STREET,DAVIDSONS MAINS,,EDINBURGH,MIDLOTHIAN,EH4 5BP,19900401,,0131 336 229,4
S70732,BOROUGHLOCH MEDICAL PRACTICE,1 MEADOW PLACE,,,EDINBURGH,MIDLOTHIAN,EH9 1JZ,19900401,20140727,0131 2297529,4
S70747,SUMMERSIDE MEDICAL PRACTICE,SUMMERSIDE MEDICAL CENTRE,29B SUMMERSIDE PLACE,,EDINBURGH,MIDLOTHIAN,EH6 4NY,19720401,,0131 554 353,4
S70766,MARCHMONT MEDICAL PRACTICE,10 WARRENDER PARK TERRACE,,,EDINBURGH,MIDLOTHIAN,EH9 1JA,19890101,,0131 229 631,4
S70785,ST TRIDUANA'S MEDICAL PRACTICE,ST TRIDUANAS MEDICAL PRACTICE,54 MOIRA PARK,,EDINBURGH,MIDLOTHIAN,EH7 6RU,19800801,,0131 657 334,4
S70790,MORNINGSIDE MEDICAL PRACTICE,2 MORNINGSIDE PLACE,,,EDINBURGH,MIDLOTHIAN,EH10 5ER,19780101,,0131 452 840,4
S70841,ST LEONARD'S MEDICAL CENTRE,145 PLEASANCE,,,EDINBURGH,MIDLOTHIAN,EH8 9RU,19910101,,0131 668 454,4
S70860,NEWINGTON SURGERY,14 EAST PRESTON STREET,,,EDINBURGH,MIDLOTHIAN,EH8 9QA,19920624,20140430,0131 6624400,4
S70893,SOUTHSIDE SURGERY,17 BERNARD TERRACE,,,EDINBURGH,MIDLOTHIAN,EH8 9NU,19930501,,0131 667 224,4
S70906,"DRS SHARPE,PUTTA,BURNS PRACTICE",SIGHTHILL HEALTH CENTRE,CALDER ROAD,,EDINBURGH,MIDLOTHIAN,EH11 4AU,19940101,,0131 537 704,4
S70911,SIGHTHILL GREEN MEDICAL PRACTICE,SIGHTHILL HEALTH CENTRE,CALDER ROAD,,EDINBURGH,MIDLOTHIAN,EH11 4AU,19940101,,0131 537 706,4
S70925,RICCARTON GENERAL PRACTICE,HERIOT-WATT UNIVERSITY MEDICAL CTR,RICCARTON,,CURRIE,MIDLOTHIAN,EH14 4AS,19941001,,0131 451 301,4
S70930,THE PENTLANDS MEDICAL PRACTICE,PENTLAND MEDICAL CENTRE,44 PENTLAND VIEW,,CURRIE,MIDLOTHIAN,EH14 5QB,19941001,,0131 449 214,4
S70959,DR GUY JOHNSON AND DR HELGA RHEIN,SIGHTHILL HEALTH CENTRE,CALDER ROAD,,EDINBURGH,MIDLOTHIAN,EH11 4AU,19950101,,0131 537 703,4
S70963,EDINBURGH ACCESS PRACTICE,THE ACCESS POINT,17-25 LEITH STREET,,EDINBURGH,MIDLOTHIAN,EH1 3AT,19950301,,0131 240 281,0
S70978,WESTER HAILES MEDICAL PRACTICE,WESTER HAILES HEALTHY LIVING CENTRE,30 HARVESTERS WAY,,EDINBURGH,MIDLOTHIAN,EH14 3JF,19950401,,0131 453 925,0
S70982,THE VICTORIA PRACTICE,LEITH COMMUNITY TREATMENT CENTRE,12 JUNCTION PLACE,,EDINBURGH,MIDLOTHIAN,EH6 5JA,20140401,,0131 465 295,4
S70997,SLATEFORD MEDICAL PRACTICE,27 GORGIE PARK CLOSE,,,EDINBURGH,MIDLOTHIAN,EH14 1NQ,19950701,,0131 442 870,4
S71011,POLWARTH SURGERY,72 POLWARTH GARDENS,,,EDINBURGH,MIDLOTHIAN,EH11 1LL,19970401,,0131 229 591,4
S71025,MURRAYFIELD MEDICAL CENTRE,35 SAUGHTON CRESCENT,,,EDINBURGH,MIDLOTHIAN,EH12 5SS,19970401,,0131 337 216,4
S71059,THE GROUP PRACTICE - EYRE,31 EYRE CRESCENT,,,EDINBURGH,MIDLOTHIAN,EH3 5EU,19990401,20070831,0131 556 884,4
S71082,SPRINGWELL MEDICAL GROUP,SPRINGWELL MEDICAL CENTRE,39 ARDMILLAN TERRACE,,EDINBURGH,MIDLOTHIAN,EH11 2JL,19990701,,0844 477 871,4
S71097,THE FIRRHILL MEDICAL CENTRE,167 COLINTON MAINS DRIVE,,,EDINBURGH,MIDLOTHIAN,EH13 9AF,20020110,,0131 441 311,4
S71114,LEITH MOUNT SURGERY,2 LINDSAY STREET,,,EDINBURGH,MIDLOTHIAN,EH6 4EG,20020401,,0131 554 295,4
S71129,CRAMOND MEDICAL PRACTICE,2 CRAMOND GLEBE ROAD,,,EDINBURGH,MIDLOTHIAN,EH4 6NS,20020401,,0131 336 543,4
S71171,CHALLENGING BEHAVIOUR GENERAL PRACTICE,BOROUGHLOCH MEDICAL PRACTICE,1 MEADOW PLACE,,EDINBURGH,MIDLOTHIAN,EH9 1JZ,20040401,,0131 229 752,0
S71203,LUCS WGH,4TH FLOOR OUT PATIENT DEPARTMENT,WESTERN GENERAL HOSPITAL,CREWE ROAD SOUTH,EDINBURGH,MIDLOTHIAN,EH4 2XU,20041001,,,2
S71218,LUCS RIE,THE ROYAL INFIRMARY OF EDINBURGH,51 LITTLE FRANCE CRESCENT,,EDINBURGH,MIDLOTHIAN,EH16 4SA,20041001,,,2
S71222,GILMORE MEDICAL PRACTICE,TOLLCROSS HEALTH CENTRE,PONTON STREET,,EDINBURGH,MIDLOTHIAN,EH3 9QQ,20050401,,0131 536 980,4
S71237,ROYAL BLIND SCHOOL,CRAIGMILLAR CAMPUS,CRAIGMILLAR PARK,,EDINBURGH,MIDLOTHIAN,EH16 5NA,20050523,20130516,0131 667 110,4
S71241,"DRUG TREATMENT,TESTING ORDER",LOMOND HOUSE,BEVERIDGE SQUARE,,LIVINGSTON,WEST LOTHIAN,EH54 6QF,20050530,20090720,0131 221 583,0
S71256,THE GROUP PRACTICE - EYRE,31 EYRE CRESCENT,,,EDINBURGH,MIDLOTHIAN,EH3 5EU,20070901,20090331,0131 556 884,4
S71261,SWE LOCALITY CLINIC,SIGHTHILL HEALTH CENTRE,CALDER ROAD,,EDINBURGH,MIDLOTHIAN,EH11 4AU,20080205,,,0
S71326,THE GROUP PRACTICE - EYRE,31 EYRE CRESCENT,,,EDINBURGH,MIDLOTHIAN,EH3 5EU,20090401,,0131 556 884,4
S71350,PRIMARY CARE A&E SERVICES,EDINBURGH CHP,"ST ROQUE,ASTLEY AINSLIE HOSPITAL",133 GRANGE LOAN,EDINBURGH,MIDLOTHIAN,EH9 2HL,20091110,20111201,0131 537 951,4
S71364,MILL LANE SURGERY,ROSE GARDEN MEDICAL CENTRE,4 MILL LANE,,EDINBURGH,MIDLOTHIAN,EH6 6TL,20140401,,0131 554 127,4
S71379,BOROUGHLOCH MEDICAL PRACTICE,1 MEADOW PLACE,,,EDINBURGH,MIDLOTHIAN,EH9 1JZ,20140728,,0131 2297529,4
S76000,TYNE MEDICAL PRACTICE,NEWTON PORT SURGERY,NEWTON PORT,,HADDINGTON,EAST LOTHIAN,EH41 3NF,19810801,,01620 823183,4
S76029,GULLANE MEDICAL PRACTICE,GULLANE MEDICAL CENTRE,HAMILTON ROAD,,GULLANE,EAST LOTHIAN,EH31 2HP,19900401,,01620 842171,4
S76033,RIVERSIDE MEDICAL PRACTICE,MUSSELBURGH PRIMARY CARE CENTRE,INVERESK ROAD,,MUSSELBURGH,MIDLOTHIAN,EH21 7BP,19850801,,0131 446 417,4
S76048,ESKBRIDGE MEDICAL PRACTICE,MUSSELBURGH PRIMARY CARE CENTRE,INVERESK ROAD,,MUSSELBURGH,MIDLOTHIAN,EH21 7BP,19751101,,0131 446 403,4
S76052,THE HARBOURS MEDICAL PRACTICE,THE HEALTH CENTRE,AVENUE ROAD,COCKENZIE,PRESTONPANS,EAST LOTHIAN,EH32 0JU,19731001,,01875 811501,4
S76067,TRANENT MEDICAL PRACTICE,TRANENT HEALTH CENTRE,LOCH ROAD,,TRANENT,EAST LOTHIAN,EH33 2JX,19711001,20090331,01875 610697,4
S76071,LAMMERMUIR MEDICAL PRACTICE,NEWTON PORT SURGERY,NEWTON PORT,,HADDINGTON,EAST LOTHIAN,EH41 3NF,19780201,,0162 082 505,4
S76086,WHITESANDS MEDICAL PRACTICE,DUNBAR MEDICAL CENTRE,QUEENS ROAD,,DUNBAR,EAST LOTHIAN,EH42 1EE,19861001,,01368 863226,4
S76103,THE ORCHARD MEDICAL PRACTICE,NEWTON PORT SURGERY,NEWTON PORT,,HADDINGTON,EAST LOTHIAN,EH41 3NF,19790701,,01620 825497,4
S76122,PRESTONPANS GROUP PRACTICE,PRESTONPANS HEALTH CENTRE,PRESTON ROAD,,PRESTONPANS,EAST LOTHIAN,EH32 9QS,19790401,,01875 810736,4
S76137,NORTH BERWICK GROUP PRACTICE,54 ST. BALDREDS ROAD,,,NORTH BERWICK,EAST LOTHIAN,EH39 4PU,19800101,,01620 892169,4
S76141,INVERESK MEDICAL PRACTICE,MUSSELBURGH PRIMARY CARE CENTRE,INVERESK ROAD,,MUSSELBURGH,MIDLOTHIAN,EH21 7BP,19820501,,0131 446 400,4
S76161,LAUDERDALE MEDICAL PRACTICE,DUNBAR MEDICAL CENTRE,QUEENS ROAD,,DUNBAR,EAST LOTHIAN,EH42 1EE,19901228,,01368 861435,4
S76180,CROMWELL HARBOUR MEDICAL PRACTICE,DUNBAR MEDICAL CENTRE,QUEENS ROAD,,DUNBAR,EAST LOTHIAN,EH42 1EE,20030701,,01368 861401,4
S76194,EAST LINTON SURGERY,THE SURGERY,STATION ROAD,,EAST LINTON,EAST LOTHIAN,EH40 3DP,20030701,,01620 860204,4
S76207,LUCS ROODLANDS,OUT-PATIENTS DEPT,ROODLANDS HOSPITAL,HOSPITAL ROAD,HADDINGTON,EAST LOTHIAN,EH41 3PF,20041001,,,2
S76211,ORMISTON MEDICAL PRACTICE,SPRINTY DRIVE,ORMISTON,,TRANENT,EAST LOTHIAN,EH35 5LP,20090401,,01875 610248,4
S76226,TRANENT MEDICAL PRACTICE,THE HEALTH CENTRE,LOCH ROAD,,TRANENT,EAST LOTHIAN,EH33 2JX,20090401,,01875 610697,4
S77036,EASTFIELD MEDICAL PRACTICE,EASTFIELD FARM ROAD,,,PENICUIK,MIDLOTHIAN,EH26 8EZ,19761101,,01968 675576,4
S77055,DALHOUSIE MEDICAL PRACTICE,THE HEALTH CENTRE,109-111 HIGH STREET,,BONNYRIGG,MIDLOTHIAN,EH19 2ET,19791029,,0131 537 984,4
S77060,DR STANLEY A MOONSAWMY,THE SURGERY,110 MAYBURN AVENUE,,LOANHEAD,MIDLOTHIAN,EH20 9HB,19731201,20140518,0131 4400593,4
S77074,QUARRYFOOT PRACTICE,HEALTH CENTRE,109-111 HIGH STREET,,BONNYRIGG,MIDLOTHIAN,EH19 2ET,19720701,,0131 537 982,4
S77089,RATHO SURGERY,11 BAIRD ROAD,RATHO,,NEWBRIDGE,MIDLOTHIAN,EH28 8RA,19850501,,0131 333 106,0
S77093,ROSLIN MEDICAL PRACTICE,122 PENICUIK ROAD,,,ROSLIN,MIDLOTHIAN,EH25 9NT,19821001,,0131 440 204,4
S77106,NEWBATTLE MEDICAL PRACTICE,BLACKCOT,MAYFIELD,,DALKEITH,MIDLOTHIAN,EH22 4AA,19740401,,0131 663 105,4
S77111,PENICUIK MEDICAL PRACTICE,THE HEALTH CENTRE,37 IMRIE PLACE,,PENICUIK,MIDLOTHIAN,EH26 8LF,19810801,,01968 672612,4
S77125,PATHHEAD MEDICAL PRACTICE,PATHHEAD MEDICAL CENTRE,210 MAIN STREET,,PATHHEAD,MIDLOTHIAN,EH37 5PP,19830201,,01875 320302,4
S77159,NEWBYRES MEDICAL GROUP,15 HUNTERFIELD ROAD,,,GOREBRIDGE,MIDLOTHIAN,EH23 4TP,19901001,,01875 820405,4
S77197,DALKEITH MEDICAL PRACTICE,THE HEALTH CENTRE,24-26 ST. ANDREW STREET,,DALKEITH,MIDLOTHIAN,EH22 1AP,20011001,,0131 561 550,4
S77200,DANDERHALL MEDICAL PRACTICE,THE ROBERTSON MEDICAL CENTRE,85 NEWTON CHURCH ROAD,DANDERHALL,DALKEITH,MIDLOTHIAN,EH22 1LX,20011001,,0131 654 107,4
S77248,STRATHESK MEDICAL GROUP,109-111 HIGH STREET,,,BONNYRIGG,MIDLOTHIAN,EH19 2ET,20030901,20100331,0131 537 997,4
S77252,LUCS BONNYRIGG,THE HEALTH CENTRE,33-37 HIGH STREET,,BONNYRIGG,MIDLOTHIAN,EH19 2DA,20041001,,,2
S77271,STRATHESK MEDICAL GROUP,HEALTH CENTRE,109-111 HIGH STREET,,BONNYRIGG,MIDLOTHIAN,EH19 2ET,20100401,,0131 537 997,4
S77286,"LOANHEAD PRACTICE,SUTHERLAND HOUSE",209 MAYBURN AVENUE,,,LOANHEAD,MIDLOTHIAN,EH20 9ER,20100401,,0131 440 014,4
S78010,CARMONDEAN MEDICAL GROUP,CARMONDEAN CENTRE,,,LIVINGSTON,WEST LOTHIAN,EH54 8PY,19790205,,01506 836300,4
S78024,EAST CALDER MEDICAL PRACTICE,EAST CALDER HEALTH CENTRE,147 MAIN STREET,EAST CALDER,LIVINGSTON,WEST LOTHIAN,EH53 0EW,19831017,,01506 882882,4
S78043,BREICH VALLEY MEDICAL PRACTICE,FAULDHOUSE PARTNERSHIP CENTRE,LANRIGG ROAD,FAULDHOUSE,BATHGATE,WEST LOTHIAN,EH47 9JD,19820801,,01501 773020,4
S78062,FERGUSON MEDICAL PRACTICE,THE STRATHBROCK PARTNERSHIP CENTRE,189A WEST MAIN STREET,,BROXBURN,WEST LOTHIAN,EH52 5LH,19741101,,01506 771700,4
S78077,NEWLAND MEDICAL PRACTICE,BATHGATE PRIMARY CARE CENTRE,WHITBURN ROAD,,BATHGATE,WEST LOTHIAN,EH48 2SS,19780101,,01506 655155,4
S78081,LUCS SJH,"OPD2,ST JOHNS HOSPITAL",HOWDEN ROAD WEST,,LIVINGSTON,WEST LOTHIAN,EH54 6PP,20041001,,,2
S78096,DR ALAN J GRANT,HEALTH CENTRE,FLEMING PLACE,BLACKRIDGE,BATHGATE,WEST LOTHIAN,EH48 3SS,19900401,20131031,01501 751238,4
S78109,BRAEHEAD MEDICAL PRACTICE,FAULDHOUSE PARTNERSHIP CENTRE,LANRIGG ROAD,FAULDHOUSE,BATHGATE,WEST LOTHIAN,EH47 9JD,19850801,,01501 773045,4
S78113,LINDEN MEDICAL PRACTICE,STRATHBROCK PARTNERSHIP CENTRE,189A WEST MAIN STREET,,BROXBURN,WEST LOTHIAN,EH52 5LH,19830606,,01506 771771,4
S78128,KINGSGATE MEDICAL PRACTICE,BATHGATE PRIMARY CARE CENTRE,WHITBURN ROAD,,BATHGATE,WEST LOTHIAN,EH48 2SS,19900401,,01506 653134,4
S78132,SIMPSON MEDICAL GROUP,BATHGATE PRIMARY CARE CENTRE,WHITBURN ROAD,,BATHGATE,WEST LOTHIAN,EH48 2SS,19870801,,01506 654444,4
S78147,WEST CALDER MEDICAL PRACTICE,WEST CALDER MEDICAL CENTRE,65 WEST END,,WEST CALDER,WEST LOTHIAN,EH55 8EJ,19810701,,01506 874300,4
S78151,KIRKLISTON MEDICAL PRACTICE,KIRKLISTON HEALTH CENTRE,THE GLEBE,,KIRKLISTON,WEST LOTHIAN,EH29 9AS,19760501,,0131 333 321,4
S78166,LINLITHGOW GROUP MEDICAL PRACTICE,LINLITHGOW HEALTH CENTRE,288 HIGH STREET,,LINLITHGOW,WEST LOTHIAN,EH49 7ER,19800801,,01506 670027,4
S78171,SOUTH QUEENSFERRY MEDICAL PRACTICE,41 THE LOAN,,,SOUTH QUEENSFERRY,WEST LOTHIAN,EH30 9HA,19750801,,0131 537 440,4
S78185,BLACKRIDGE HEALTH CENTRE,FLEMING PLACE,BLACKRIDGE,,BATHGATE,WEST LOTHIAN,EH48 3SS,20131101,,01501 751238,4
S78190,WHITBURN GROUP MEDICAL PRACTICE,WHITBURN HEALTH CENTRE,1 WEAVERS LANE,WHITBURN,BATHGATE,WEST LOTHIAN,EH47 0SD,19820801,,01501 740297,4
S78202,WINCHBURGH HEALTH CENTRE,NIDDRY ROAD,WINCHBURGH,,BROXBURN,WEST LOTHIAN,EH52 6RX,19820801,20050930,01506 890210,4
S78217,LINLITHGOW FAMILY PRACTICE,LINLITHGOW HEALTH CENTRE,288 HIGH STREET,,LINLITHGOW,WEST LOTHIAN,EH49 7ER,19900401,,01506 670036,4
S78221,DR F SHAH,CARMONDEAN CENTRE,,,LIVINGSTON,WEST LOTHIAN,EH54 8PY,19770601,20100630,0844 477 316,4
S78241,ARMADALE GROUP PRACTICE,18 NORTH STREET,ARMADALE,,BATHGATE,WEST LOTHIAN,EH48 3QB,19791101,,01501 730432,4
S78255,HOWDEN HEALTH CENTRE,HOWDEN ROAD WEST,,,LIVINGSTON,WEST LOTHIAN,EH54 6TP,19900401,,01506 423800,4
S78260,DEDRIDGE MEDICAL GROUP,DEDRIDGE HEALTH CENTRE,NIGEL RISE,DEDRIDGE,LIVINGSTON,WEST LOTHIAN,EH54 6QQ,19770801,,01506 414586,4
S78306,THE WOOD MEDICAL PRACTICE,THE STRATHBROCK PARTNERSHIP CENTRE,189A WEST MAIN STREET,,BROXBURN,WEST LOTHIAN,EH52 5LH,19950701,,01506 771800,4
S78311,THE CRAIGSHILL PARTNERSHIP,CRAIGSHILL HEALTH CENTRE,CRAIGSHILL ROAD,,LIVINGSTON,WEST LOTHIAN,EH54 5DY,19960101,,01506 432621,4
S78325,"DEANS,ELIBURN MEDICAL PRACTICE",CARMONDEAN CENTRE,,,LIVINGSTON,WEST LOTHIAN,EH54 8PY,19980501,,01506 836 33,4
S78330,ASHGROVE GROUP PRACTICE,ASHGROVE,BLACKBURN,,BATHGATE,WEST LOTHIAN,EH47 7LL,19980501,,01506 657130,4
S78344,MURIESTON MEDICAL PRACTICE,HAMILTON SQUARE,MURIESTON SOUTH,,LIVINGSTON,WEST LOTHIAN,EH54 9JZ,20031201,,01506 461464,4
S78359,WINCHBURGH MEDICAL PRACTICE,WINCHBURGH HEALTH CENTRE,NIDDRY ROAD,WINCHBURGH,BROXBURN,WEST LOTHIAN,EH52 6RX,20051001,,01506 890210,4
S78378,LINLITHGOW FAMILY PRACTICE,LINLITHGOW HEALTH CENTRE,288 HIGH STREET,,LINLITHGOW,WEST LOTHIAN,EH49 7ER,20140701,,01506 670036,4
S80005,SOUTH BEACH MEDICAL CENTRE,8 HARBOUR STREET,,,ARDROSSAN,AYRSHIRE,KA22 8BS,19750301,,01294 463011,4
S80010,CENTRAL AVENUE SURGERY,THE HEALTH CENTRE,6 CENTRAL AVENUE,,ARDROSSAN,AYRSHIRE,KA22 7DX,19830101,,01294 463838,4
S80043,CORNHILL SURGERY,KINCAIDSTON,,,AYR,AYRSHIRE,KA7 3YF,19900401,20051120,01292 264080,4
S80058,TAM'S BRIG SURGERY,107 NEW ROAD,,,AYR,AYRSHIRE,KA8 8DD,19770516,,01292 262697,4
S80062,THE SURGERY,9 ALLOWAY PLACE,,,AYR,AYRSHIRE,KA7 2AA,19810801,,01292 611835,4
S80077,DALBLAIR MEDICAL PRACTICE,56 DALBLAIR ROAD,,,AYR,AYRSHIRE,KA7 1UQ,19890101,,01292 267432,4
S80081,BARNS MEDICAL PRACTICE,40 DALBLAIR ROAD,,,AYR,AYRSHIRE,KA7 1UL,19730201,,01292 281439,4
S80096,RACECOURSE ROAD MEDICAL GROUP,3 RACECOURSE ROAD,,,AYR,AYRSHIRE,KA7 2DF,19810701,,01292 886622,4
S80109,THE CATHCART STREET MEDICAL PRACTICE,8 CATHCART STREET,,,AYR,AYRSHIRE,KA7 1BJ,19781201,,01292 264051,4
S80113,THE FULLARTON MEDICAL PRACTICE,40 DALBLAIR ROAD,,,AYR,AYRSHIRE,KA7 1UL,19730901,,01292 264260,4
S80128,3 ALLOWAY PLACE,ALLOWAY PLACE,,,AYR,AYRSHIRE,KA7 2AA,19840401,20051120,01292 610682,4
S80132,BALLANTRAE MEDICAL PRACTICE,30 MAIN STREET,BALLANTRAE,,GIRVAN,AYRSHIRE,KA26 0NB,19850801,,01465 831302,4
S80147,BEITH HEALTH CENTRE GP PRACTICE,BEITH HEALTH CENTRE,REFORM STREET,,BEITH,AYRSHIRE,KA15 2AE,19821101,,01505 502888,4
S80166,GLENCAIRN MEDICAL PRACTICE,CROSSHOUSE RESOURCE CENTRE,ANNANDALE GARDENS,CROSSHOUSE,KILMARNOCK,AYRSHIRE,KA2 0LE,19730101,,01563 521506,4
S80171,TANYARD MEDICAL PRACTICE,THE HEALTH CENTRE,2 TANYARD,,CUMNOCK,AYRSHIRE,KA18 1BF,19721023,,01290 421157,4
S80185,DRS MCFADYEN AND MALLOCH,THE SURGERY,7 BACK ROAD,DAILLY,GIRVAN,AYRSHIRE,KA26 9SH,19840901,,01465 811224,4
S80202,DALMELLINGTON MEDICAL PRACTICE,DALMELLINGTON AREA CENTRE,33 MAIN STREET,DALMELLINGTON,AYR,AYRSHIRE,KA6 7QL,19721201,,01292 550238,4
S80217,DALRY MEDICAL PRACTICE,THE HEALTH CENTRE,50 VENNEL STREET,,DALRY,AYRSHIRE,KA24 4AF,19800801,,01294 832523,4
S80255,DUNDONALD MEDICAL PRACTICE,9 MAIN STREET,DUNDONALD,,KILMARNOCK,AYRSHIRE,KA2 9HF,19690701,,01563 850496,4
S80260,GALSTON MEDICAL PRACTICE,5A HENRIETTA STREET,,,GALSTON,AYRSHIRE,KA4 8HW,19780808,,01563 820424,4
S80274,"DRS MCMASTER,MOORE,BROOKSBANK",GIRVAN COMMUNITY HOSPITAL,BRIDGEMILL,,GIRVAN,AYRSHIRE,KA26 9HQ,19881001,,01465 713 34,4
S80289,"DR MCCULLOCH,PARTNERS",GIRVAN COMMUNITY HOSPITAL,BRIDGEMILL,,GIRVAN,AYRSHIRE,KA26 9HQ,19820801,,01465 712281,4
S80293,THE SURGERY,2 ACADEMY STREET,HURLFORD,,KILMARNOCK,AYRSHIRE,KA1 5BU,19800701,20100730,01563 525314,4
S80306,BOURTREEHILL MEDICAL PRACTICE,THE HEALTH CENTRE,CHEVIOT WAY,BOURTREEHILL SOUTH,IRVINE,AYRSHIRE,KA11 1JU,19781101,,01294 211993,4
S80330,EGLINTON MEDICAL PRACTICE,THE CABINS,AYRSHIRE CENTRAL HOSPITAL,KILWINNING ROAD,IRVINE,AYRSHIRE,KA12 8SS,19820601,,01294 279178,4
S80344,TOWNHEAD SURGERY,6-8 HIGH STREET,,,IRVINE,AYRSHIRE,KA12 0AY,19760901,,01294 441 44,4
S80363,KILBIRNIE MEDICAL PRACTICE,KILBIRNIE HEALTH CENTRE,HEALTH CLINIC,2 KIRKLAND ROAD,KILBIRNIE,AYRSHIRE,KA25 6HS,19740901,,01505 683 59,4
S80378,LONDON ROAD MEDICAL PRACTICE,12 LONDON ROAD,,,KILMARNOCK,AYRSHIRE,KA3 7AE,19800601,,01563 523593,4
S80382,PORTLAND MEDICAL PRACTICE,34 PORTLAND ROAD,,,KILMARNOCK,AYRSHIRE,KA1 2DL,19840801,20100731,01563 522411,4
S80397,DR PUGH AND PARTNERS,THE SURGERY,31 PORTLAND ROAD,,KILMARNOCK,AYRSHIRE,KA1 2DJ,19830801,,01563 522118,4
S80400,THE WARDS MEDICAL CENTRE,25 DUNDONALD ROAD,,,KILMARNOCK,AYRSHIRE,KA1 1RU,19740101,,01563 526514,4
S80414,THE SURGERY,OLD IRVINE ROAD SURGERY,4-6 OLD IRVINE ROAD,,KILMARNOCK,AYRSHIRE,KA1 2BD,19800201,,01563 522413,4
S80429,AITKEN STREET,20 AITKEN STREET,,,LARGS,AYRSHIRE,KA30 8AU,19691001,20060702,01475 674544,4
S80433,10/14 FRAZER STREET,FRAZER STREET,,,LARGS,AYRSHIRE,KA30 9HP,19890201,20060702,01475 673380,4
S80467,"DR PATON,MUDUNIRI,VENKATACHALAPATHI",A&A COMMUNITY HEALTH CARE,MAYBOLE HEALTH CENTRE,6 HIGH STREET,MAYBOLE,AYRSHIRE,KA19 7BY,19790701,,01655 882278,4
S80491,"DRS WILSON,PARTNERS",THE SURGERY,THE HEALTH CENTRE,6 HIGH STREET,MAYBOLE,AYRSHIRE,KA19 7BY,19850101,,01655 882708,4
S80518,VALLEY MEDICAL PRACTICE,67 AFTON BRIDGEND,NEW CUMNOCK,,CUMNOCK,AYRSHIRE,KA18 4BA,19900401,,01290 338242,4
S80522,RIVERSIDE MEDICAL PRACTICE,1 DOONSIDE AVENUE,PATNA,,AYR,AYRSHIRE,KA6 7LX,19871001,,01292 532 50,4
S80537,STATION ROAD MEDICAL PRACTICE,2 STATION ROAD,,,PRESTWICK,AYRSHIRE,KA9 1AQ,19770815,,01292 671444,4
S80556,SALTCOATS GROUP PRACTICE,THE HEALTH CENTRE,17-19 RAISE STREET,,SALTCOATS,AYRSHIRE,KA21 5LX,19870701,,01294 605141,4
S80561,"DRS RAI,CHAN,RAI",37A THE LANE,,,SKELMORLIE,AYRSHIRE,PA17 5AR,19840301,,01475 520248,4
S80594,STEWARTON MEDICAL PRACTICE,THE HEALTH CENTRE,45 HIGH STREET,STEWARTON,KILMARNOCK,AYRSHIRE,KA3 5BP,19811001,,01560 482011,4
S80607,TEMPLEHILL SURGERY,23 TEMPLEHILL,,,TROON,AYRSHIRE,KA10 6BQ,19720401,,01292 312012,4
S80611,"DRS MCHATTIE,MCGREGOR,HOLLAND",PORTLAND SURGERY,1 DUKES ROAD,,TROON,AYRSHIRE,KA10 6QR,19870501,,01292 312489,4
S80626,101 MEDICAL PRACTICE,THE SURGERY,101 PORTLAND STREET,,TROON,AYRSHIRE,KA10 6QN,19760115,,01292 310535,4
S80631,WEST KILBRIDE GROUP PRACTICE,107B MAIN STREET,,,WEST KILBRIDE,AYRSHIRE,KA23 9AR,19700801,,01294 823607,4
S80645,BRODICK HEALTH CENTRE,BRODICK,,,ISLE OF ARRAN,ISLE OF ARRAN,KA27 8AJ,19841016,20111107,01770 302 17,4
S80650,THE MEDICAL CENTRE,LAMLASH,,,ISLE OF ARRAN,ISLE OF ARRAN,KA27 8NS,19780501,20111107,01770 600516,4
S80664,THE SHISKINE SURGERY,SHISKINE,,,ISLE OF ARRAN,ISLE OF ARRAN,KA27 8EW,19770701,20120924,01770 860247,4
S80679,CUMBRAE MEDICAL PRACTICE,GARRISON HOUSE,COLLEGE STREET,,MILLPORT,ISLE OF CUMBRAE,KA28 0DE,19840401,,01475 531 40,0
S80683,KYLESHILL SURGERY,SALTCOATS HEALTH CENTRE,17-19 RAISE STREET,,SALTCOATS,AYRSHIRE,KA21 5LX,19931001,20100630,01294 605699,4
S80698,FREW TERRACE SURGERY,9 FREW TERRACE,,,IRVINE,AYRSHIRE,KA12 9DY,19940501,,01294 272326,4
S80701,STEVENSTON GROUP PRACTICE,THE HEALTH CENTRE,20 MAIN STREET,,STEVENSTON,AYRSHIRE,KA20 3HA,19950701,,01294 464413,4
S80715,THE SURGERY,STEVENSTON HEALTH CENTRE,MAIN STREET,,STEVENSTON,AYRSHIRE,KA20 3BB,19950701,20100630,01294 464141,4
S80720,TAIGLUM MEDICAL PRACTICE,DRONGAN CENTRE,MILL OF SHIELD ROAD,DRONGAN,AYR,AYRSHIRE,KA6 7AY,19950906,,01292 591345,4
S80749,BALLOCHMYLE MEDICAL GROUP,THE CLINIC,INSTITUTE AVENUE,CATRINE,MAUCHLINE,AYRSHIRE,KA5 6RU,19970401,,08444 997055,4
S80753,KILWINNING MEDICAL PRACTICE,15 ALMSWALL ROAD,,,KILWINNING,AYRSHIRE,KA13 6BL,19980901,,01294 554 59,4
S80768,OXENWARD SURGERY,3 OXENWARD ROAD,,,KILWINNING,AYRSHIRE,KA13 6EH,19980901,,01294 551555,4
S80772,AUCHINLECK SURGERY,THE HEALTH CENTRE,MAIN STREET,AUCHINLECK,CUMNOCK,AYRSHIRE,KA18 2AY,19990401,,01290 424 71,4
S80787,DR KONDOL AND PARTNERS,LOUDOUN MEDICAL CENTRE,LOCHORE TERRACE,,DARVEL,AYRSHIRE,KA17 0HD,20000401,,01560 320205,4
S80791,ADOC SERVICE,"NHS AYRSHIRE,ARRAN","THE LISTER CENTRE,LISTER STREET",CROSSHOUSE,KILMARNOCK,AYRSHIRE,KA2 0BB,20050426,,,0
S80804,SOUTH AYRSHIRE CHP PRACTICE,HEATHFIELD ROAD,,,AYR,AYRSHIRE,KA8 9DU,20050426,,,0
S80819,NORTH AYRSHIRE CHP PRACTICE,AYRSHIRE CENTRAL HOSPITAL,KILWINNING ROAD,,IRVINE,AYRSHIRE,KA12 8SS,20050426,,,0
S80823,EAST AYRSHIRE CHP PRACTICE,HOLMES ROAD,,,KILMARNOCK,AYRSHIRE,KA2 0BE,20050426,,,0
S80842,BANKFIELD MEDICAL PRACTICE,148 DALMELLINGTON ROAD,,,AYR,AYRSHIRE,KA7 3PR,20051121,,01292 264080,4
S80857,LARGS MEDICAL GROUP,"BROOKSBY MEDICAL,RESOURCE CENTRE",31 BRISBANE ROAD,,LARGS,AYRSHIRE,KA30 8LH,20060703,,01475 674545,4
S80861,CHALLENGING BEHAVIOUR SERVICE,"C/O ROOM 88,EGLINTON HOUSE",AILSA HOSPITAL,DALMELLINGTON ROAD,AYR,AYRSHIRE,KA6 6AB,20061107,,01292 513843,0
S80895,THREE TOWNS MEDICAL PRACTICE,HEALTH CENTRE,MAIN STREET,,STEVENSTON,AYRSHIRE,KA20 3AB,20100701,,01294 464141,4
S80908,PORTLAND MEDICAL PRACTICE,34 PORTLAND ROAD,,,KILMARNOCK,AYRSHIRE,KA1 2DL,20100801,,01563 522411,4
S80912,ARRAN MEDICAL GROUP,THE MEDICAL CENTRE,MURRAY CRESCENT,,LAMLASH,ISLE OF ARRAN,KA27 8NS,20111108,20120924,01770 600 51,4
S80927,ARRAN MEDICAL GROUP,THE MEDICAL CENTRE,MURRAY CRESCENT,,LAMLASH,ISLE OF ARRAN,KA27 8NS,20120925,,01770 600516,4
S80931,HMS GANNET MEDICAL CENTRE,GREENSITE,PRESTWICK AIRPORT,,PRESTWICK,AYRSHIRE,KA9 2RZ,20130517,,0141 300 136,0
S80946,COMMUNITY WARDS,BIGGART HOSPITAL,BIGGART ROAD,,PRESTWICK,AYRSHIRE,KA9 2HQ,20120701,,01294 400616,4
S80965,A&A POLICE CUSTODY SUITES,AILSA HOSPITAL,DALMELLINGTON ROAD,,AYR,AYRSHIRE,KA6 6AB,20140401,,01292 513 83,4
S80999,ADOC,THE LISTER CENTRE,"CROSSHOUSE HOSPITAL,LISTER STREET",CROSSHOUSE,KILMARNOCK,AYRSHIRE,KA2 0BB,20020401,,,0
S84006,"DR MARIJTJE DRIJFHOUT,DR STUART CAIRNS",PORT APPIN SURGERY,PORT APPIN,,APPIN,ARGYLL,PA38 4DE,19810201,,01631 730271,4
S84030,"DRS LAZARUS,NORRIE,VILLALBA MUNOZ,ANDERSON,COOK",CAMPBELTOWN HEALTH CENTRE,STEWART ROAD,,CAMPBELTOWN,ARGYLL,PA28 6AT,19801001,,01586 552105,4
S84063,DR MALCOLM R ELDER,THE CARRADALE SURGERY,CARRADALE,,CAMPBELTOWN,ARGYLL,PA28 6QG,19780901,,01583 431376,4
S84097,DR C O'NEILL,COLL MEDICAL PRACTICE,,,ARINAGOUR,ISLE OF COLL,PA78 6SY,19961001,,01879 230326,4
S84129,COLONSAY SURGERY,SCALASAIG,,,ISLE OF COLONSAY,ISLE OF COLONSAY,PA61 7YW,19900401,,01951 200328,4
S84191,TAYNUILT MEDICAL PRACTICE,THE SURGERY,CONNEL,,OBAN,ARGYLL,PA37 1PH,20041001,,01631 710229,4
S84237,"DRS HALL,BRENNAN,MCLAUGHLIN",246 ARGYLL STREET,,,DUNOON,ARGYLL,PA23 7HW,19770808,,01369 703252,4
S84241,CHURCH STREET SURGERY,30 CHURCH STREET,,,DUNOON,ARGYLL,PA23 8BG,19840201,,01369 703482,4
S84256,"DR TAYLOR-KAVANAGH,PARTNER",246 ARGYLL STREET,,,DUNOON,ARGYLL,PA23 7HW,19990701,,01369 703279,4
S84275,EASDALE MEDICAL PRACTICE,THE SURGERY,CLACHAN SEIL,,OBAN,ARGYLL,PA34 4TL,19880701,,01852 300223,4
S84307,THE FURNACE/INVERARAY SURGERY,FURNACE,,,INVERARAY,ARGYLL,PA32 8XN,19830901,,01499 500207,4
S84331,BOWMORE MEDICAL PRACTICE,ISLAY HOSPITAL,GORTONVOGIE ROAD,,BOWMORE,ISLE OF ISLAY,PA43 7JD,19900401,,01496 301039,4
S84345,PORT ELLEN PRACTICE,"THE SURGERY,GEIRHILDA",BACK ROAD,,PORT ELLEN,ISLE OF ISLAY,PA42 7DR,19881114,,01496 302103,4
S84350,DR GRACE E GIBSON,THE RHINNS MEDICAL CENTRE,,,PORT CHARLOTTE,ISLE OF ISLAY,PA48 7UD,19900401,,01496 850210,4
S84383,JURA MEDICAL PRACTICE,GLENCAIRN SURGERY,,,CRAIGHOUSE,ISLE OF JURA,PA60 7XG,19800701,,01496 820218,4
S84415,LOCHGILPHEAD MEDICAL CENTRE,MID ARGYLL COMMUNITY HOSPITAL &,INTEGRATED CARE CENTRE,BLARBUIE ROAD,LOCHGILPHEAD,ARGYLL,PA31 8JZ,19800901,,01546 462002,4
S84449,DR P M R VON KAEHNE,THE LOCHGOILHEAD MEDICAL CENTRE,LOCHGOILHEAD,,CAIRNDOW,ARGYLL,PA24 8AA,19880704,,01301 703258,4
S84472,MUASDALE SURGERY,THE SURGERY,MUASDALE,,TARBERT,ARGYLL,PA29 6XD,19900401,20120124,01583 421206,4
S84504,"DR S M HAUNSCHMIDT,PARTNER",SALEN SURGERY,,,PIER ROAD,ISLE OF MULL,PA72 6JF,19850401,,01680 300327,4
S84519,"DR CHARLES D CHAPMAN,DR CLARE E LAVERY",TOBERMORY MEDICAL PRACTICE,ROCKFIELD ROAD,,TOBERMORY,ISLE OF MULL,PA75 6PN,19900401,,01688 302013,4
S84523,ROSS OF MULL AND IONA MEDICAL SERVICES,THE SURGERY,,,BUNESSAN,ISLE OF MULL,PA67 6DG,19830618,,01681 700261,4
S84581,LORN MEDICAL CENTRE,SOROBA ROAD,,,OBAN,ARGYLL,PA34 4HE,19961001,,01631 563175,4
S84646,THE BUTE PRACTICE,THE HEALTH CENTRE,"HIGH STREET,TOWNHEAD",,ROTHESAY,ISLE OF BUTE,PA20 9JL,19930601,,01700 502290,4
S84651,SOUTHEND MEDICAL PRACTICE,TEAPOT LANE,SOUTHEND,,CAMPBELTOWN,ARGYLL,PA28 6RW,19900401,20120124,01586 830635,4
S84684,DR ROBERT S B COULL,STRACHUR MEDICAL PRACTICE,DALNACRAIG,STRACHUR,CAIRNDOW,ARGYLL,PA27 8BX,19900312,,01369 860224,4
S84716,DR HANS JURGEN TITTMAR,RIVERBANK SURGERY,KILMUN,,DUNOON,ARGYLL,PA23 8SE,19791201,,01369 840279,4
S84740,TARBERT MEDICAL PRACTICE,CAMPBELTOWN ROAD,,,TARBERT,ARGYLL,PA29 6TY,19900401,,01880 820219,4
S84773,"DR A MACGREGOR,DR N HALLUM",KYLES MEDICAL CENTRE,,,TIGHNABRUAICH,ARGYLL,PA21 2BE,19620201,,01700 811207,4
S84805,TIREE MEDICAL PRACTICE,BAUGH SURGERY,,,BAUGH,ISLE OF TIREE,PA77 6UN,19861001,,01879 220323,4
S84810,KINTYRE MEDICAL GROUP,MUASDALE SURGERY,MUASDALE,,TARBERT,ARGYLL,PA29 6XD,20120125,,01583 421206,0
S84971,RED TOWERS,DRUG REHAB UNIT,4 WEST DOUGLAS DRIVE,,HELENSBURGH,DUNBARTONSHIRE,G84 9AL,20080624,20101215,,4
S84985,"ARGYLL,BUTE ADDICTION TEAM","ARGYLL,BUTE HOSPITAL",BLARBUIE ROAD,,LOCHGILPHEAD,ARGYLL,PA31 8LD,20080401,,,0
S84990,ARGYLL PRIMARY CARE EMERGENCY,VALE OF LEVEN HOSPITAL,NORTH MAIN STREET,,ALEXANDRIA,DUNBARTONSHIRE,G83 0UA,20040928,,,0
S85009,"DR DAVID F TROUP,DR CHIARA E BERARDELLI",ARROCHAR SURGERY,,,ARROCHAR,DUNBARTONSHIRE,G83 7AE,19821001,,08444 772520,4
S85032,"DRS LOGAN,TOOKE",THE HEALTH CENTRE,STATION ROAD,,DUMBARTON,DUNBARTONSHIRE,G82 1PW,19880401,,01389 811811,4
S85047,"DRS MCMASTER,PARTNERS",THE HEALTH CENTRE,STATION ROAD,,DUMBARTON,DUNBARTONSHIRE,G82 1PW,19831101,,01389 811862,4
S85066,LEVENSIDE MEDICAL PRACTICE,THE HEALTH CENTRE,STATION ROAD,,DUMBARTON,DUNBARTONSHIRE,G82 1PW,19900401,,01389 811844,4
S85071,"DR K N LYNN,DR J M MCDEVITT",THE HEALTH CENTRE,STATION ROAD,,DUMBARTON,DUNBARTONSHIRE,G82 1PW,19720301,,01389 811855,4
S85085,"DR NEILSON,PARTNER",THE HEALTH CENTRE,STATION ROAD,,DUMBARTON,DUNBARTONSHIRE,G82 1PW,20010401,,01389 811851,4
S85090,"DR STEPHEN H DUNN,PARTNERS",THE HEALTH CENTRE,STATION ROAD,,DUMBARTON,DUNBARTONSHIRE,G82 1PW,20010401,,01389 811833,4
S85117,"DR J D MCKELVIE,DR ELIZABETH FARRAR",GARELOCHHEAD MEDICAL CENTRE,MCAULAY PLACE,"FEORLIN WAY,GARELOCHHEAD",HELENSBURGH,DUNBARTONSHIRE,G84 0SL,19690101,,01436 810370,4
S85141,MILLIG PRACTICE,THE MEDICAL CENTRE,12 EAST KING STREET,,HELENSBURGH,DUNBARTONSHIRE,G84 7QL,19750801,,01436 673366,4
S85155,"DR MACLEOD,PARTNERS",THE MEDICAL CENTRE,12 EAST KING STREET,,HELENSBURGH,DUNBARTONSHIRE,G84 7QL,19740801,,01436 672277,4
S85193,"DRS DOYLE,FALCONER",KILCREGGAN HEALTH CENTRE,SHORE ROAD,KILCREGGAN,HELENSBURGH,DUNBARTONSHIRE,G84 0JL,19870406,,01436 842156,4
S85206,HMS NEPTUNE RN SICK QUARTERS,MEDICAL CENTRE,FASLANE,,HELENSBURGH,DUNBARTONSHIRE,G84 8HL,20120601,,,0
S85225,THE LENNOX PRACTICE,"THE VALE CENTRE FOR HEALTH,CARE",NORTH MAIN STREET,,ALEXANDRIA,DUNBARTONSHIRE,G83 0UA,19790801,,01389 828616,4
S85230,"DR N S D MACKAY,PARTNERS",75 BANK STREET,,,ALEXANDRIA,DUNBARTONSHIRE,G83 0NB,19810201,,01389 752626,4
S85244,"DR HUNTER,PARTNERS",46 - 62 BANK STREET,,,ALEXANDRIA,DUNBARTONSHIRE,G83 0LS,19750401,20110331,01389 752650,4
S85259,"DRS FURNEAUX,MCLACHLAN,MEIKLE","THE VALE CENTRE FOR HEALTH,CARE",NORTH MAIN STREET,,ALEXANDRIA,DUNBARTONSHIRE,G83 0UA,19781001,,01389 828600,4
S85263,"DRS MACRAE,PARTNERS",46 - 62 BANK STREET,,,ALEXANDRIA,DUNBARTONSHIRE,G83 0LS,19770801,20110331,01389 756029,4
S85403,OAK VIEW MEDICAL PRACTICE,"THE VALE CENTRE FOR HEALTH,CARE",NORTH MAIN STREET,,ALEXANDRIA,DUNBARTONSHIRE,G83 0UA,20110401,,01389 752650,4
S85992,RENFREWSHIRE EMERGENCY OOH SERVICE,DUMBARTON MEDICAL CENTRE,STATION ROAD,,DUMBARTON,DUNBARTONSHIRE,G82 1PW,20000801,,,0
S86001,GOUROCK MEDICAL PRACTICE,GOUROCK HEALTH CENTRE,181 SHORE STREET,,GOUROCK,RENFREWSHIRE,PA19 1AQ,19751101,,01475 634617,4
S86040,"DR M KOHLHAGEN,PARTNERS",GREENOCK HEALTH CENTRE,20 DUNCAN STREET,,GREENOCK,RENFREWSHIRE,PA15 4LY,19781101,,01475 501338,4
S86054,ORANGEFIELD PRACTICE,THE HEALTH CENTRE,20 DUNCAN STREET,,GREENOCK,RENFREWSHIRE,PA15 4LY,19700901,,01475 501334,4
S86069,GREENOCK HEALTH CENTRE,20 DUNCAN STREET,,,GREENOCK,RENFREWSHIRE,PA15 4LY,19770201,20060331,01475 501336,4
S86158,GREENOCK HEALTH CENTRE,20 DUNCAN STREET,,,GREENOCK,RENFREWSHIRE,PA15 4LY,19950401,20060331,01475 501340,4
S86162,"DR D A FOSTER,DR A E CRAWFORD",THE HEALTH CENTRE,20 DUNCAN STREET,,GREENOCK,RENFREWSHIRE,PA15 4LY,19990401,,01475 501246,4
S86177,ARDGOWAN MEDICAL PRACTICE,2 FINNART STREET,,,GREENOCK,RENFREWSHIRE,PA16 8HW,20021104,,01475 888155,4
S86181,MOUNT PLEASANT PRACTICE,STATION VIEW HEALTH CENTRE,84 HOLMSCROFT STREET,,GREENOCK,RENFREWSHIRE,PA15 4DG,20021104,,01475 884 30,4
S86196,"DRS SIMPSON,LUTY,GOVINDAPPA",DOREMA,BRIDGE OF WEIR ROAD,,KILMACOLM,RENFREWSHIRE,PA13 4AP,19791201,,01505 872155,4
S86209,"DRS E MANASSES,M AROKIANATHAN,B MCCUSKER",THE NEW SURGERY,THE CARGILL CENTRE,LOCHWINNOCH ROAD,KILMACOLM,RENFREWSHIRE,PA13 4LE,19900401,,01505 872844,4
S86228,"DR HOGAN,ALLEN,QUINN",THE HEALTH CENTRE,20 DUNCAN STREET,,GREENOCK,RENFREWSHIRE,PA15 4LY,20000401,,01475 501337,4
S86271,"DRS MCCARTNEY,SMITH,ADDISCOTT",THE HEALTH CENTRE,2 BAY STREET,,PORT GLASGOW,RENFREWSHIRE,PA14 5EW,19800801,,01475 745321,4
S86285,"DRS MACDONALD,MITCHELL,ROLLAND",THE HEALTH CENTRE,2 BAY STREET,,PORT GLASGOW,RENFREWSHIRE,PA14 5EW,19910401,,01475 506038,4
S86317,DR J G BOGAN AND DR L A S NICOL,THE HEALTH CENTRE,2 BAY STREET,,PORT GLASGOW,RENFREWSHIRE,PA14 5EW,19921001,,01475 506004,4
S86321,"DRS WILKIE,FARRELL,CAMPBELL,POPE",THE HEALTH CENTRE,2 BAY STREET,,PORT GLASGOW,RENFREWSHIRE,PA14 5EW,19921001,,01475 745321,4
S86336,"DRS MUTCH,HOLMS,BOYCE,DOOLEY",MEDICAL CENTRE,4 DUBBS PLACE,,PORT GLASGOW,RENFREWSHIRE,PA14 5UD,19940718,,01475 705604,4
S86341,THE ROXBURGH PRACTICE,STATION VIEW HEALTH CENTRE,84 HOLMSCROFT STREET,,GREENOCK,RENFREWSHIRE,PA15 4DG,20011001,,01475 558300,4
S86355,REGENT MEDICAL PRACTICE,THE HEALTH CENTRE,20 DUNCAN STREET,,GREENOCK,RENFREWSHIRE,PA15 4LY,20060401,,01475 553560,4
S86995,INVERCLYDE DOCTORS EMERGENCY SERVICE,THE HEALTH CENTRE,20 DUNCAN STREET,,GREENOCK,RENFREWSHIRE,PA15 4LY,20030401,,01475 724477,0
S87019,GLENIFFER MEDICAL GROUP,"BARRHEAD HEALTH,CARE CENTRE",213 MAIN STREET,BARRHEAD,GLASGOW,LANARKSHIRE,G78 1SW,19761001,,,4
S87023,"DR A CAPALDI,DR J DUDGEON",NEILSTON MEDICAL CENTRE,1 HIGH STREET,NEILSTON,GLASGOW,LANARKSHIRE,G78 3HJ,19900401,,0141 880 650,4
S87081,BARRHEAD HEALTH CENTRE,201 MAIN STREET,BARRHEAD,,GLASGOW,LANARKSHIRE,G78 1SA,20000526,20000604,0141 880 616,4
S87108,THE OAKS MEDICAL PRACTICE,1ST FLOOR,"BARRHEAD HEALTH,CARE CENTRE","213 MAIN STREET,BARRHEAD",GLASGOW,LANARKSHIRE,G78 1SW,20000405,,0141 800 708,4
S87112,BISHOPTON MEDICAL PRACTICE,GREENOCK ROAD,,,BISHOPTON,RENFREWSHIRE,PA7 5AW,19811101,,01505 863223,4
S87146,"DR SMITH,PARTNERS",THE SURGERY,KIRK ROAD,HOUSTON,JOHNSTONE,RENFREWSHIRE,PA6 7AR,19810201,,01505 613240,4
S87165,LEVERN MEDICAL GROUP,"BARRHEAD HEALTH,CARE CENTRE",213 MAIN STREET,BARRHEAD,GLASGOW,LANARKSHIRE,G78 1SW,20020601,,0141 800 700,4
S87184,"DRS MURRAY.WILLS,MACPHERSON,HANLEY,TOBIN",MAINS MEDICAL CENTRE,300 MAINS DRIVE,,ERSKINE,RENFREWSHIRE,PA8 7JQ,19790701,,0141 812 323,4
S87235,BRIDGEWATER MEDICAL CENTRE,15 KILPATRICK DRIVE,,,ERSKINE,RENFREWSHIRE,PA8 7AF,19910401,,0141 812 202,4
S87240,"DRS GRIFFITH,SCULLION,HAMILTON,BORLAND",ERSKINE CLINIC,BARRGARRAN CENTRE,,ERSKINE,RENFREWSHIRE,PA8 6BS,20000401,,0141 314 931,4
S87288,"DR DHIYA,PARTNER",WESTFIELD SURGERY,LINDEN MEDICAL CENTRE,FLOORS STREET,JOHNSTONE,RENFREWSHIRE,PA5 8PZ,19860601,20110331,01505 337888,4
S87292,LUDOVIC MEDICAL PRACTICE,60 QUARRY STREET,,,JOHNSTONE,RENFREWSHIRE,PA5 8EY,19890101,,01505 324348,4
S87305,QUARRYSIDE PRACTICE,LINDEN MEDICAL CENTRE,25 FLOORS STREET,,JOHNSTONE,RENFREWSHIRE,PA5 8PZ,19751001,,01505 321733,4
S87324,RAVENSWOOD SURGERY,THOMSON AVENUE,,,JOHNSTONE,RENFREWSHIRE,PA5 8SU,19880822,,01505 331979,4
S87339,"DRS CUNNING,HOWIE",RIVERVIEW MEDICAL CENTRE,6 GEORGE STREET,,JOHNSTONE,RENFREWSHIRE,PA5 8SL,19940701,,01505 320208,4
S87343,"DR CASSIDY,PARTNERS",LINDEN MEDICAL CENTRE,25 FLOORS STREET,,JOHNSTONE,RENFREWSHIRE,PA5 8PZ,19940701,,01505 320151,4
S87377,DR D S KHANNA,LINDEN MEDICAL CENTRE,25 FLOORS STREET,,JOHNSTONE,RENFREWSHIRE,PA5 8PZ,19811201,20110331,01505 331673,4
S87409,"DR RICHMOND,PARTNERS",LINWOOD HEALTH CENTRE,5 BRIDGE STREET,LINWOOD,PAISLEY,RENFREWSHIRE,PA3 3DB,19800901,,01505 321051,4
S87432,MISTYLAW MEDICAL PRACTICE,31 MAIN STREET,,,LOCHWINNOCH,RENFREWSHIRE,PA12 4AH,19790701,,01505 842200,4
S87466,THE CHARLESTON SURGERY,5 SOUTH CAMPBELL STREET,,,PAISLEY,RENFREWSHIRE,PA2 6LR,19800801,,0141 889 437,4
S87471,ANCHOR MILL MEDICAL PRACTICE,4 SAUCEL CRESCENT,,,PAISLEY,RENFREWSHIRE,PA1 1UB,19690401,,0141 889 880,4
S87485,"DR A LATIF,DR A MAHMOOD",THE TANNAHILL CENTRE,76 BLACKSTOUN ROAD,,PAISLEY,RENFREWSHIRE,PA3 1NT,19880101,,0141 889 763,4
S87490,KING STREET SURGERY,THE SURGERY,15 KING STREET,,PAISLEY,RENFREWSHIRE,PA1 2PS,19810801,,0141 889 314,4
S87502,THE CONSULTING ROOMS,21 NEILSTON ROAD,,,PAISLEY,RENFREWSHIRE,PA2 6LW,19780401,,0141 889 527,4
S87517,GLENBURN MEDICAL PRACTICE,GLENBURN HEALTH CENTRE,FAIRWAY AVENUE,,PAISLEY,RENFREWSHIRE,PA2 8DX,19810901,,0141 884 778,4
S87521,"DRS CRAMPSEY,GALLOWAY",KELBOURNE SURGERY,NORTHCROFT MEDICAL CENTRE,NORTH CROFT STREET,PAISLEY,RENFREWSHIRE,PA3 4AD,19870301,,0141 889 335,4
S87541,THE GREENLAW PRACTICE,NORTHCROFT MEDICAL CENTRE,NORTH CROFT STREET,,PAISLEY,RENFREWSHIRE,PA3 4AD,19691001,,0141 889 846,4
S87555,THE MIRIN PRACTICE,THE SURGERY,3 GLASGOW ROAD,,PAISLEY,RENFREWSHIRE,PA1 3QS,19780901,,0141 889 260,4
S87560,THE LOVE STREET MEDICAL CENTRE,40 LOVE STREET,,,PAISLEY,RENFREWSHIRE,PA3 2DY,19900401,,0141 531 343,4
S87574,DRS.MASON AND MCDADE,ST. JAMES STREET MEDICAL CENTRE,19 ST. JAMES STREET,,PAISLEY,RENFREWSHIRE,PA3 2HQ,19790601,,0141 889 550,4
S87606,THE BARONY PRACTICE,NORTHCROFT MEDICAL CENTRE,NORTH CROFT STREET,,PAISLEY,RENFREWSHIRE,PA3 4AD,19951201,,0141 889 373,4
S87625,ABBEY MEDICAL CENTRE,LONEND,,,PAISLEY,RENFREWSHIRE,PA1 1SU,19960101,,0141 889 408,4
S87630,PAISLEY COMMUNITY MENTAL HEALTH,DYKEBAR HOSPITAL,GRAHAMSTON ROAD,,PAISLEY,RENFREWSHIRE,PA2 7DE,20030127,,,0
S87697,BRAEHEAD MEDICAL PRACTICE,RENFREW HEALTH CENTRE,10 FERRY ROAD,,RENFREW,RENFREWSHIRE,PA4 8RU,19790701,,0141 207 748,4
S87700,CLYDEVIEW MEDICAL PRACTICE,RENFREW HEALTH CENTRE,10 FERRY ROAD,,RENFREW,RENFREWSHIRE,PA4 8RU,19820201,,0141 207 773,4
S87714,KINGSINCH MEDICAL PRACTICE,RENFREW HEALTH CENTRE,10 FERRY ROAD,,RENFREW,RENFREWSHIRE,PA4 8RU,19801001,,0141 207 770,4
S87729,WESTFIELD MEDICAL PRACTICE,LINDEN MEDICAL CENTRE,25 FLOORS STREET,,JOHNSTONE,RENFREWSHIRE,PA5 8PZ,20110401,,01505 337999,4
S89993,PRIMARY CARE EMERGENCY SERVICE,GP OUT OF HOURS LOMOND,VALE OF LEVEN GENERAL HOSPITAL,NORTH MAIN STREET,ALEXANDRIA,DUNBARTONSHIRE,G83 0UA,19900401,,,0
S90007,BORVE MEDICAL PRACTICE,GEARRA MOR SURGERY,BORVE,,ISLE OF LEWIS,ISLE OF LEWIS,HS2 0RX,19900401,20051031,01851 850282,4
S90026,CARLOWAY MEDICAL PRACTICE,THE SURGERY,CARLOWAY,,ISLE OF LEWIS,ISLE OF LEWIS,HS2 9AG,19900401,20051031,01851 643333,4
S90031,THE GROUP PRACTICE,SPRINGFIELD ROAD,,,STORNOWAY,ISLE OF LEWIS,HS1 2PS,19850801,,01851 703145,4
S90064,"UIG,BERNERA MEDICAL PRACTICE",MIAVAIG,,,ISLE OF LEWIS,ISLE OF LEWIS,HS2 9HW,19730401,20110430,01851 672283,4
S90079,NORTH LOCHS MEDICAL PRACTICE,GLEANN MOR,LOCHS,,ISLE OF LEWIS,ISLE OF LEWIS,HS2 9JP,19900401,20110430,01851 860222,4
S90083,PAIRC MEDICAL PRACTICE,BLAR MHOR,GRAVIR,,ISLE OF LEWIS,ISLE OF LEWIS,HS2 9QX,19820304,20110430,01851 880272,4
S90098,NORTH HARRIS MEDICAL PRACTICE,THE SURGERY,,,TARBERT,ISLE OF HARRIS,HS3 3BG,19700101,,01859 502421,4
S90101,SOUTH HARRIS MEDICAL PRACTICE,FERRY ROAD,,,LEVERBURGH,ISLE OF HARRIS,HS5 3UA,19891001,,01859 520278,4
S90115,NORTH UIST MEDICAL PRACTICE,THE SURGERY,,,LOCHMADDY,ISLE OF NORTH UIST,HS6 5AE,19911001,,01876 500333,4
S90120,BENBECULA MEDICAL PRACTICE,SORELLE LODGE SURGERY,,,GRIMINISH,ISLE OF BENBECULA,HS7 5QA,19910701,,01870 602215,4
S90134,SOUTH UIST MEDICAL PRACTICE,DALIBURGH,,,ISLE OF SOUTH UIST,ISLE OF SOUTH UIST,HS8 5SS,19900401,,01878 700302,4
S90149,BARRA MEDICAL PRACTICE,CLACH MILE SURGERY,,,CASTLEBAY,ISLE OF BARRA,HS9 5XD,19821001,,01871 810282,4
S90153,LEWIS OUT OF HOURS CENTRE,WESTERN ISLES HOSPITAL,MACAULAY ROAD,,STORNOWAY,ISLE OF LEWIS,HS1 2AF,20040622,,01851 704 70,2
S90168,OUT OF HOURS CENTRE (UIST),UIST AND BARRA HOSPITAL,,,BALIVANICH,ISLE OF BENBECULA,HS7 5LA,20040601,,,2
S90172,BROADBAY MEDICAL PRACTICE,16 FRANCIS STREET,,,STORNOWAY,ISLE OF LEWIS,HS1 2XB,20040701,,01851 703588,4
S90187,WESTSIDE MEDICAL PRACTICE,THE SURGERY,CARLOWAY,,ISLE OF LEWIS,ISLE OF LEWIS,HS2 9AG,20051101,,01851 850282,4
S90191,LANGABHAT MEDICAL PRACTICE,NORTH LOCHS MEDICAL PRACTICE,GLEANN MOR,LEURBOST,ISLE OF LEWIS,ISLE OF LEWIS,HS2 9JP,20110501,,01851 860222,4
